{
"type": "FeatureCollection",
"name": "geo_43_訪問入浴介護",
"crs": { "type": "name", "properties": { "name": "urn:ogc:def:crs:OGC:1.3:CRS84" } },
"features": [
{ "type": "Feature", "properties": { "内容": "アースサポート熊本【訪問入浴介護】熊本県熊本市中央区白山2丁目1番1号", "url": "https://www.kaigokensaku.mhlw.go.jp/43/index.php?action_kouhyou_detail_004_kani=true&JigyosyoCd=4370106637-00&ServiceCd=120&Type=search", "url2": "http://www.earthsupport.co.jp" }, "geometry": { "type": "Point", "coordinates": [ 130.725103799999943, 32.7944432 ] } },
{ "type": "Feature", "properties": { "内容": "アサヒサンクリーン在宅介護センター熊本中央【訪問入浴介護】熊本市中央区大江５-15-16", "url": "https://www.kaigokensaku.mhlw.go.jp/43/index.php?action_kouhyou_detail_004_kani=true&JigyosyoCd=4370109706-00&ServiceCd=120&Type=search", "url2": "http://www.asahi-sun-clean.co.jp/" }, "geometry": { "type": "Point", "coordinates": [ 130.724223177523783, 32.796698094446995 ] } },
{ "type": "Feature", "properties": { "内容": "セントケア熊本【訪問入浴介護】熊本県熊本市中央区帯山3丁目18-42エルグランド帯山Ⅰ　1F-B号室", "url": "https://www.kaigokensaku.mhlw.go.jp/43/index.php?action_kouhyou_detail_004_kani=true&JigyosyoCd=4370106090-00&ServiceCd=120&Type=search", "url2": null }, "geometry": { "type": "Point", "coordinates": [ 130.752844594960834, 32.800173273088014 ] } },
{ "type": "Feature", "properties": { "内容": "ゆうしん訪問入浴事業所【訪問入浴介護】熊本県熊本市東区錦ケ丘26番11号", "url": "https://www.kaigokensaku.mhlw.go.jp/43/index.php?action_kouhyou_detail_004_kani=true&JigyosyoCd=4370100986-00&ServiceCd=120&Type=search", "url2": "http://yushin-wel.jp/" }, "geometry": { "type": "Point", "coordinates": [ 130.75858310000001, 32.7915269 ] } },
{ "type": "Feature", "properties": { "内容": "株式会社ティー・シー・エス熊本営業所【訪問入浴介護】熊本県熊本市北区室園町20-68", "url": "https://www.kaigokensaku.mhlw.go.jp/43/index.php?action_kouhyou_detail_004_kani=true&JigyosyoCd=4370100895-00&ServiceCd=120&Type=search", "url2": "http://www.tcs-h.co.jp" }, "geometry": { "type": "Point", "coordinates": [ 130.723846437399715, 32.827902078688084 ] } },
{ "type": "Feature", "properties": { "内容": "アサヒサンクリーン株式会社在宅介護センター熊本北【訪問入浴介護】熊本県熊本市北区清水本町34-24　STILO　SHIMIZU　1階", "url": "https://www.kaigokensaku.mhlw.go.jp/43/index.php?action_kouhyou_detail_004_kani=true&JigyosyoCd=4370116131-00&ServiceCd=120&Type=search", "url2": "https://www.asahi-sun-clean.co.jp/" }, "geometry": { "type": "Point", "coordinates": [ 130.7273616, 32.8354722 ] } },
{ "type": "Feature", "properties": { "内容": "株式会社ティー・シー・エス　八代営業所【訪問入浴介護】八代市田中北町7号1番", "url": "https://www.kaigokensaku.mhlw.go.jp/43/index.php?action_kouhyou_detail_004_kani=true&JigyosyoCd=4370201677-00&ServiceCd=120&Type=search", "url2": "http://www.tcs-h.co.jp" }, "geometry": { "type": "Point", "coordinates": [ 130.60398352023779, 32.523810839056424 ] } },
{ "type": "Feature", "properties": { "内容": "社会福祉法人　水俣市社会福祉協議会　訪問入浴介護事業所【訪問入浴介護】熊本県水俣市牧ノ内３番１号　水俣市総合もやい直しセンター内", "url": "https://www.kaigokensaku.mhlw.go.jp/43/index.php?action_kouhyou_detail_004_kani=true&JigyosyoCd=4370500367-00&ServiceCd=120&Type=search", "url2": "https://www.minamata-shakyo.jp/" }, "geometry": { "type": "Point", "coordinates": [ 130.406800400000066, 32.2148658 ] } },
{ "type": "Feature", "properties": { "内容": "株式会社ティーシー･エス玉名営業所【訪問入浴介護】熊本県玉名市中尾344番1", "url": "https://www.kaigokensaku.mhlw.go.jp/43/index.php?action_kouhyou_detail_004_kani=true&JigyosyoCd=4370601140-00&ServiceCd=120&Type=search", "url2": null }, "geometry": { "type": "Point", "coordinates": [ 130.546362499999987, 32.9364923 ] } },
{ "type": "Feature", "properties": { "内容": "アサヒサンクリーン在宅介護センター熊本南【訪問入浴介護】熊本県宇城市松橋町松橋212-2", "url": "https://www.kaigokensaku.mhlw.go.jp/43/index.php?action_kouhyou_detail_004_kani=true&JigyosyoCd=4371301146-00&ServiceCd=120&Type=search", "url2": "https://www.asahi-sun-clean.co.jp/" }, "geometry": { "type": "Point", "coordinates": [ 130.674805099999986, 32.649225 ] } },
{ "type": "Feature", "properties": { "内容": "天草市社協ヘルパーセンター本渡【訪問入浴介護】熊本県天草市亀場町亀川1886-2", "url": "https://www.kaigokensaku.mhlw.go.jp/43/index.php?action_kouhyou_detail_004_kani=true&JigyosyoCd=4371500184-00&ServiceCd=120&Type=search", "url2": "http://www.amakusa-shakyo.jp/" }, "geometry": { "type": "Point", "coordinates": [ 130.20025076997544, 32.448900370893483 ] } },
{ "type": "Feature", "properties": { "内容": "天草市社協訪問入浴うしぶか【訪問入浴介護】熊本県天草市牛深町2286-103", "url": "https://www.kaigokensaku.mhlw.go.jp/43/index.php?action_kouhyou_detail_004_kani=true&JigyosyoCd=4371500192-00&ServiceCd=120&Type=search", "url2": null }, "geometry": { "type": "Point", "coordinates": [ 130.026773700000035, 32.1947028 ] } },
{ "type": "Feature", "properties": { "内容": "セントケア八代【訪問入浴介護】熊本県八代郡氷川町宮原下宮後479番", "url": "https://www.kaigokensaku.mhlw.go.jp/43/index.php?action_kouhyou_detail_004_kani=true&JigyosyoCd=4370201693-00&ServiceCd=120&Type=search", "url2": null }, "geometry": { "type": "Point", "coordinates": [ 130.678144532093825, 32.558740945071484 ] } },
{ "type": "Feature", "properties": { "内容": "芦北町社会福祉協議会訪問入浴介護事業所【訪問入浴介護】熊本県葦北郡芦北町大字湯浦１４３９番地１芦北町もやい直しセンター", "url": "https://www.kaigokensaku.mhlw.go.jp/43/index.php?action_kouhyou_detail_004_kani=true&JigyosyoCd=4373000654-00&ServiceCd=120&Type=search", "url2": "http://www.ashikita-shakyo.com" }, "geometry": { "type": "Point", "coordinates": [ 130.507676669897478, 32.365285510005762 ] } },
{ "type": "Feature", "properties": { "内容": "訪問入浴green【訪問入浴介護】熊本県球磨郡錦町西239-3", "url": "https://www.kaigokensaku.mhlw.go.jp/43/index.php?action_kouhyou_detail_004_kani=true&JigyosyoCd=4373101585-00&ServiceCd=120&Type=search", "url2": null }, "geometry": { "type": "Point", "coordinates": [ 130.820184500000011, 32.1950536 ] } },
{ "type": "Feature", "properties": { "内容": "翠光園【訪問入浴介護】熊本県球磨郡あさぎり町深田東４１０番地", "url": "https://www.kaigokensaku.mhlw.go.jp/43/index.php?action_kouhyou_detail_004_kani=true&JigyosyoCd=4373100355-00&ServiceCd=120&Type=search", "url2": "http://suikou-en.com" }, "geometry": { "type": "Point", "coordinates": [ 130.873425499999939, 32.2456232 ] } },
{ "type": "Feature", "properties": { "内容": "訪問入浴はればれ【訪問入浴介護】熊本県球磨郡あさぎり町上東1934-2", "url": "https://www.kaigokensaku.mhlw.go.jp/43/index.php?action_kouhyou_detail_004_kani=true&JigyosyoCd=4373101551-00&ServiceCd=120&Type=search", "url2": "https://asagirinohosi.wixsite.com/tsunagu" }, "geometry": { "type": "Point", "coordinates": [ 130.9261214, 32.2125402 ] } }
]
}
