{
"type": "FeatureCollection",
"name": "geo_43_認知症対応型共同生活介護",
"crs": { "type": "name", "properties": { "name": "urn:ogc:def:crs:OGC:1.3:CRS84" } },
"features": [
{ "type": "Feature", "properties": { "内容": "風流街もやい館グループホーム・デイサービスセンター五福【認知症対応型共同生活介護】熊本県熊本市中央区細工町4丁目34-1風流街もやい館五福", "url": "https://www.kaigokensaku.mhlw.go.jp/43/index.php?action_kouhyou_detail_004_kani=true&JigyosyoCd=4390101345-00&ServiceCd=320&Type=search", "url2": "http://www13.plala.or.jp/f-gofuku/" }, "geometry": { "type": "Point", "coordinates": [ 130.694149245368948, 32.793728474869674 ] } },
{ "type": "Feature", "properties": { "内容": "グループホームこせん【認知症対応型共同生活介護】熊本県熊本市中央区壺川2丁目3-70", "url": "https://www.kaigokensaku.mhlw.go.jp/43/index.php?action_kouhyou_detail_004_kani=true&JigyosyoCd=4390100933-00&ServiceCd=320&Type=search", "url2": "https://souyukai.or.jp/" }, "geometry": { "type": "Point", "coordinates": [ 130.7090604, 32.8190767 ] } },
{ "type": "Feature", "properties": { "内容": "悠々居【認知症対応型共同生活介護】熊本市中央区萩原町９番３５号悠々居", "url": "https://www.kaigokensaku.mhlw.go.jp/43/index.php?action_kouhyou_detail_004_kani=true&JigyosyoCd=4370101661-00&ServiceCd=320&Type=search", "url2": null }, "geometry": { "type": "Point", "coordinates": [ 130.710038605696099, 32.779638932399166 ] } },
{ "type": "Feature", "properties": { "内容": "グループホームゆうしん水前寺【認知症対応型共同生活介護】熊本県熊本市中央区水前寺5丁目20-5", "url": "https://www.kaigokensaku.mhlw.go.jp/43/index.php?action_kouhyou_detail_004_kani=true&JigyosyoCd=4390101659-00&ServiceCd=320&Type=search", "url2": "http://yushin-wel.jp" }, "geometry": { "type": "Point", "coordinates": [ 130.739328300000011, 32.7956015 ] } },
{ "type": "Feature", "properties": { "内容": "グループホームこ・こ（Ｃｏ・Ｃｏ）【認知症対応型共同生活介護】熊本市中央区坪井3丁目9番27号", "url": "https://www.kaigokensaku.mhlw.go.jp/43/index.php?action_kouhyou_detail_004_kani=true&JigyosyoCd=4390100446-00&ServiceCd=320&Type=search", "url2": "http://www.kiseikai.or.jp" }, "geometry": { "type": "Point", "coordinates": [ 130.714896, 32.8124469 ] } },
{ "type": "Feature", "properties": { "内容": "グループホーム悠祐【認知症対応型共同生活介護】熊本県熊本市中央区水前寺４丁目７番１５号", "url": "https://www.kaigokensaku.mhlw.go.jp/43/index.php?action_kouhyou_detail_004_kani=true&JigyosyoCd=4390100883-00&ServiceCd=320&Type=search", "url2": "http://obiyama-ct.com" }, "geometry": { "type": "Point", "coordinates": [ 130.737953299999958, 32.7994428 ] } },
{ "type": "Feature", "properties": { "内容": "鈴の音【認知症対応型共同生活介護】熊本県熊本市中央区国府１－３－１５", "url": "https://www.kaigokensaku.mhlw.go.jp/43/index.php?action_kouhyou_detail_004_kani=true&JigyosyoCd=4390100685-00&ServiceCd=320&Type=search", "url2": "http://www.kikunan-hospital.com/" }, "geometry": { "type": "Point", "coordinates": [ 130.726670499999955, 32.7924268 ] } },
{ "type": "Feature", "properties": { "内容": "グッドスマイル　イズミノソラ　グループホーム【認知症対応型共同生活介護】熊本県熊本市中央区出水7丁目94-20", "url": "https://www.kaigokensaku.mhlw.go.jp/43/index.php?action_kouhyou_detail_004_kani=true&JigyosyoCd=4390102756-00&ServiceCd=320&Type=search", "url2": "https://www.goodsmile.biz/" }, "geometry": { "type": "Point", "coordinates": [ 130.729005, 32.7716279 ] } },
{ "type": "Feature", "properties": { "内容": "グループホーム六花苑【認知症対応型共同生活介護】熊本市中央区帯山4丁目6番31号", "url": "https://www.kaigokensaku.mhlw.go.jp/43/index.php?action_kouhyou_detail_004_kani=true&JigyosyoCd=4370102115-00&ServiceCd=320&Type=search", "url2": "http://obiyama-ct.com" }, "geometry": { "type": "Point", "coordinates": [ 130.750052899999986, 32.8003538 ] } },
{ "type": "Feature", "properties": { "内容": "風流街もやい館　グループホーム・デイサービスセンター五福【認知症対応型共同生活介護】熊本市中央区細工町4丁目34－1風流街もやい館五福", "url": "https://www.kaigokensaku.mhlw.go.jp/43/index.php?action_kouhyou_detail_004_kani=true&JigyosyoCd=4390103119-00&ServiceCd=320&Type=search", "url2": "http://gofuku-moyai.com/" }, "geometry": { "type": "Point", "coordinates": [ 130.6943482, 32.7937996 ] } },
{ "type": "Feature", "properties": { "内容": "黒髪しょうぶ苑グループホーム【認知症対応型共同生活介護】熊本市中央区黒髪５丁目４番３０号", "url": "https://www.kaigokensaku.mhlw.go.jp/43/index.php?action_kouhyou_detail_004_kani=true&JigyosyoCd=4390100875-00&ServiceCd=320&Type=search", "url2": "http://www.shoubuen.com/kurokami.html" }, "geometry": { "type": "Point", "coordinates": [ 130.730142300000011, 32.8153802 ] } },
{ "type": "Feature", "properties": { "内容": "認知症高齢者グループホーム　　きらら【認知症対応型共同生活介護】熊本県熊本東区市新南部３丁目７番７６－１号", "url": "https://www.kaigokensaku.mhlw.go.jp/43/index.php?action_kouhyou_detail_004_kani=true&JigyosyoCd=4390100859-00&ServiceCd=320&Type=search", "url2": "kirara@keijinkai.net" }, "geometry": { "type": "Point", "coordinates": [ 130.746777899999984, 32.8156413 ] } },
{ "type": "Feature", "properties": { "内容": "江津しょうぶ苑　グループホーム【認知症対応型共同生活介護】熊本市東区画図町所島１０４０", "url": "https://www.kaigokensaku.mhlw.go.jp/43/index.php?action_kouhyou_detail_004_kani=true&JigyosyoCd=4390100263-00&ServiceCd=320&Type=search", "url2": "http://www.shoubuen.com/" }, "geometry": { "type": "Point", "coordinates": [ 130.734651100000065, 32.7716675 ] } },
{ "type": "Feature", "properties": { "内容": "愛の家グループホーム花立【認知症対応型共同生活介護】熊本県熊本市東区花立6丁目16－140", "url": "https://www.kaigokensaku.mhlw.go.jp/43/index.php?action_kouhyou_detail_004_kani=true&JigyosyoCd=4390100438-00&ServiceCd=320&Type=search", "url2": "http://www.mcsg.co.jp" }, "geometry": { "type": "Point", "coordinates": [ 130.776795900000025, 32.787369200000022 ] } },
{ "type": "Feature", "properties": { "内容": "愛の家　グループホーム花立2番館【認知症対応型共同生活介護】熊本県熊本市東区花立6丁目16-142", "url": "https://www.kaigokensaku.mhlw.go.jp/43/index.php?action_kouhyou_detail_004_kani=true&JigyosyoCd=4390102798-00&ServiceCd=320&Type=search", "url2": "https://mcs-ainoie.com/search/kumamoto/kumamotoshi/gh282/" }, "geometry": { "type": "Point", "coordinates": [ 130.7766018, 32.7875981 ] } },
{ "type": "Feature", "properties": { "内容": "グループホーム錦ヶ丘【認知症対応型共同生活介護】熊本市東区錦ヶ丘２６番１１号", "url": "https://www.kaigokensaku.mhlw.go.jp/43/index.php?action_kouhyou_detail_004_kani=true&JigyosyoCd=4390100206-00&ServiceCd=320&Type=search", "url2": "http://yushin-wel.jp/" }, "geometry": { "type": "Point", "coordinates": [ 130.75858310000001, 32.7915269 ] } },
{ "type": "Feature", "properties": { "内容": "社会福祉法人はちす福祉会グループホームハーモニー【認知症対応型共同生活介護】熊本市東区秋津町秋田171-2", "url": "https://www.kaigokensaku.mhlw.go.jp/43/index.php?action_kouhyou_detail_004_kani=true&JigyosyoCd=4390101873-00&ServiceCd=320&Type=search", "url2": "http：//hamony-k.or.jp/" }, "geometry": { "type": "Point", "coordinates": [ 130.76630780000005, 32.7656903 ] } },
{ "type": "Feature", "properties": { "内容": "くまもとケアセンターそよ風【認知症対応型共同生活介護】熊本市東区山ノ内3-9-27", "url": "https://www.kaigokensaku.mhlw.go.jp/43/index.php?action_kouhyou_detail_004_kani=true&JigyosyoCd=4370102156-00&ServiceCd=320&Type=search", "url2": "https://www.sykz.co.jp" }, "geometry": { "type": "Point", "coordinates": [ 130.7652799, 32.7950101 ] } },
{ "type": "Feature", "properties": { "内容": "グループホーム昭和【認知症対応型共同生活介護】熊本市東区尾ノ上３丁目３－１０７", "url": "https://www.kaigokensaku.mhlw.go.jp/43/index.php?action_kouhyou_detail_004_kani=true&JigyosyoCd=4390101030-00&ServiceCd=320&Type=search", "url2": "http://zinpukai.com/" }, "geometry": { "type": "Point", "coordinates": [ 130.755028369836396, 32.795177293360936 ] } },
{ "type": "Feature", "properties": { "内容": "グループホーム　画図　こもれび【認知症対応型共同生活介護】熊本県熊本市東区画図町所島205番地6", "url": "https://www.kaigokensaku.mhlw.go.jp/43/index.php?action_kouhyou_detail_004_kani=true&JigyosyoCd=4390101956-00&ServiceCd=320&Type=search", "url2": "http://shinseiki.jp/" }, "geometry": { "type": "Point", "coordinates": [ 130.731114185150062, 32.769896930444091 ] } },
{ "type": "Feature", "properties": { "内容": "グループホームあやの里【認知症対応型共同生活介護】熊本市東区山ノ内２－１－１４　熊本市東区山ノ内２－１－６", "url": "https://www.kaigokensaku.mhlw.go.jp/43/index.php?action_kouhyou_detail_004_kani=true&JigyosyoCd=4370102727-00&ServiceCd=320&Type=search", "url2": "http://www.ayanosato.net/" }, "geometry": { "type": "Point", "coordinates": [ 130.768971, 32.798363 ] } },
{ "type": "Feature", "properties": { "内容": "(介護予防)認知症対応型共同生活介護　バニラハウス【認知症対応型共同生活介護】熊本県熊本市東区小山６丁目１０番１３号", "url": "https://www.kaigokensaku.mhlw.go.jp/43/index.php?action_kouhyou_detail_004_kani=true&JigyosyoCd=4370103956-00&ServiceCd=320&Type=search", "url2": "http://www.ｋ-nisseikai.jp" }, "geometry": { "type": "Point", "coordinates": [ 130.797901799999977, 32.8315317 ] } },
{ "type": "Feature", "properties": { "内容": "グループホーム　ほほ笑み【認知症対応型共同生活介護】熊本市東区戸島西5丁目5-26", "url": "https://www.kaigokensaku.mhlw.go.jp/43/index.php?action_kouhyou_detail_004_kani=true&JigyosyoCd=4390100388-00&ServiceCd=320&Type=search", "url2": "http://hohoemi-kumamoto.com" }, "geometry": { "type": "Point", "coordinates": [ 130.79077529999995, 32.8121674 ] } },
{ "type": "Feature", "properties": { "内容": "認知症対応型共同生活介護事業所　ひまわり園【認知症対応型共同生活介護】熊本県熊本市東区長嶺東3丁目3-70番地", "url": "https://www.kaigokensaku.mhlw.go.jp/43/index.php?action_kouhyou_detail_004_kani=true&JigyosyoCd=4390100552-00&ServiceCd=320&Type=search", "url2": "http://sunlife-nagamine.or.jp/himawari/publics/index/13/&anchor_link=page13#page13" }, "geometry": { "type": "Point", "coordinates": [ 130.77645670000004, 32.8200857 ] } },
{ "type": "Feature", "properties": { "内容": "グループホームおやまの郷【認知症対応型共同生活介護】熊本県熊本市東区小山５丁目１番８２号", "url": "https://www.kaigokensaku.mhlw.go.jp/43/index.php?action_kouhyou_detail_004_kani=true&JigyosyoCd=4390100909-00&ServiceCd=320&Type=search", "url2": "http://kaigonomirai.com" }, "geometry": { "type": "Point", "coordinates": [ 130.7913552, 32.8298986 ] } },
{ "type": "Feature", "properties": { "内容": "グループホーム御領【認知症対応型共同生活介護】熊本県熊本市東区御領３丁目８番５２号", "url": "https://www.kaigokensaku.mhlw.go.jp/43/index.php?action_kouhyou_detail_004_kani=true&JigyosyoCd=4390102178-00&ServiceCd=320&Type=search", "url2": "https://kaigonomirai.com" }, "geometry": { "type": "Point", "coordinates": [ 130.7686711, 32.8239824 ] } },
{ "type": "Feature", "properties": { "内容": "グループホーム泉ヶ丘【認知症対応型共同生活介護】熊本県熊本市東区南町16-8", "url": "https://www.kaigokensaku.mhlw.go.jp/43/index.php?action_kouhyou_detail_004_kani=true&JigyosyoCd=4390101568-00&ServiceCd=320&Type=search", "url2": "http://kaigonomirai.com" }, "geometry": { "type": "Point", "coordinates": [ 130.7577387, 32.773484 ] } },
{ "type": "Feature", "properties": { "内容": "グループホーム　聖徳苑【認知症対応型共同生活介護】熊本県熊本市西区中原町504番地3", "url": "https://www.kaigokensaku.mhlw.go.jp/43/index.php?action_kouhyou_detail_004_kani=true&JigyosyoCd=4390102038-00&ServiceCd=320&Type=search", "url2": null }, "geometry": { "type": "Point", "coordinates": [ 130.6372480286268, 32.768272622700273 ] } },
{ "type": "Feature", "properties": { "内容": "グループホーム第二ほたる家【認知症対応型共同生活介護】熊本市西区河内町船津946", "url": "https://www.kaigokensaku.mhlw.go.jp/43/index.php?action_kouhyou_detail_004_kani=true&JigyosyoCd=4390101048-00&ServiceCd=320&Type=search", "url2": "https://shunkokai.jp/" }, "geometry": { "type": "Point", "coordinates": [ 130.584354, 32.8357289 ] } },
{ "type": "Feature", "properties": { "内容": "グループホーム聖母の丘【認知症対応型共同生活介護】熊本市西区島崎６丁目１番２７号", "url": "https://www.kaigokensaku.mhlw.go.jp/43/index.php?action_kouhyou_detail_004_kani=true&JigyosyoCd=4390101774-00&ServiceCd=320&Type=search", "url2": "http://seibonooka.sakura.ne.jp/" }, "geometry": { "type": "Point", "coordinates": [ 130.689873139425686, 32.812282964585634 ] } },
{ "type": "Feature", "properties": { "内容": "グループホーム　レクエルドのなか【認知症対応型共同生活介護】熊本県熊本市西区野中３丁目７－２７", "url": "https://www.kaigokensaku.mhlw.go.jp/43/index.php?action_kouhyou_detail_004_kani=true&JigyosyoCd=4390100768-00&ServiceCd=320&Type=search", "url2": "https://yushin-wel.jp/company/" }, "geometry": { "type": "Point", "coordinates": [ 130.672059, 32.7768327 ] } },
{ "type": "Feature", "properties": { "内容": "はなぞのケアセンターグループホーム【認知症対応型共同生活介護】熊本市西区花園７丁目25-23", "url": "https://www.kaigokensaku.mhlw.go.jp/43/index.php?action_kouhyou_detail_004_kani=true&JigyosyoCd=4390100644-00&ServiceCd=320&Type=search", "url2": "http://www.shunkokai.jp" }, "geometry": { "type": "Point", "coordinates": [ 130.69070929999998, 32.8261533 ] } },
{ "type": "Feature", "properties": { "内容": "グループホーム　ほたる家【認知症対応型共同生活介護】熊本市西区河内町野出１９３６－１", "url": "https://www.kaigokensaku.mhlw.go.jp/43/index.php?action_kouhyou_detail_004_kani=true&JigyosyoCd=4390100099-00&ServiceCd=320&Type=search", "url2": "https://shunkokai.jp" }, "geometry": { "type": "Point", "coordinates": [ 130.627433600000018, 32.8263721 ] } },
{ "type": "Feature", "properties": { "内容": "グループホーム　あおばの家【認知症対応型共同生活介護】熊本市西区島崎2丁目29-5", "url": "https://www.kaigokensaku.mhlw.go.jp/43/index.php?action_kouhyou_detail_004_kani=true&JigyosyoCd=4370101455-00&ServiceCd=320&Type=search", "url2": "https://www.seijino.or.jp/" }, "geometry": { "type": "Point", "coordinates": [ 130.69015939999997, 32.8068967 ] } },
{ "type": "Feature", "properties": { "内容": "グループホームさくらの里【認知症対応型共同生活介護】熊本市西区松尾町近津1364", "url": "https://www.kaigokensaku.mhlw.go.jp/43/index.php?action_kouhyou_detail_004_kani=true&JigyosyoCd=4370103949-00&ServiceCd=320&Type=search", "url2": "http://ryowakai.com" }, "geometry": { "type": "Point", "coordinates": [ 130.606629800000064, 32.8028049 ] } },
{ "type": "Feature", "properties": { "内容": "ほのぼの【認知症対応型共同生活介護】熊本市西区河内町白浜イ2238", "url": "https://www.kaigokensaku.mhlw.go.jp/43/index.php?action_kouhyou_detail_004_kani=true&JigyosyoCd=4390100966-00&ServiceCd=320&Type=search", "url2": null }, "geometry": { "type": "Point", "coordinates": [ 130.583055811384838, 32.842222652971898 ] } },
{ "type": "Feature", "properties": { "内容": "グループホームひまわりの里【認知症対応型共同生活介護】松尾町近津1359", "url": "https://www.kaigokensaku.mhlw.go.jp/43/index.php?action_kouhyou_detail_004_kani=true&JigyosyoCd=4390103093-00&ServiceCd=320&Type=search", "url2": "https://ghhimawarinosato.com" }, "geometry": { "type": "Point", "coordinates": [ 130.6169136, 32.8053282 ] } },
{ "type": "Feature", "properties": { "内容": "グループホーム　グッドライフ熊本駅前【認知症対応型共同生活介護】熊本市西区春日２丁目１番24", "url": "https://www.kaigokensaku.mhlw.go.jp/43/index.php?action_kouhyou_detail_004_kani=true&JigyosyoCd=4390101386-00&ServiceCd=320&Type=search", "url2": "http://www.seishoukai-gl.jp/" }, "geometry": { "type": "Point", "coordinates": [ 130.6912125, 32.7888678 ] } },
{ "type": "Feature", "properties": { "内容": "グループホーム　潤【認知症対応型共同生活介護】熊本県熊本市西区戸坂町23番31号", "url": "https://www.kaigokensaku.mhlw.go.jp/43/index.php?action_kouhyou_detail_004_kani=true&JigyosyoCd=4390102814-00&ServiceCd=320&Type=search", "url2": "http://www.rissi.or.jp" }, "geometry": { "type": "Point", "coordinates": [ 130.6789316, 32.7980031 ] } },
{ "type": "Feature", "properties": { "内容": "グループホーム　ぽぷり【認知症対応型共同生活介護】熊本県熊本市西区池田2丁目６番５６号", "url": "https://www.kaigokensaku.mhlw.go.jp/43/index.php?action_kouhyou_detail_004_kani=true&JigyosyoCd=4390102103-00&ServiceCd=320&Type=search", "url2": null }, "geometry": { "type": "Point", "coordinates": [ 130.709445429638663, 32.830418890251778 ] } },
{ "type": "Feature", "properties": { "内容": "グループホーム　クオン【認知症対応型共同生活介護】熊本県熊本市西区二本木5丁目2-10", "url": "https://www.kaigokensaku.mhlw.go.jp/43/index.php?action_kouhyou_detail_004_kani=true&JigyosyoCd=4390102517-00&ServiceCd=320&Type=search", "url2": "https://hanamomen.net" }, "geometry": { "type": "Point", "coordinates": [ 130.687907599999988, 32.7812328 ] } },
{ "type": "Feature", "properties": { "内容": "グループホーム夢眠くまもとにし【認知症対応型共同生活介護】熊本市西区小島九丁目1番40号", "url": "https://www.kaigokensaku.mhlw.go.jp/43/index.php?action_kouhyou_detail_004_kani=true&JigyosyoCd=4390103051-00&ServiceCd=320&Type=search", "url2": "http://muminhome.jp/kumamotonishi-gh/" }, "geometry": { "type": "Point", "coordinates": [ 130.632673189358485, 32.780319788578595 ] } },
{ "type": "Feature", "properties": { "内容": "グループホーム響き　上代【認知症対応型共同生活介護】熊本県熊本市西区城山上代町60-1", "url": "https://www.kaigokensaku.mhlw.go.jp/43/index.php?action_kouhyou_detail_004_kani=true&JigyosyoCd=4390102459-00&ServiceCd=320&Type=search", "url2": null }, "geometry": { "type": "Point", "coordinates": [ 130.674968199999967, 32.7799881 ] } },
{ "type": "Feature", "properties": { "内容": "みんなの光【認知症対応型共同生活介護】熊本市南区城南町今吉野906-1", "url": "https://www.kaigokensaku.mhlw.go.jp/43/index.php?action_kouhyou_detail_004_kani=true&JigyosyoCd=4372300980-00&ServiceCd=320&Type=search", "url2": "http://inouekai.com/" }, "geometry": { "type": "Point", "coordinates": [ 130.739933, 32.718367 ] } },
{ "type": "Feature", "properties": { "内容": "グループホーム　萌【認知症対応型共同生活介護】熊本県熊本市南区会富町１１２０番地", "url": "https://www.kaigokensaku.mhlw.go.jp/43/index.php?action_kouhyou_detail_004_kani=true&JigyosyoCd=4370103592-00&ServiceCd=320&Type=search", "url2": "ｇrouphome＠akita⁻hospital.or.jp" }, "geometry": { "type": "Point", "coordinates": [ 130.654130799999962, 32.7521293 ] } },
{ "type": "Feature", "properties": { "内容": "グループホーム城南スマイル【認知症対応型共同生活介護】熊本市南区城南町下宮地397-2", "url": "https://www.kaigokensaku.mhlw.go.jp/43/index.php?action_kouhyou_detail_004_kani=true&JigyosyoCd=4390101261-00&ServiceCd=320&Type=search", "url2": "http://kayuukai.or.jp/" }, "geometry": { "type": "Point", "coordinates": [ 130.733570900000018, 32.7023932 ] } },
{ "type": "Feature", "properties": { "内容": "ぐるーぷほーむもねろ【認知症対応型共同生活介護】熊本市南区富合町菰江２４６番地1", "url": "https://www.kaigokensaku.mhlw.go.jp/43/index.php?action_kouhyou_detail_004_kani=true&JigyosyoCd=4390102657-00&ServiceCd=320&Type=search", "url2": null }, "geometry": { "type": "Point", "coordinates": [ 130.6587949, 32.7218481 ] } },
{ "type": "Feature", "properties": { "内容": "グループホームほがらか【認知症対応型共同生活介護】熊本市南区御幸笛田6丁目6番88号", "url": "https://www.kaigokensaku.mhlw.go.jp/43/index.php?action_kouhyou_detail_004_kani=true&JigyosyoCd=4390100818-00&ServiceCd=320&Type=search", "url2": "http://www.miyukinosato.or.jp/" }, "geometry": { "type": "Point", "coordinates": [ 130.7112396, 32.7578406 ] } },
{ "type": "Feature", "properties": { "内容": "グループホーム　ヴィーヴル【認知症対応型共同生活介護】熊本市南区田迎1丁目7-20", "url": "https://www.kaigokensaku.mhlw.go.jp/43/index.php?action_kouhyou_detail_004_kani=true&JigyosyoCd=4390100297-00&ServiceCd=320&Type=search", "url2": "http://www.vivre-kaigo.com" }, "geometry": { "type": "Point", "coordinates": [ 130.7085002, 32.7765333 ] } },
{ "type": "Feature", "properties": { "内容": "グループホーム永の郷【認知症対応型共同生活介護】熊本県熊本市南区城南町大字永1209", "url": "https://www.kaigokensaku.mhlw.go.jp/43/index.php?action_kouhyou_detail_004_kani=true&JigyosyoCd=4390103291-00&ServiceCd=320&Type=search", "url2": "https://www.tonanunyu.com/minori" }, "geometry": { "type": "Point", "coordinates": [ 130.723542989549287, 32.734609011924924 ] } },
{ "type": "Feature", "properties": { "内容": "グループホームおりがえ【認知症対応型共同生活介護】熊本県熊本市南区合志４丁目３番６０号", "url": "https://www.kaigokensaku.mhlw.go.jp/43/index.php?action_kouhyou_detail_004_kani=true&JigyosyoCd=4390101691-00&ServiceCd=320&Type=search", "url2": "http://www.matusita-kai.or.jp" }, "geometry": { "type": "Point", "coordinates": [ 130.67486770000005, 32.7549125 ] } },
{ "type": "Feature", "properties": { "内容": "グループホーム　虹の家【認知症対応型共同生活介護】熊本市南区奥古閑町４２９６番１", "url": "https://www.kaigokensaku.mhlw.go.jp/43/index.php?action_kouhyou_detail_004_kani=true&JigyosyoCd=4390100198-00&ServiceCd=320&Type=search", "url2": "https://fuku-juryo.jp" }, "geometry": { "type": "Point", "coordinates": [ 130.621155499999986, 32.7313775 ] } },
{ "type": "Feature", "properties": { "内容": "(介護予防)認知症型共同生活介護　ステラの風【認知症対応型共同生活介護】熊本市南区並建町758ステラの風", "url": "https://www.kaigokensaku.mhlw.go.jp/43/index.php?action_kouhyou_detail_004_kani=true&JigyosyoCd=4390102418-00&ServiceCd=320&Type=search", "url2": "http://www.k-nisseikai.jp" }, "geometry": { "type": "Point", "coordinates": [ 130.63938490000001, 32.7534067 ] } },
{ "type": "Feature", "properties": { "内容": "グループホーム　Cruto【認知症対応型共同生活介護】熊本市南区城南町東阿高字一ノ尾1279-1", "url": "https://www.kaigokensaku.mhlw.go.jp/43/index.php?action_kouhyou_detail_004_kani=true&JigyosyoCd=4390102525-00&ServiceCd=320&Type=search", "url2": "http://cruto.group/index.html" }, "geometry": { "type": "Point", "coordinates": [ 130.727691600000071, 32.6899636 ] } },
{ "type": "Feature", "properties": { "内容": "グループホームヒューマンケア富合【認知症対応型共同生活介護】熊本市南区富合町廻江829番地", "url": "https://www.kaigokensaku.mhlw.go.jp/43/index.php?action_kouhyou_detail_004_kani=true&JigyosyoCd=4390101170-00&ServiceCd=320&Type=search", "url2": "http://zikeikai.jp/gh_tomiai/" }, "geometry": { "type": "Point", "coordinates": [ 130.678265633868477, 32.717683353750566 ] } },
{ "type": "Feature", "properties": { "内容": "認知症高齢者グループホーム　アクア【認知症対応型共同生活介護】八分字町22-1", "url": "https://www.kaigokensaku.mhlw.go.jp/43/index.php?action_kouhyou_detail_004_kani=true&JigyosyoCd=4390101758-00&ServiceCd=320&Type=search", "url2": "http://sakurakaiaqua.web.fc2.com" }, "geometry": { "type": "Point", "coordinates": [ 130.6596495, 32.7601814 ] } },
{ "type": "Feature", "properties": { "内容": "グループホームひばり【認知症対応型共同生活介護】熊本県熊本市南区南高江1丁目3番46号", "url": "https://www.kaigokensaku.mhlw.go.jp/43/index.php?action_kouhyou_detail_004_kani=true&JigyosyoCd=4390100628-00&ServiceCd=320&Type=search", "url2": null }, "geometry": { "type": "Point", "coordinates": [ 130.685933400000067, 32.7565012 ] } },
{ "type": "Feature", "properties": { "内容": "グループホーム　道標【認知症対応型共同生活介護】熊本県熊本市南区中無田町649番地5グループホーム道標", "url": "https://www.kaigokensaku.mhlw.go.jp/43/index.php?action_kouhyou_detail_004_kani=true&JigyosyoCd=4390103606-00&ServiceCd=320&Type=search", "url2": null }, "geometry": { "type": "Point", "coordinates": [ 130.67024330000001, 32.7349034 ] } },
{ "type": "Feature", "properties": { "内容": "認知症高齢者グループホーム銭塘アクア【認知症対応型共同生活介護】熊本市南区銭塘町1170番地", "url": "https://www.kaigokensaku.mhlw.go.jp/43/index.php?action_kouhyou_detail_004_kani=true&JigyosyoCd=4390103085-00&ServiceCd=320&Type=search", "url2": "https://www.kumamoto-aqua.com" }, "geometry": { "type": "Point", "coordinates": [ 130.643562800000012, 32.7376002 ] } },
{ "type": "Feature", "properties": { "内容": "グループホーム八景水谷【認知症対応型共同生活介護】熊本県熊本市北区八景水谷1丁目5番1号グループホーム八景水谷", "url": "https://www.kaigokensaku.mhlw.go.jp/43/index.php?action_kouhyou_detail_004_kani=true&JigyosyoCd=4390102087-00&ServiceCd=320&Type=search", "url2": "http://www.kumamotonet.jp/sisetsu/cosmos-f/" }, "geometry": { "type": "Point", "coordinates": [ 130.72351470000001, 32.8449692 ] } },
{ "type": "Feature", "properties": { "内容": "グループホームカムさぁ【認知症対応型共同生活介護】龍田陳内３丁目３７番７号", "url": "https://www.kaigokensaku.mhlw.go.jp/43/index.php?action_kouhyou_detail_004_kani=true&JigyosyoCd=4370104855-00&ServiceCd=320&Type=search", "url2": "http://www.riddell-wright.com" }, "geometry": { "type": "Point", "coordinates": [ 130.748859900000014, 32.8306005 ] } },
{ "type": "Feature", "properties": { "内容": "愛の家グループホーム武蔵ケ丘【認知症対応型共同生活介護】熊本県熊本市北区武蔵ケ丘1丁目5-14愛の家グループホーム武蔵ケ丘", "url": "https://www.kaigokensaku.mhlw.go.jp/43/index.php?action_kouhyou_detail_004_kani=true&JigyosyoCd=4390103002-00&ServiceCd=320&Type=search", "url2": "https://mcs-ainoie.com" }, "geometry": { "type": "Point", "coordinates": [ 130.7675208, 32.8510601 ] } },
{ "type": "Feature", "properties": { "内容": "グループホームあそうだⅡ【認知症対応型共同生活介護】熊本県熊本市北区麻生田2丁目5-45", "url": "https://www.kaigokensaku.mhlw.go.jp/43/index.php?action_kouhyou_detail_004_kani=true&JigyosyoCd=4390103432-00&ServiceCd=320&Type=search", "url2": "http：/www.shafuku-aiseikai.or.jp" }, "geometry": { "type": "Point", "coordinates": [ 130.7432585, 32.8474758 ] } },
{ "type": "Feature", "properties": { "内容": "サンライズ楠野【認知症対応型共同生活介護】熊本市北区楠野町1069-1", "url": "https://www.kaigokensaku.mhlw.go.jp/43/index.php?action_kouhyou_detail_004_kani=true&JigyosyoCd=4390100289-00&ServiceCd=320&Type=search", "url2": "http://www.ikueikai-kumamoto.or.jp/kusuno/index.htm" }, "geometry": { "type": "Point", "coordinates": [ 130.702313099999969, 32.8774657 ] } },
{ "type": "Feature", "properties": { "内容": "グループホームあそうだ【認知症対応型共同生活介護】熊本県熊本市北区麻生田2丁目5番41号", "url": "https://www.kaigokensaku.mhlw.go.jp/43/index.php?action_kouhyou_detail_004_kani=true&JigyosyoCd=4390100867-00&ServiceCd=320&Type=search", "url2": "http:/www.shafuku-aiseikai.or.jp/" }, "geometry": { "type": "Point", "coordinates": [ 130.74342230000002, 32.8472163 ] } },
{ "type": "Feature", "properties": { "内容": "認知症対応型共同生活介護事業所サンライズ菱形【認知症対応型共同生活介護】熊本県熊本市北区植木町滴水1703-3", "url": "https://www.kaigokensaku.mhlw.go.jp/43/index.php?action_kouhyou_detail_004_kani=true&JigyosyoCd=4390102210-00&ServiceCd=320&Type=search", "url2": "www.ikueikai-kumamoto.or.jp/ghishigata/index.htm" }, "geometry": { "type": "Point", "coordinates": [ 130.6901861, 32.8909336 ] } },
{ "type": "Feature", "properties": { "内容": "グループホームはぎの里【認知症対応型共同生活介護】熊本県熊本市北区植木町鞍掛１７８２番地", "url": "https://www.kaigokensaku.mhlw.go.jp/43/index.php?action_kouhyou_detail_004_kani=true&JigyosyoCd=4390102236-00&ServiceCd=320&Type=search", "url2": "https://www.haginosato.info/" }, "geometry": { "type": "Point", "coordinates": [ 130.6753186, 32.90201 ] } },
{ "type": "Feature", "properties": { "内容": "医療法人社団上野会グループホームにれのき荘【認知症対応型共同生活介護】熊本市北区龍田4丁目１２－２２", "url": "https://www.kaigokensaku.mhlw.go.jp/43/index.php?action_kouhyou_detail_004_kani=true&JigyosyoCd=4370102206-00&ServiceCd=320&Type=search", "url2": null }, "geometry": { "type": "Point", "coordinates": [ 130.752313700000059, 32.8417973 ] } },
{ "type": "Feature", "properties": { "内容": "グループホーム　きくなん【認知症対応型共同生活介護】熊本市北区鶴羽田3丁目11－15", "url": "https://www.kaigokensaku.mhlw.go.jp/43/index.php?action_kouhyou_detail_004_kani=true&JigyosyoCd=4390101402-00&ServiceCd=320&Type=search", "url2": "https://www.kikunan-hospital.com" }, "geometry": { "type": "Point", "coordinates": [ 130.727636699999948, 32.858718 ] } },
{ "type": "Feature", "properties": { "内容": "認知症グループホームひまわり【認知症対応型共同生活介護】熊本県熊本市北区植木町山本８８６－１", "url": "https://www.kaigokensaku.mhlw.go.jp/43/index.php?action_kouhyou_detail_004_kani=true&JigyosyoCd=4392500049-00&ServiceCd=320&Type=search", "url2": "http://www.himawari-kaigo.com/" }, "geometry": { "type": "Point", "coordinates": [ 130.689641700000038, 32.913043 ] } },
{ "type": "Feature", "properties": { "内容": "グループホーム「響き」【認知症対応型共同生活介護】熊本県熊本市北区室園町10-67", "url": "https://www.kaigokensaku.mhlw.go.jp/43/index.php?action_kouhyou_detail_004_kani=true&JigyosyoCd=4390100735-00&ServiceCd=320&Type=search", "url2": "http://www.k-seijo.or.jp/grouphome" }, "geometry": { "type": "Point", "coordinates": [ 130.723903599999971, 32.8236295 ] } },
{ "type": "Feature", "properties": { "内容": "サンライズ硯川【認知症対応型共同生活介護】熊本県熊本市北区硯川町767-1", "url": "https://www.kaigokensaku.mhlw.go.jp/43/index.php?action_kouhyou_detail_004_kani=true&JigyosyoCd=4390101451-00&ServiceCd=320&Type=search", "url2": "https://ikueikai-2003.com/related-facilities/suzurikawa/" }, "geometry": { "type": "Point", "coordinates": [ 130.691294699999958, 32.8619584 ] } },
{ "type": "Feature", "properties": { "内容": "医療法人社団栄康会　グループホーム菊南スマイル【認知症対応型共同生活介護】熊本県熊本市北区鶴羽田5丁目3番30号", "url": "https://www.kaigokensaku.mhlw.go.jp/43/index.php?action_kouhyou_detail_004_kani=true&JigyosyoCd=4390101436-00&ServiceCd=320&Type=search", "url2": null }, "geometry": { "type": "Point", "coordinates": [ 130.724554109262044, 32.864270464705456 ] } },
{ "type": "Feature", "properties": { "内容": "グループホームはけのみや【認知症対応型共同生活介護】北区山室４丁目９－３０", "url": "https://www.kaigokensaku.mhlw.go.jp/43/index.php?action_kouhyou_detail_004_kani=true&JigyosyoCd=4390100974-00&ServiceCd=320&Type=search", "url2": "http://www.syowakan.jp" }, "geometry": { "type": "Point", "coordinates": [ 130.720434399999931, 32.8419222 ] } },
{ "type": "Feature", "properties": { "内容": "みずき苑【認知症対応型共同生活介護】熊本県熊本市北区龍田５丁目１２－４", "url": "https://www.kaigokensaku.mhlw.go.jp/43/index.php?action_kouhyou_detail_004_kani=true&JigyosyoCd=4370103212-00&ServiceCd=320&Type=search", "url2": null }, "geometry": { "type": "Point", "coordinates": [ 130.758621125131214, 32.840452794259484 ] } },
{ "type": "Feature", "properties": { "内容": "グループホーム　やすらぎの郷　たつだ【認知症対応型共同生活介護】熊本市北区弓削1丁目8－47", "url": "https://www.kaigokensaku.mhlw.go.jp/43/index.php?action_kouhyou_detail_004_kani=true&JigyosyoCd=4370103725-00&ServiceCd=320&Type=search", "url2": null }, "geometry": { "type": "Point", "coordinates": [ 130.772377949351494, 32.848058831807535 ] } },
{ "type": "Feature", "properties": { "内容": "グループホーム大和【認知症対応型共同生活介護】熊本県熊本市北区植木町木留336番地2", "url": "https://www.kaigokensaku.mhlw.go.jp/43/index.php?action_kouhyou_detail_004_kani=true&JigyosyoCd=4372500670-00&ServiceCd=320&Type=search", "url2": "ghdaiwa@kumamotokikujyukai.or.jp" }, "geometry": { "type": "Point", "coordinates": [ 130.6730717, 32.8789716 ] } },
{ "type": "Feature", "properties": { "内容": "グループホーム　北杜の郷【認知症対応型共同生活介護】熊本県熊本市北区小糸山町718番", "url": "https://www.kaigokensaku.mhlw.go.jp/43/index.php?action_kouhyou_detail_004_kani=true&JigyosyoCd=4390102301-00&ServiceCd=320&Type=search", "url2": "http://www.bousei.com/" }, "geometry": { "type": "Point", "coordinates": [ 130.693657762927501, 32.890743408514545 ] } },
{ "type": "Feature", "properties": { "内容": "グループホーム望結の丘【認知症対応型共同生活介護】熊本市北区小糸山町779-2", "url": "https://www.kaigokensaku.mhlw.go.jp/43/index.php?action_kouhyou_detail_004_kani=true&JigyosyoCd=4390103366-00&ServiceCd=320&Type=search", "url2": "https://www.bousei.com/" }, "geometry": { "type": "Point", "coordinates": [ 130.693597171163958, 32.89101539515535 ] } },
{ "type": "Feature", "properties": { "内容": "たんぽぽ【認知症対応型共同生活介護】熊本県熊本市北区植木町宮原１７７番地", "url": "https://www.kaigokensaku.mhlw.go.jp/43/index.php?action_kouhyou_detail_004_kani=true&JigyosyoCd=4372500696-00&ServiceCd=320&Type=search", "url2": null }, "geometry": { "type": "Point", "coordinates": [ 130.7145458, 32.9712394 ] } },
{ "type": "Feature", "properties": { "内容": "グループホーム　あい【認知症対応型共同生活介護】熊本県八代市島田町８６３－３", "url": "https://www.kaigokensaku.mhlw.go.jp/43/index.php?action_kouhyou_detail_004_kani=true&JigyosyoCd=4360290003-00&ServiceCd=320&Type=search", "url2": "http://www7.ocn.ne.jp/~yugenai" }, "geometry": { "type": "Point", "coordinates": [ 130.632460600000059, 32.520407 ] } },
{ "type": "Feature", "properties": { "内容": "グループホーム氷川【認知症対応型共同生活介護】八代市東陽町南７６２－７", "url": "https://www.kaigokensaku.mhlw.go.jp/43/index.php?action_kouhyou_detail_004_kani=true&JigyosyoCd=4372900698-00&ServiceCd=320&Type=search", "url2": "http://tousen-kai.or.jp/" }, "geometry": { "type": "Point", "coordinates": [ 130.7153879, 32.5477301 ] } },
{ "type": "Feature", "properties": { "内容": "グループホームざぼん【認知症対応型共同生活介護】熊本県八代市鏡町両出1327-6", "url": "https://www.kaigokensaku.mhlw.go.jp/43/index.php?action_kouhyou_detail_004_kani=true&JigyosyoCd=4372900748-00&ServiceCd=320&Type=search", "url2": "http://kawachi-sekizai.co.jp/yatsushirofukushimura.html" }, "geometry": { "type": "Point", "coordinates": [ 130.62985679999997, 32.558043 ] } },
{ "type": "Feature", "properties": { "内容": "グループホームうやなぎの杜【認知症対応型共同生活介護】熊本県八代市大福寺町313-1(1)", "url": "https://www.kaigokensaku.mhlw.go.jp/43/index.php?action_kouhyou_detail_004_kani=true&JigyosyoCd=4372900755-00&ServiceCd=320&Type=search", "url2": "https://www.npoakari.com/" }, "geometry": { "type": "Point", "coordinates": [ 130.60345994174773, 32.484269315589394 ] } },
{ "type": "Feature", "properties": { "内容": "認知症対応型共同生活介護　グループホームきずなの郷【認知症対応型共同生活介護】熊本県八代市古閑下町２２２５番地", "url": "https://www.kaigokensaku.mhlw.go.jp/43/index.php?action_kouhyou_detail_004_kani=true&JigyosyoCd=4390200063-00&ServiceCd=320&Type=search", "url2": null }, "geometry": { "type": "Point", "coordinates": [ 130.60854519999998, 32.5328217 ] } },
{ "type": "Feature", "properties": { "内容": "グループホーム　だいふくの杜【認知症対応型共同生活介護】八代市大福寺町313番地1(2)", "url": "https://www.kaigokensaku.mhlw.go.jp/43/index.php?action_kouhyou_detail_004_kani=true&JigyosyoCd=4390200147-00&ServiceCd=320&Type=search", "url2": "https://www.npoakari.com/" }, "geometry": { "type": "Point", "coordinates": [ 130.603453280282224, 32.484326735657923 ] } },
{ "type": "Feature", "properties": { "内容": "グループホーム　清陽「すえひろ」【認知症対応型共同生活介護】熊本県八代市末広町３－６", "url": "https://www.kaigokensaku.mhlw.go.jp/43/index.php?action_kouhyou_detail_004_kani=true&JigyosyoCd=4390200204-00&ServiceCd=320&Type=search", "url2": "http://gongen.org" }, "geometry": { "type": "Point", "coordinates": [ 130.617387, 32.500833 ] } },
{ "type": "Feature", "properties": { "内容": "グループホーム　しあわせの里【認知症対応型共同生活介護】熊本県八代市二見本町字門前924-2", "url": "https://www.kaigokensaku.mhlw.go.jp/43/index.php?action_kouhyou_detail_004_kani=true&JigyosyoCd=4390200220-00&ServiceCd=320&Type=search", "url2": "http://ittouen.jp/" }, "geometry": { "type": "Point", "coordinates": [ 130.557323399475109, 32.400452820370084 ] } },
{ "type": "Feature", "properties": { "内容": "グループホーム　ひかり【認知症対応型共同生活介護】熊本県八代市渡町1717番地", "url": "https://www.kaigokensaku.mhlw.go.jp/43/index.php?action_kouhyou_detail_004_kani=true&JigyosyoCd=4390200238-00&ServiceCd=320&Type=search", "url2": "http://www.minetoma-hos.jp" }, "geometry": { "type": "Point", "coordinates": [ 130.623462329885797, 32.492384553180365 ] } },
{ "type": "Feature", "properties": { "内容": "グループホーム　ほのか・八代【認知症対応型共同生活介護】本町４丁目２－２８", "url": "https://www.kaigokensaku.mhlw.go.jp/43/index.php?action_kouhyou_detail_004_kani=true&JigyosyoCd=4390200253-00&ServiceCd=320&Type=search", "url2": "http://fukushi-greencoop.or.jp/prog/dbs/115" }, "geometry": { "type": "Point", "coordinates": [ 130.59635517802576, 32.504321885133152 ] } },
{ "type": "Feature", "properties": { "内容": "グループホームま心【認知症対応型共同生活介護】熊本県八代市敷川内町2243-2", "url": "https://www.kaigokensaku.mhlw.go.jp/43/index.php?action_kouhyou_detail_004_kani=true&JigyosyoCd=4370200984-00&ServiceCd=320&Type=search", "url2": "http://www.magokoroen.jp" }, "geometry": { "type": "Point", "coordinates": [ 130.598321100000021, 32.4572333 ] } },
{ "type": "Feature", "properties": { "内容": "グループホーム　　清陽【認知症対応型共同生活介護】熊本県八代市揚町４７ー１たちばな館　　みずほ館", "url": "https://www.kaigokensaku.mhlw.go.jp/43/index.php?action_kouhyou_detail_004_kani=true&JigyosyoCd=4370201008-00&ServiceCd=320&Type=search", "url2": "http://gongen.org/koureisya/sisetu/seiyou/index.html" }, "geometry": { "type": "Point", "coordinates": [ 130.593412199999989, 32.474259 ] } },
{ "type": "Feature", "properties": { "内容": "グループホーム　神苑【認知症対応型共同生活介護】熊本県八代市松江本町2番50号", "url": "https://www.kaigokensaku.mhlw.go.jp/43/index.php?action_kouhyou_detail_004_kani=true&JigyosyoCd=4370201446-00&ServiceCd=320&Type=search", "url2": "https://www.shinen.ltd" }, "geometry": { "type": "Point", "coordinates": [ 130.603878086508189, 32.513049483788762 ] } },
{ "type": "Feature", "properties": { "内容": "グループホーム瑞穂乃國【認知症対応型共同生活介護】熊本県八代市日奈久大坪町８２８番地１", "url": "https://www.kaigokensaku.mhlw.go.jp/43/index.php?action_kouhyou_detail_004_kani=true&JigyosyoCd=4390200519-00&ServiceCd=320&Type=search", "url2": null }, "geometry": { "type": "Point", "coordinates": [ 130.58731204722136, 32.446304283979394 ] } },
{ "type": "Feature", "properties": { "内容": "グループホーム　福寿荘【認知症対応型共同生活介護】熊本県八代市井揚町2552", "url": "https://www.kaigokensaku.mhlw.go.jp/43/index.php?action_kouhyou_detail_004_kani=true&JigyosyoCd=4390200097-00&ServiceCd=320&Type=search", "url2": null }, "geometry": { "type": "Point", "coordinates": [ 130.592485399999987, 32.5374958 ] } },
{ "type": "Feature", "properties": { "内容": "グループホーム清風【認知症対応型共同生活介護】熊本県八代市沖町字六番割3873番1", "url": "https://www.kaigokensaku.mhlw.go.jp/43/index.php?action_kouhyou_detail_004_kani=true&JigyosyoCd=4390200592-00&ServiceCd=320&Type=search", "url2": null }, "geometry": { "type": "Point", "coordinates": [ 130.5826246, 32.5274673 ] } },
{ "type": "Feature", "properties": { "内容": "グループホーム　清花【認知症対応型共同生活介護】熊本県八代市郡築一番町103番地9", "url": "https://www.kaigokensaku.mhlw.go.jp/43/index.php?action_kouhyou_detail_004_kani=true&JigyosyoCd=4390200600-00&ServiceCd=320&Type=search", "url2": "http://www.gh-seika.com" }, "geometry": { "type": "Point", "coordinates": [ 130.571685, 32.514427 ] } },
{ "type": "Feature", "properties": { "内容": "グループホーム清流【認知症対応型共同生活介護】熊本県八代市昭和日進町字会通152-3", "url": "https://www.kaigokensaku.mhlw.go.jp/43/index.php?action_kouhyou_detail_004_kani=true&JigyosyoCd=4390200584-00&ServiceCd=320&Type=search", "url2": "https://www.gh-seiryu.net/philosophy.html" }, "geometry": { "type": "Point", "coordinates": [ 130.61797, 32.5548 ] } },
{ "type": "Feature", "properties": { "内容": "グループホーム　愛生【認知症対応型共同生活介護】熊本県人吉市二日町22番地グループホーム４階・５階", "url": "https://www.kaigokensaku.mhlw.go.jp/43/index.php?action_kouhyou_detail_004_kani=true&JigyosyoCd=4370300677-00&ServiceCd=320&Type=search", "url2": "http://h-aisei.or.jp/index.html" }, "geometry": { "type": "Point", "coordinates": [ 130.763443100000018, 32.215201 ] } },
{ "type": "Feature", "properties": { "内容": "グループホーム聖心園【認知症対応型共同生活介護】熊本県人吉市南町８番地1", "url": "https://www.kaigokensaku.mhlw.go.jp/43/index.php?action_kouhyou_detail_004_kani=true&JigyosyoCd=4370300727-00&ServiceCd=320&Type=search", "url2": null }, "geometry": { "type": "Point", "coordinates": [ 130.763068400000066, 32.2061965 ] } },
{ "type": "Feature", "properties": { "内容": "グループホームふれあいの家御薬園【認知症対応型共同生活介護】熊本県人吉市七地町21-1", "url": "https://www.kaigokensaku.mhlw.go.jp/43/index.php?action_kouhyou_detail_004_kani=true&JigyosyoCd=4370300768-00&ServiceCd=320&Type=search", "url2": "http://www.oyakuen-g.or.jp" }, "geometry": { "type": "Point", "coordinates": [ 130.774164499999983, 32.2088299 ] } },
{ "type": "Feature", "properties": { "内容": "グループホームえがお人吉【認知症対応型共同生活介護】熊本県人吉市西間下町１０２８－４", "url": "https://www.kaigokensaku.mhlw.go.jp/43/index.php?action_kouhyou_detail_004_kani=true&JigyosyoCd=4390300475-00&ServiceCd=320&Type=search", "url2": null }, "geometry": { "type": "Point", "coordinates": [ 130.756549599999971, 32.1989805 ] } },
{ "type": "Feature", "properties": { "内容": "グループホームはっぴーらいふ【認知症対応型共同生活介護】熊本県人吉市下原田町字荒毛１５１６－１", "url": "https://www.kaigokensaku.mhlw.go.jp/43/index.php?action_kouhyou_detail_004_kani=true&JigyosyoCd=4390300483-00&ServiceCd=320&Type=search", "url2": null }, "geometry": { "type": "Point", "coordinates": [ 130.727337146974151, 32.22614258354033 ] } },
{ "type": "Feature", "properties": { "内容": "第２グループホーム愛生【認知症対応型共同生活介護】人吉市南泉田町１１５第2グループホーム愛生", "url": "https://www.kaigokensaku.mhlw.go.jp/43/index.php?action_kouhyou_detail_004_kani=true&JigyosyoCd=4390300509-00&ServiceCd=320&Type=search", "url2": "http://h-aisei.or.jp/chouju/dai2group.html" }, "geometry": { "type": "Point", "coordinates": [ 130.7634446502625, 32.215941013677138 ] } },
{ "type": "Feature", "properties": { "内容": "グループホーム　すずらん【認知症対応型共同生活介護】熊本県人吉市鬼木町1423-1", "url": "https://www.kaigokensaku.mhlw.go.jp/43/index.php?action_kouhyou_detail_004_kani=true&JigyosyoCd=4390300624-00&ServiceCd=320&Type=search", "url2": null }, "geometry": { "type": "Point", "coordinates": [ 130.775217, 32.2260577 ] } },
{ "type": "Feature", "properties": { "内容": "グループホームはな家族【認知症対応型共同生活介護】熊本県荒尾市昭和町3番25号", "url": "https://www.kaigokensaku.mhlw.go.jp/43/index.php?action_kouhyou_detail_004_kani=true&JigyosyoCd=4370400527-00&ServiceCd=320&Type=search", "url2": null }, "geometry": { "type": "Point", "coordinates": [ 130.432533299999932, 32.9958983 ] } },
{ "type": "Feature", "properties": { "内容": "グループホーム　あらお【認知症対応型共同生活介護】熊本県　荒尾市荒尾５３９番地１", "url": "https://www.kaigokensaku.mhlw.go.jp/43/index.php?action_kouhyou_detail_004_kani=true&JigyosyoCd=4370400543-00&ServiceCd=320&Type=search", "url2": null }, "geometry": { "type": "Point", "coordinates": [ 130.434011400000031, 32.9758589 ] } },
{ "type": "Feature", "properties": { "内容": "グループホーム　むつみ苑【認知症対応型共同生活介護】熊本県荒尾市荒尾317-1", "url": "https://www.kaigokensaku.mhlw.go.jp/43/index.php?action_kouhyou_detail_004_kani=true&JigyosyoCd=4370400576-00&ServiceCd=320&Type=search", "url2": "http://showakai.healthcare/" }, "geometry": { "type": "Point", "coordinates": [ 130.43102829999998, 32.9792807 ] } },
{ "type": "Feature", "properties": { "内容": "グループホーム　グリーンライフ　ヴィラ荒尾【認知症対応型共同生活介護】熊本県荒尾市本井手1480-26", "url": "https://www.kaigokensaku.mhlw.go.jp/43/index.php?action_kouhyou_detail_004_kani=true&JigyosyoCd=4370400600-00&ServiceCd=320&Type=search", "url2": "http://www.ariakeseijin.or.jp" }, "geometry": { "type": "Point", "coordinates": [ 130.473916799999984, 32.9895944 ] } },
{ "type": "Feature", "properties": { "内容": "グループホーム　ふくじゅそう【認知症対応型共同生活介護】熊本県荒尾市四ツ山町３丁目４番３号", "url": "https://www.kaigokensaku.mhlw.go.jp/43/index.php?action_kouhyou_detail_004_kani=true&JigyosyoCd=4370400618-00&ServiceCd=320&Type=search", "url2": null }, "geometry": { "type": "Point", "coordinates": [ 130.430725, 33.0049695 ] } },
{ "type": "Feature", "properties": { "内容": "白寿園グループホーム【認知症対応型共同生活介護】熊本県荒尾市一部字西山浦2157-16", "url": "https://www.kaigokensaku.mhlw.go.jp/43/index.php?action_kouhyou_detail_004_kani=true&JigyosyoCd=4370400626-00&ServiceCd=320&Type=search", "url2": "http://www.hakujuen.jp" }, "geometry": { "type": "Point", "coordinates": [ 130.462489799999958, 32.9682905 ] } },
{ "type": "Feature", "properties": { "内容": "グループホーム　ゆったり温泉館【認知症対応型共同生活介護】熊本県荒尾市水野1580番地1", "url": "https://www.kaigokensaku.mhlw.go.jp/43/index.php?action_kouhyou_detail_004_kani=true&JigyosyoCd=4370400642-00&ServiceCd=320&Type=search", "url2": "http://www.heiseikai.jp" }, "geometry": { "type": "Point", "coordinates": [ 130.450660199999987, 32.9617939 ] } },
{ "type": "Feature", "properties": { "内容": "グループホーム青い鳥【認知症対応型共同生活介護】熊本県荒尾市川登1772番地8", "url": "https://www.kaigokensaku.mhlw.go.jp/43/index.php?action_kouhyou_detail_004_kani=true&JigyosyoCd=4370400501-00&ServiceCd=320&Type=search", "url2": null }, "geometry": { "type": "Point", "coordinates": [ 130.464981200000011, 32.9714014 ] } },
{ "type": "Feature", "properties": { "内容": "グループホームふれあいの家【認知症対応型共同生活介護】熊本県水俣市月浦213番1", "url": "https://www.kaigokensaku.mhlw.go.jp/43/index.php?action_kouhyou_detail_004_kani=true&JigyosyoCd=4370500540-00&ServiceCd=320&Type=search", "url2": "http://minamata.org" }, "geometry": { "type": "Point", "coordinates": [ 130.3845589, 32.1879567 ] } },
{ "type": "Feature", "properties": { "内容": "認知症対応型共同生活介護　　グループホームゆうゆう【認知症対応型共同生活介護】熊本県水俣市塩浜町2－19", "url": "https://www.kaigokensaku.mhlw.go.jp/43/index.php?action_kouhyou_detail_004_kani=true&JigyosyoCd=4370500565-00&ServiceCd=320&Type=search", "url2": null }, "geometry": { "type": "Point", "coordinates": [ 130.394957500000032, 32.2127491 ] } },
{ "type": "Feature", "properties": { "内容": "グループホーム　キトさん家【認知症対応型共同生活介護】熊本県水俣市丸島町1丁目11番6号", "url": "https://www.kaigokensaku.mhlw.go.jp/43/index.php?action_kouhyou_detail_004_kani=true&JigyosyoCd=4370500599-00&ServiceCd=320&Type=search", "url2": "http://minamata.org/" }, "geometry": { "type": "Point", "coordinates": [ 130.392741099999967, 32.2130684 ] } },
{ "type": "Feature", "properties": { "内容": "認知症対応型共同生活介護　グループホームこうらく【認知症対応型共同生活介護】熊本県水俣市浜町1丁目１２－９", "url": "https://www.kaigokensaku.mhlw.go.jp/43/index.php?action_kouhyou_detail_004_kani=true&JigyosyoCd=4390500033-00&ServiceCd=320&Type=search", "url2": "kouraku@suehirokai.or.jp" }, "geometry": { "type": "Point", "coordinates": [ 130.4045314, 32.2119355 ] } },
{ "type": "Feature", "properties": { "内容": "ニチイケアセンター水俣【認知症対応型共同生活介護】水俣市長野町11番114号2階", "url": "https://www.kaigokensaku.mhlw.go.jp/43/index.php?action_kouhyou_detail_004_kani=true&JigyosyoCd=4390500066-00&ServiceCd=320&Type=search", "url2": "http://www.nichiigakkan.co.jp/" }, "geometry": { "type": "Point", "coordinates": [ 130.4243239, 32.1988624 ] } },
{ "type": "Feature", "properties": { "内容": "グループホーム　なのはな【認知症対応型共同生活介護】熊本県水俣市深川1020番地３", "url": "https://www.kaigokensaku.mhlw.go.jp/43/index.php?action_kouhyou_detail_004_kani=true&JigyosyoCd=4390500215-00&ServiceCd=320&Type=search", "url2": "https://shoukouen.wixsite.com/shoukouen" }, "geometry": { "type": "Point", "coordinates": [ 130.4477116, 32.1805439 ] } },
{ "type": "Feature", "properties": { "内容": "ゆうきの家【認知症対応型共同生活介護】熊本県玉名市上小田１１８０番地", "url": "https://www.kaigokensaku.mhlw.go.jp/43/index.php?action_kouhyou_detail_004_kani=true&JigyosyoCd=4370600506-00&ServiceCd=320&Type=search", "url2": "http://www.yukikai.or.jp" }, "geometry": { "type": "Point", "coordinates": [ 130.588398699999971, 32.9544963 ] } },
{ "type": "Feature", "properties": { "内容": "グループホームおかもと【認知症対応型共同生活介護】熊本県玉名市亀甲251-5", "url": "https://www.kaigokensaku.mhlw.go.jp/43/index.php?action_kouhyou_detail_004_kani=true&JigyosyoCd=4370600639-00&ServiceCd=320&Type=search", "url2": "https://www.okamotogeka.com/" }, "geometry": { "type": "Point", "coordinates": [ 130.551179300000058, 32.9292455 ] } },
{ "type": "Feature", "properties": { "内容": "グループホームひまわり２１岱明【認知症対応型共同生活介護】熊本県玉名市岱明町山下１０３７番地３", "url": "https://www.kaigokensaku.mhlw.go.jp/43/index.php?action_kouhyou_detail_004_kani=true&JigyosyoCd=4372400822-00&ServiceCd=320&Type=search", "url2": null }, "geometry": { "type": "Point", "coordinates": [ 130.517368900000065, 32.9136931 ] } },
{ "type": "Feature", "properties": { "内容": "グループホーム　岱明の里【認知症対応型共同生活介護】熊本県玉名市岱明町高道１０９０－１", "url": "https://www.kaigokensaku.mhlw.go.jp/43/index.php?action_kouhyou_detail_004_kani=true&JigyosyoCd=4372400863-00&ServiceCd=320&Type=search", "url2": "http://taimeinosato.com" }, "geometry": { "type": "Point", "coordinates": [ 130.513394400000038, 32.9102239 ] } },
{ "type": "Feature", "properties": { "内容": "グループホーム　　ありあけの丘【認知症対応型共同生活介護】熊本県玉名市天水町部田見４４８番地１", "url": "https://www.kaigokensaku.mhlw.go.jp/43/index.php?action_kouhyou_detail_004_kani=true&JigyosyoCd=4372400947-00&ServiceCd=320&Type=search", "url2": "http://www.ariakehome.jp/" }, "geometry": { "type": "Point", "coordinates": [ 130.569654899999932, 32.8845798 ] } },
{ "type": "Feature", "properties": { "内容": "グループホーム　るしだ【認知症対応型共同生活介護】熊本県玉名市横島町横島3399-1", "url": "https://www.kaigokensaku.mhlw.go.jp/43/index.php?action_kouhyou_detail_004_kani=true&JigyosyoCd=4372400988-00&ServiceCd=320&Type=search", "url2": "http://seiunsou.net/custom14.html" }, "geometry": { "type": "Point", "coordinates": [ 130.566802199999984, 32.8752281 ] } },
{ "type": "Feature", "properties": { "内容": "グループホーム　慈幸苑【認知症対応型共同生活介護】熊本県玉名市横島町横島2493番地1", "url": "https://www.kaigokensaku.mhlw.go.jp/43/index.php?action_kouhyou_detail_004_kani=true&JigyosyoCd=4372401028-00&ServiceCd=320&Type=search", "url2": "https://souyukai.or.jp/" }, "geometry": { "type": "Point", "coordinates": [ 130.562316799999962, 32.8800355 ] } },
{ "type": "Feature", "properties": { "内容": "グループホーム　へたみ家【認知症対応型共同生活介護】熊本県玉名市天水町部田見１２１４－１５", "url": "https://www.kaigokensaku.mhlw.go.jp/43/index.php?action_kouhyou_detail_004_kani=true&JigyosyoCd=4372401069-00&ServiceCd=320&Type=search", "url2": "http://www.shunkokai.jp" }, "geometry": { "type": "Point", "coordinates": [ 130.583653899999945, 32.8742367 ] } },
{ "type": "Feature", "properties": { "内容": "グループホームたいめい苑【認知症対応型共同生活介護】熊本県玉名市岱明町古閑３８８番地", "url": "https://www.kaigokensaku.mhlw.go.jp/43/index.php?action_kouhyou_detail_004_kani=true&JigyosyoCd=4372400954-00&ServiceCd=320&Type=search", "url2": "http://ww7.tiki.ne.jp/~taimeien" }, "geometry": { "type": "Point", "coordinates": [ 130.506009799999987, 32.9304732 ] } },
{ "type": "Feature", "properties": { "内容": "グループホーム　明日葉【認知症対応型共同生活介護】熊本県山鹿市菊鹿町長529番地", "url": "https://www.kaigokensaku.mhlw.go.jp/43/index.php?action_kouhyou_detail_004_kani=true&JigyosyoCd=4390800102-00&ServiceCd=320&Type=search", "url2": "http://yahazusou.com/" }, "geometry": { "type": "Point", "coordinates": [ 130.7613692, 33.0425155 ] } },
{ "type": "Feature", "properties": { "内容": "愛隣の家グループホーム【認知症対応型共同生活介護】熊本県山鹿市津留2025番地1", "url": "https://www.kaigokensaku.mhlw.go.jp/43/index.php?action_kouhyou_detail_004_kani=true&JigyosyoCd=4370800502-00&ServiceCd=320&Type=search", "url2": null }, "geometry": { "type": "Point", "coordinates": [ 130.685702799999945, 33.0552854 ] } },
{ "type": "Feature", "properties": { "内容": "認知症対応型共同生活介護　ゆとり【認知症対応型共同生活介護】熊本県山鹿市菊鹿町下内田７５", "url": "https://www.kaigokensaku.mhlw.go.jp/43/index.php?action_kouhyou_detail_004_kani=true&JigyosyoCd=4390800086-00&ServiceCd=320&Type=search", "url2": "http://www.seisinkai.co.jp/" }, "geometry": { "type": "Point", "coordinates": [ 130.767549799999983, 33.0244392 ] } },
{ "type": "Feature", "properties": { "内容": "医療法人社団直心会　森の里グループホーム　やちよ桜【認知症対応型共同生活介護】熊本県山鹿市山鹿900-2", "url": "https://www.kaigokensaku.mhlw.go.jp/43/index.php?action_kouhyou_detail_004_kani=true&JigyosyoCd=4370800494-00&ServiceCd=320&Type=search", "url2": "http://www.morinosato.org" }, "geometry": { "type": "Point", "coordinates": [ 130.691506200000049, 33.018599900000019 ] } },
{ "type": "Feature", "properties": { "内容": "グループホーム　あやすぎの里【認知症対応型共同生活介護】熊本県山鹿市鹿北町岩野５４９７－１", "url": "https://www.kaigokensaku.mhlw.go.jp/43/index.php?action_kouhyou_detail_004_kani=true&JigyosyoCd=4370800700-00&ServiceCd=320&Type=search", "url2": "http://www.ayasugisou.com" }, "geometry": { "type": "Point", "coordinates": [ 130.689408800000024, 33.1085279 ] } },
{ "type": "Feature", "properties": { "内容": "グループホームほたるの里【認知症対応型共同生活介護】熊本県山鹿市久原5623番地１", "url": "https://www.kaigokensaku.mhlw.go.jp/43/index.php?action_kouhyou_detail_004_kani=true&JigyosyoCd=4390800128-00&ServiceCd=320&Type=search", "url2": "http://mimorikai.com/hotaru.html" }, "geometry": { "type": "Point", "coordinates": [ 130.723347099999955, 33.0289638 ] } },
{ "type": "Feature", "properties": { "内容": "グループホーム　おとぎの国【認知症対応型共同生活介護】熊本県山鹿市鹿本町津袋５８５番地", "url": "https://www.kaigokensaku.mhlw.go.jp/43/index.php?action_kouhyou_detail_004_kani=true&JigyosyoCd=4372500704-00&ServiceCd=320&Type=search", "url2": "http://www.ipponmatu.com/" }, "geometry": { "type": "Point", "coordinates": [ 130.754617899999971, 33.0120986 ] } },
{ "type": "Feature", "properties": { "内容": "グループホーム　ソーレ【認知症対応型共同生活介護】熊本県山鹿市古閑1160-1", "url": "https://www.kaigokensaku.mhlw.go.jp/43/index.php?action_kouhyou_detail_004_kani=true&JigyosyoCd=4390810044-00&ServiceCd=320&Type=search", "url2": "yamagakaisei.or.jp" }, "geometry": { "type": "Point", "coordinates": [ 130.705766365745546, 33.005930072269678 ] } },
{ "type": "Feature", "properties": { "内容": "グループホーム大道【認知症対応型共同生活介護】熊本県山鹿市方保田828-2", "url": "https://www.kaigokensaku.mhlw.go.jp/43/index.php?action_kouhyou_detail_004_kani=true&JigyosyoCd=4390810077-00&ServiceCd=320&Type=search", "url2": "https://andantes.org/main.html?src=%2F" }, "geometry": { "type": "Point", "coordinates": [ 130.721599700000013, 32.9985482 ] } },
{ "type": "Feature", "properties": { "内容": "ポジティブリーケア山鹿【認知症対応型共同生活介護】熊本県山鹿市山鹿900-2", "url": "https://www.kaigokensaku.mhlw.go.jp/43/index.php?action_kouhyou_detail_004_kani=true&JigyosyoCd=4390810119-00&ServiceCd=320&Type=search", "url2": "https://rehealthia-corp.com/" }, "geometry": { "type": "Point", "coordinates": [ 130.691478499999988, 33.0184911 ] } },
{ "type": "Feature", "properties": { "内容": "認知症対応型共同生活介護事業所　グループホームきらく【認知症対応型共同生活介護】熊本県菊池市旭志伊坂４４６－２", "url": "https://www.kaigokensaku.mhlw.go.jp/43/index.php?action_kouhyou_detail_004_kani=true&JigyosyoCd=4372601288-00&ServiceCd=320&Type=search", "url2": "http://www.asahigaokasou.or.jp/" }, "geometry": { "type": "Point", "coordinates": [ 130.832499399999961, 32.9353142 ] } },
{ "type": "Feature", "properties": { "内容": "グループホーム清泉【認知症対応型共同生活介護】熊本県菊池市七城町亀尾２４８４番地", "url": "https://www.kaigokensaku.mhlw.go.jp/43/index.php?action_kouhyou_detail_004_kani=true&JigyosyoCd=4371000565-00&ServiceCd=320&Type=search", "url2": "https://seisen-aikei.wixsite.com/seisen" }, "geometry": { "type": "Point", "coordinates": [ 130.767435200000023, 32.9554738 ] } },
{ "type": "Feature", "properties": { "内容": "グループホーム　まゆの里【認知症対応型共同生活介護】熊本県菊池市泗水町福本780番地", "url": "https://www.kaigokensaku.mhlw.go.jp/43/index.php?action_kouhyou_detail_004_kani=true&JigyosyoCd=4391000108-00&ServiceCd=320&Type=search", "url2": "http://hckousikai.com/" }, "geometry": { "type": "Point", "coordinates": [ 130.774346499999979, 32.9202155 ] } },
{ "type": "Feature", "properties": { "内容": "goodlocation【認知症対応型共同生活介護】熊本県菊池市藤田38-1", "url": "https://www.kaigokensaku.mhlw.go.jp/43/index.php?action_kouhyou_detail_004_kani=true&JigyosyoCd=4391000207-00&ServiceCd=320&Type=search", "url2": "https://sasaeru.crayonsite.com/p/4/" }, "geometry": { "type": "Point", "coordinates": [ 130.8246336, 32.9775572 ] } },
{ "type": "Feature", "properties": { "内容": "グループホーム大平【認知症対応型共同生活介護】熊本県菊池市大平597-1グループホーム大平", "url": "https://www.kaigokensaku.mhlw.go.jp/43/index.php?action_kouhyou_detail_004_kani=true&JigyosyoCd=4391000017-00&ServiceCd=320&Type=search", "url2": "なし" }, "geometry": { "type": "Point", "coordinates": [ 130.829494299999965, 32.9947464 ] } },
{ "type": "Feature", "properties": { "内容": "たしま友遊宛【認知症対応型共同生活介護】菊池市　泗水町　田島　６１６－１", "url": "https://www.kaigokensaku.mhlw.go.jp/43/index.php?action_kouhyou_detail_004_kani=true&JigyosyoCd=4372601221-00&ServiceCd=320&Type=search", "url2": null }, "geometry": { "type": "Point", "coordinates": [ 130.739971100000048, 32.9320345 ] } },
{ "type": "Feature", "properties": { "内容": "グループホームサンテ【認知症対応型共同生活介護】熊本県菊池市深川400番地医療法人牧念人会牧診療所", "url": "https://www.kaigokensaku.mhlw.go.jp/43/index.php?action_kouhyou_detail_004_kani=true&JigyosyoCd=4311010997-00&ServiceCd=320&Type=search", "url2": null }, "geometry": { "type": "Point", "coordinates": [ 130.801635749073739, 32.969494787239917 ] } },
{ "type": "Feature", "properties": { "内容": "認知症対応型共同生活事業ぬくもり【認知症対応型共同生活介護】宇土市松山町１９０７", "url": "https://www.kaigokensaku.mhlw.go.jp/43/index.php?action_kouhyou_detail_004_kani=true&JigyosyoCd=4371100431-00&ServiceCd=320&Type=search", "url2": "http://k-shinryou.jp/" }, "geometry": { "type": "Point", "coordinates": [ 130.672959799999944, 32.6737892 ] } },
{ "type": "Feature", "properties": { "内容": "グループホーム　とどろき【認知症対応型共同生活介護】宇土市栗崎町７３６番地", "url": "https://www.kaigokensaku.mhlw.go.jp/43/index.php?action_kouhyou_detail_004_kani=true&JigyosyoCd=4371100449-00&ServiceCd=320&Type=search", "url2": null }, "geometry": { "type": "Point", "coordinates": [ 130.651541700000053, 32.6711809 ] } },
{ "type": "Feature", "properties": { "内容": "グループホーム　西城園【認知症対応型共同生活介護】熊本県宇土市戸口町９０６", "url": "https://www.kaigokensaku.mhlw.go.jp/43/index.php?action_kouhyou_detail_004_kani=true&JigyosyoCd=4391100098-00&ServiceCd=320&Type=search", "url2": null }, "geometry": { "type": "Point", "coordinates": [ 130.54161, 32.6668097 ] } },
{ "type": "Feature", "properties": { "内容": "グループホームうきうき【認知症対応型共同生活介護】熊本県宇土市松原町120-2", "url": "https://www.kaigokensaku.mhlw.go.jp/43/index.php?action_kouhyou_detail_004_kani=true&JigyosyoCd=4371100530-00&ServiceCd=320&Type=search", "url2": "http://www.sankolife.co.jp/" }, "geometry": { "type": "Point", "coordinates": [ 130.664126399999986, 32.6908289 ] } },
{ "type": "Feature", "properties": { "内容": "グループホームおおやの【認知症対応型共同生活介護】熊本県上天草市大矢野町上1520番地8", "url": "https://www.kaigokensaku.mhlw.go.jp/43/index.php?action_kouhyou_detail_004_kani=true&JigyosyoCd=4371200058-00&ServiceCd=320&Type=search", "url2": null }, "geometry": { "type": "Point", "coordinates": [ 130.430472044844009, 32.586051978817366 ] } },
{ "type": "Feature", "properties": { "内容": "グループホーム　ひかりの園　ビハーラ館【認知症対応型共同生活介護】熊本県上天草市松島町今泉1004-1", "url": "https://www.kaigokensaku.mhlw.go.jp/43/index.php?action_kouhyou_detail_004_kani=true&JigyosyoCd=4371200066-00&ServiceCd=320&Type=search", "url2": "http://hikarinosono1995.com/" }, "geometry": { "type": "Point", "coordinates": [ 130.4234735, 32.4900876 ] } },
{ "type": "Feature", "properties": { "内容": "グループホーム　さち【認知症対応型共同生活介護】熊本県上天草市大矢野町上字西大平７３１４番地", "url": "https://www.kaigokensaku.mhlw.go.jp/43/index.php?action_kouhyou_detail_004_kani=true&JigyosyoCd=4371200082-00&ServiceCd=320&Type=search", "url2": null }, "geometry": { "type": "Point", "coordinates": [ 130.394378465912723, 32.587922389078003 ] } },
{ "type": "Feature", "properties": { "内容": "グループホーム龍ヶ岳【認知症対応型共同生活介護】上天草市龍ヶ岳町大道１５８番地", "url": "https://www.kaigokensaku.mhlw.go.jp/43/index.php?action_kouhyou_detail_004_kani=true&JigyosyoCd=4373201146-00&ServiceCd=320&Type=search", "url2": null }, "geometry": { "type": "Point", "coordinates": [ 130.351240599999983, 32.3947693 ] } },
{ "type": "Feature", "properties": { "内容": "有限会社　真和会　ファミリー倶楽部【認知症対応型共同生活介護】熊本県上天草市松島町合津１０６８－１", "url": "https://www.kaigokensaku.mhlw.go.jp/43/index.php?action_kouhyou_detail_004_kani=true&JigyosyoCd=4391200039-00&ServiceCd=320&Type=search", "url2": "https：//goopejp/murakamiiin" }, "geometry": { "type": "Point", "coordinates": [ 130.430583399999932, 32.5065198 ] } },
{ "type": "Feature", "properties": { "内容": "グループホーム諏訪の森【認知症対応型共同生活介護】熊本県上天草市姫戸町二間戸２７６－５", "url": "https://www.kaigokensaku.mhlw.go.jp/43/index.php?action_kouhyou_detail_004_kani=true&JigyosyoCd=4391200054-00&ServiceCd=320&Type=search", "url2": null }, "geometry": { "type": "Point", "coordinates": [ 130.406287012194838, 32.424283102204534 ] } },
{ "type": "Feature", "properties": { "内容": "グループホーム椿【認知症対応型共同生活介護】熊本県上天草市龍ヶ岳町高戸1237-15", "url": "https://www.kaigokensaku.mhlw.go.jp/43/index.php?action_kouhyou_detail_004_kani=true&JigyosyoCd=4391200112-00&ServiceCd=320&Type=search", "url2": "tsubaki@amakusa.care" }, "geometry": { "type": "Point", "coordinates": [ 130.389610599999969, 32.3935355 ] } },
{ "type": "Feature", "properties": { "内容": "グループホーム純心苑【認知症対応型共同生活介護】熊本県上天草市大矢野町登立1426-4", "url": "https://www.kaigokensaku.mhlw.go.jp/43/index.php?action_kouhyou_detail_004_kani=true&JigyosyoCd=4391200187-00&ServiceCd=320&Type=search", "url2": null }, "geometry": { "type": "Point", "coordinates": [ 130.43716, 32.6022361 ] } },
{ "type": "Feature", "properties": { "内容": "グループホーム桃寿苑【認知症対応型共同生活介護】熊本県上天草市大矢野町登立1426-4", "url": "https://www.kaigokensaku.mhlw.go.jp/43/index.php?action_kouhyou_detail_004_kani=true&JigyosyoCd=4391200195-00&ServiceCd=320&Type=search", "url2": null }, "geometry": { "type": "Point", "coordinates": [ 130.43716, 32.6022361 ] } },
{ "type": "Feature", "properties": { "内容": "グループホーム　青海苑【認知症対応型共同生活介護】熊本県宇城市三角町郡浦739-5", "url": "https://www.kaigokensaku.mhlw.go.jp/43/index.php?action_kouhyou_detail_004_kani=true&JigyosyoCd=4372200396-00&ServiceCd=320&Type=search", "url2": null }, "geometry": { "type": "Point", "coordinates": [ 130.535719200000017, 32.6198221 ] } },
{ "type": "Feature", "properties": { "内容": "NPO法人不知火福祉会グループホーム白梅の里【認知症対応型共同生活介護】熊本県宇城市不知火町亀松543", "url": "https://www.kaigokensaku.mhlw.go.jp/43/index.php?action_kouhyou_detail_004_kani=true&JigyosyoCd=4372200446-00&ServiceCd=320&Type=search", "url2": null }, "geometry": { "type": "Point", "coordinates": [ 130.659264200000052, 32.6448856 ] } },
{ "type": "Feature", "properties": { "内容": "グループホーム郷【認知症対応型共同生活介護】熊本県宇城市松橋町西下郷２３６", "url": "https://www.kaigokensaku.mhlw.go.jp/43/index.php?action_kouhyou_detail_004_kani=true&JigyosyoCd=4372300865-00&ServiceCd=320&Type=search", "url2": null }, "geometry": { "type": "Point", "coordinates": [ 130.695109900000034, 32.6294489 ] } },
{ "type": "Feature", "properties": { "内容": "認知症対応型共同生活介護　ふれあい家族の家【認知症対応型共同生活介護】熊本県宇城市小川町南部田131-1", "url": "https://www.kaigokensaku.mhlw.go.jp/43/index.php?action_kouhyou_detail_004_kani=true&JigyosyoCd=4372301053-00&ServiceCd=320&Type=search", "url2": "ｆｕｒｅａｉｋａｚｏｋｕｎｏｉｅ＠ｔｈｅｍｉｓ．ｏｃｎ．ｎｅ．ｊｐ" }, "geometry": { "type": "Point", "coordinates": [ 130.71002180000005, 32.5919225 ] } },
{ "type": "Feature", "properties": { "内容": "グループホーム野の花【認知症対応型共同生活介護】熊本県宇城市小川町南部田597番地", "url": "https://www.kaigokensaku.mhlw.go.jp/43/index.php?action_kouhyou_detail_004_kani=true&JigyosyoCd=4391300102-00&ServiceCd=320&Type=search", "url2": "hppp:hidakekai.hippy.jp" }, "geometry": { "type": "Point", "coordinates": [ 130.714468500000066, 32.5948445 ] } },
{ "type": "Feature", "properties": { "内容": "グループホーム　フォーシーズン【認知症対応型共同生活介護】熊本県宇城市松橋町久具2059-1", "url": "https://www.kaigokensaku.mhlw.go.jp/43/index.php?action_kouhyou_detail_004_kani=true&JigyosyoCd=4391300151-00&ServiceCd=320&Type=search", "url2": "http://fo-season.jp/" }, "geometry": { "type": "Point", "coordinates": [ 130.697877158935512, 32.642285527861176 ] } },
{ "type": "Feature", "properties": { "内容": "グループホームほのか・豊野【認知症対応型共同生活介護】熊本県宇城市豊野町糸石３９２８－１", "url": "https://www.kaigokensaku.mhlw.go.jp/43/index.php?action_kouhyou_detail_004_kani=true&JigyosyoCd=4391300169-00&ServiceCd=320&Type=search", "url2": "http//www:fukushi-greencoop.or.jp" }, "geometry": { "type": "Point", "coordinates": [ 130.748759100000029, 32.6373102 ] } },
{ "type": "Feature", "properties": { "内容": "グループホーム　まごころ【認知症対応型共同生活介護】熊本県宇城市松橋町松橋1621-1", "url": "https://www.kaigokensaku.mhlw.go.jp/43/index.php?action_kouhyou_detail_004_kani=true&JigyosyoCd=4391300177-00&ServiceCd=320&Type=search", "url2": null }, "geometry": { "type": "Point", "coordinates": [ 130.685048300000062, 32.6595599 ] } },
{ "type": "Feature", "properties": { "内容": "グループホーム　ドリームまつばせ【認知症対応型共同生活介護】熊本県宇城市松橋町松橋１６１９－１", "url": "https://www.kaigokensaku.mhlw.go.jp/43/index.php?action_kouhyou_detail_004_kani=true&JigyosyoCd=4372300857-00&ServiceCd=320&Type=search", "url2": null }, "geometry": { "type": "Point", "coordinates": [ 130.685620500000027, 32.6592238 ] } },
{ "type": "Feature", "properties": { "内容": "グループホーム　誉ヶ丘【認知症対応型共同生活介護】宇城市豊野町山崎１７２８－１", "url": "https://www.kaigokensaku.mhlw.go.jp/43/index.php?action_kouhyou_detail_004_kani=true&JigyosyoCd=4371300163-00&ServiceCd=320&Type=search", "url2": null }, "geometry": { "type": "Point", "coordinates": [ 130.739521048054485, 32.645283048904261 ] } },
{ "type": "Feature", "properties": { "内容": "グループホームひのおか由紀の里【認知症対応型共同生活介護】熊本県阿蘇市赤水字無田ノ上１８９４番地１", "url": "https://www.kaigokensaku.mhlw.go.jp/43/index.php?action_kouhyou_detail_004_kani=true&JigyosyoCd=4391400068-00&ServiceCd=320&Type=search", "url2": "http://www.hinooka1990.or.jp" }, "geometry": { "type": "Point", "coordinates": [ 130.995123016146835, 32.911347868094886 ] } },
{ "type": "Feature", "properties": { "内容": "グループホームといはた【認知症対応型共同生活介護】熊本県阿蘇市内牧１１７", "url": "https://www.kaigokensaku.mhlw.go.jp/43/index.php?action_kouhyou_detail_004_kani=true&JigyosyoCd=4372701039-00&ServiceCd=320&Type=search", "url2": null }, "geometry": { "type": "Point", "coordinates": [ 131.043798, 32.9748866 ] } },
{ "type": "Feature", "properties": { "内容": "大阿蘇病院グループホームさくら苑【認知症対応型共同生活介護】熊本県阿蘇市一の宮町宮地５８６３－１と５８５７－２", "url": "https://www.kaigokensaku.mhlw.go.jp/43/index.php?action_kouhyou_detail_004_kani=true&JigyosyoCd=4372700940-00&ServiceCd=320&Type=search", "url2": "sakuraen@daitokukai.info" }, "geometry": { "type": "Point", "coordinates": [ 131.109639099999981, 32.9398667 ] } },
{ "type": "Feature", "properties": { "内容": "グループホーム乙姫の家【認知症対応型共同生活介護】熊本県阿蘇市乙姫2142-10", "url": "https://www.kaigokensaku.mhlw.go.jp/43/index.php?action_kouhyou_detail_004_kani=true&JigyosyoCd=4391400027-00&ServiceCd=320&Type=search", "url2": "http://kaigonomirai.com" }, "geometry": { "type": "Point", "coordinates": [ 131.041212099999939, 32.9288428 ] } },
{ "type": "Feature", "properties": { "内容": "紫明寮グループホーム【認知症対応型共同生活介護】熊本県天草市五和町二江567番地1", "url": "https://www.kaigokensaku.mhlw.go.jp/43/index.php?action_kouhyou_detail_004_kani=true&JigyosyoCd=4373201260-00&ServiceCd=320&Type=search", "url2": "https://shimeiryo.com/" }, "geometry": { "type": "Point", "coordinates": [ 130.132741600000031, 32.5437543 ] } },
{ "type": "Feature", "properties": { "内容": "グループホームると【認知症対応型共同生活介護】天草市下浦町2090-7", "url": "https://www.kaigokensaku.mhlw.go.jp/43/index.php?action_kouhyou_detail_004_kani=true&JigyosyoCd=4370700447-00&ServiceCd=320&Type=search", "url2": null }, "geometry": { "type": "Point", "coordinates": [ 130.222987, 32.4244183 ] } },
{ "type": "Feature", "properties": { "内容": "グループホーム菜の花【認知症対応型共同生活介護】熊本県天草市本渡町本渡８４５番地３", "url": "https://www.kaigokensaku.mhlw.go.jp/43/index.php?action_kouhyou_detail_004_kani=true&JigyosyoCd=4370700595-00&ServiceCd=320&Type=search", "url2": "nanohana1171@circus.ocn.ne.jp" }, "geometry": { "type": "Point", "coordinates": [ 130.175394500000039, 32.4608206 ] } },
{ "type": "Feature", "properties": { "内容": "グループホーム　和樂【認知症対応型共同生活介護】熊本県天草市牛深町１６４１－４", "url": "https://www.kaigokensaku.mhlw.go.jp/43/index.php?action_kouhyou_detail_004_kani=true&JigyosyoCd=4370900435-00&ServiceCd=320&Type=search", "url2": null }, "geometry": { "type": "Point", "coordinates": [ 130.0242154, 32.1964026 ] } },
{ "type": "Feature", "properties": { "内容": "グループホーム遊鳥【認知症対応型共同生活介護】熊本県天草市栖本町湯船原７５９", "url": "https://www.kaigokensaku.mhlw.go.jp/43/index.php?action_kouhyou_detail_004_kani=true&JigyosyoCd=4371500010-00&ServiceCd=320&Type=search", "url2": "http://amakusa.care" }, "geometry": { "type": "Point", "coordinates": [ 130.272572200000013, 32.4156508 ] } },
{ "type": "Feature", "properties": { "内容": "グループホームしんわ【認知症対応型共同生活介護】熊本県天草市新和町小宮地７６３番地２", "url": "https://www.kaigokensaku.mhlw.go.jp/43/index.php?action_kouhyou_detail_004_kani=true&JigyosyoCd=4373201161-00&ServiceCd=320&Type=search", "url2": "http://www.shinwaen.net/" }, "geometry": { "type": "Point", "coordinates": [ 130.18584450000003, 32.3715869 ] } },
{ "type": "Feature", "properties": { "内容": "グループホームはまかぜ【認知症対応型共同生活介護】熊本県天草市倉岳町宮田２７０－１", "url": "https://www.kaigokensaku.mhlw.go.jp/43/index.php?action_kouhyou_detail_004_kani=true&JigyosyoCd=4373201229-00&ServiceCd=320&Type=search", "url2": null }, "geometry": { "type": "Point", "coordinates": [ 130.3028276, 32.3995147 ] } },
{ "type": "Feature", "properties": { "内容": "グループホーム優海【認知症対応型共同生活介護】熊本県天草市御所浦町御所浦３９１６－６", "url": "https://www.kaigokensaku.mhlw.go.jp/43/index.php?action_kouhyou_detail_004_kani=true&JigyosyoCd=4391500016-00&ServiceCd=320&Type=search", "url2": "http://amakusa.care/" }, "geometry": { "type": "Point", "coordinates": [ 130.340699099999938, 32.3359699 ] } },
{ "type": "Feature", "properties": { "内容": "グループホーム　あかね苑【認知症対応型共同生活介護】熊本県天草市久玉町５７１６－９", "url": "https://www.kaigokensaku.mhlw.go.jp/43/index.php?action_kouhyou_detail_004_kani=true&JigyosyoCd=4391500024-00&ServiceCd=320&Type=search", "url2": "akaneen@mx41.tiki.ne.jp" }, "geometry": { "type": "Point", "coordinates": [ 130.028464500000041, 32.2139567 ] } },
{ "type": "Feature", "properties": { "内容": "グループホーム桜ん里【認知症対応型共同生活介護】熊本県天草市白木河内116-1", "url": "https://www.kaigokensaku.mhlw.go.jp/43/index.php?action_kouhyou_detail_004_kani=true&JigyosyoCd=4391500065-00&ServiceCd=320&Type=search", "url2": "sakuransato@mx41.tiki.ne.jp" }, "geometry": { "type": "Point", "coordinates": [ 130.0822071, 32.3143489 ] } },
{ "type": "Feature", "properties": { "内容": "グループホーム葉山苑天領の杜【認知症対応型共同生活介護】熊本県天草市本町下河内2231番地", "url": "https://www.kaigokensaku.mhlw.go.jp/43/index.php?action_kouhyou_detail_004_kani=true&JigyosyoCd=4391500073-00&ServiceCd=320&Type=search", "url2": "http://www.hayamaen.com/" }, "geometry": { "type": "Point", "coordinates": [ 130.165366800000015, 32.473877799999926 ] } },
{ "type": "Feature", "properties": { "内容": "グループホーム明香里【認知症対応型共同生活介護】熊本県天草市二浦町亀浦1066番地6", "url": "https://www.kaigokensaku.mhlw.go.jp/43/index.php?action_kouhyou_detail_004_kani=true&JigyosyoCd=4391500115-00&ServiceCd=320&Type=search", "url2": "https://kenzyukai-tokoton.or.jp/" }, "geometry": { "type": "Point", "coordinates": [ 130.025992299999984, 32.2717431 ] } },
{ "type": "Feature", "properties": { "内容": "ぐるーぷほーむ　やすらぎ【認知症対応型共同生活介護】天草市五和町御領6447番地", "url": "https://www.kaigokensaku.mhlw.go.jp/43/index.php?action_kouhyou_detail_004_kani=true&JigyosyoCd=4391500164-00&ServiceCd=320&Type=search", "url2": "https://kousoukai.or.jp/" }, "geometry": { "type": "Point", "coordinates": [ 130.188883199999964, 32.514497 ] } },
{ "type": "Feature", "properties": { "内容": "グループホーム　さざなみ【認知症対応型共同生活介護】熊本県天草市有明町赤崎１９７４番地", "url": "https://www.kaigokensaku.mhlw.go.jp/43/index.php?action_kouhyou_detail_004_kani=true&JigyosyoCd=4391500149-00&ServiceCd=320&Type=search", "url2": "https://www.kuwata-d.com/" }, "geometry": { "type": "Point", "coordinates": [ 130.318206199999963, 32.5161136 ] } },
{ "type": "Feature", "properties": { "内容": "グループホームくすのき【認知症対応型共同生活介護】熊本県天草市楠浦町288番地9", "url": "https://www.kaigokensaku.mhlw.go.jp/43/index.php?action_kouhyou_detail_004_kani=true&JigyosyoCd=4391500529-00&ServiceCd=320&Type=search", "url2": null }, "geometry": { "type": "Point", "coordinates": [ 130.2079783, 32.4224477 ] } },
{ "type": "Feature", "properties": { "内容": "グループホームさくらんぼ須屋【認知症対応型共同生活介護】熊本県合志市須屋2863-4", "url": "https://www.kaigokensaku.mhlw.go.jp/43/index.php?action_kouhyou_detail_004_kani=true&JigyosyoCd=4391600048-00&ServiceCd=320&Type=search", "url2": "http://www.nakayamakai.jp/index.html" }, "geometry": { "type": "Point", "coordinates": [ 130.743583, 32.8681616 ] } },
{ "type": "Feature", "properties": { "内容": "グループホーム　ヒューマンケア【認知症対応型共同生活介護】熊本県合志市幾久富１９０９番地７００", "url": "https://www.kaigokensaku.mhlw.go.jp/43/index.php?action_kouhyou_detail_004_kani=true&JigyosyoCd=4372601098-00&ServiceCd=320&Type=search", "url2": "http://zikeikai.jp/gh_kousi/" }, "geometry": { "type": "Point", "coordinates": [ 130.769645, 32.8667173 ] } },
{ "type": "Feature", "properties": { "内容": "ポジティブリーケア合志栄【認知症対応型共同生活介護】熊本県合志市栄２３２５－１", "url": "https://www.kaigokensaku.mhlw.go.jp/43/index.php?action_kouhyou_detail_004_kani=true&JigyosyoCd=4391600063-00&ServiceCd=320&Type=search", "url2": "https://www.morinosato.org" }, "geometry": { "type": "Point", "coordinates": [ 130.7704036, 32.9024037 ] } },
{ "type": "Feature", "properties": { "内容": "グループホーム　ひだまり【認知症対応型共同生活介護】熊本県下益城郡美里町二和田1235-1", "url": "https://www.kaigokensaku.mhlw.go.jp/43/index.php?action_kouhyou_detail_004_kani=true&JigyosyoCd=4372300600-00&ServiceCd=320&Type=search", "url2": "http://youkouen.com/" }, "geometry": { "type": "Point", "coordinates": [ 130.863010799999984, 32.6197427 ] } },
{ "type": "Feature", "properties": { "内容": "グループホーム　こもれび【認知症対応型共同生活介護】熊本県下益城郡美里町佐俣388番地", "url": "https://www.kaigokensaku.mhlw.go.jp/43/index.php?action_kouhyou_detail_004_kani=true&JigyosyoCd=4372301046-00&ServiceCd=320&Type=search", "url2": "http://shinseiki.jp" }, "geometry": { "type": "Point", "coordinates": [ 130.821744099999933, 32.6219889 ] } },
{ "type": "Feature", "properties": { "内容": "グループホーム　みずほ【認知症対応型共同生活介護】熊本県下益城郡美里町安部235－1熊本県下益城郡美里町安部235-1", "url": "https://www.kaigokensaku.mhlw.go.jp/43/index.php?action_kouhyou_detail_004_kani=true&JigyosyoCd=4392300085-00&ServiceCd=320&Type=search", "url2": null }, "geometry": { "type": "Point", "coordinates": [ 130.874423500000034, 32.6185682 ] } },
{ "type": "Feature", "properties": { "内容": "グループホーム　はる【認知症対応型共同生活介護】熊本県玉名郡玉東町西安寺３０２－１", "url": "https://www.kaigokensaku.mhlw.go.jp/43/index.php?action_kouhyou_detail_004_kani=true&JigyosyoCd=4372401077-00&ServiceCd=320&Type=search", "url2": "https://group-yamamoto.com/" }, "geometry": { "type": "Point", "coordinates": [ 130.634262700000022, 32.8931718 ] } },
{ "type": "Feature", "properties": { "内容": "グループホーム　和楽の里【認知症対応型共同生活介護】熊本県玉名郡南関町大字久重字坂本3424番地3", "url": "https://www.kaigokensaku.mhlw.go.jp/43/index.php?action_kouhyou_detail_004_kani=true&JigyosyoCd=4392400026-00&ServiceCd=320&Type=search", "url2": "mikawa-fukusikai.com" }, "geometry": { "type": "Point", "coordinates": [ 130.52628520085068, 33.042327793721334 ] } },
{ "type": "Feature", "properties": { "内容": "グループホーム谷崎【認知症対応型共同生活介護】玉名郡南関町相谷１７８９", "url": "https://www.kaigokensaku.mhlw.go.jp/43/index.php?action_kouhyou_detail_004_kani=true&JigyosyoCd=4392400075-00&ServiceCd=320&Type=search", "url2": "https://caresystem-pure.co.jp" }, "geometry": { "type": "Point", "coordinates": [ 130.5766936, 33.0419906 ] } },
{ "type": "Feature", "properties": { "内容": "グループホームたんぽぽ【認知症対応型共同生活介護】熊本県玉名郡南関町四ツ原１３３８", "url": "https://www.kaigokensaku.mhlw.go.jp/43/index.php?action_kouhyou_detail_004_kani=true&JigyosyoCd=4372400939-00&ServiceCd=320&Type=search", "url2": null }, "geometry": { "type": "Point", "coordinates": [ 130.549797176057382, 33.008706037239406 ] } },
{ "type": "Feature", "properties": { "内容": "グループホーム　ひまわり２１長洲【認知症対応型共同生活介護】熊本県玉名郡長洲町大字折崎６３３－５", "url": "https://www.kaigokensaku.mhlw.go.jp/43/index.php?action_kouhyou_detail_004_kani=true&JigyosyoCd=4372400624-00&ServiceCd=320&Type=search", "url2": null }, "geometry": { "type": "Point", "coordinates": [ 130.484966799999938, 32.9264067 ] } },
{ "type": "Feature", "properties": { "内容": "グループホーム　グリーンライフ　ヴィラ【認知症対応型共同生活介護】熊本県玉名郡長洲町宮野２７７２－１８", "url": "https://www.kaigokensaku.mhlw.go.jp/43/index.php?action_kouhyou_detail_004_kani=true&JigyosyoCd=4372400798-00&ServiceCd=320&Type=search", "url2": "http://www.ariakeseijin.or.jp" }, "geometry": { "type": "Point", "coordinates": [ 130.493865599999907, 32.9505212 ] } },
{ "type": "Feature", "properties": { "内容": "グループホーム　せいわながすの里【認知症対応型共同生活介護】熊本県玉名郡長洲町大字長洲2990-2", "url": "https://www.kaigokensaku.mhlw.go.jp/43/index.php?action_kouhyou_detail_004_kani=true&JigyosyoCd=4392400059-00&ServiceCd=320&Type=search", "url2": "https://seiruka.net" }, "geometry": { "type": "Point", "coordinates": [ 130.448879500277712, 32.924783816375609 ] } },
{ "type": "Feature", "properties": { "内容": "グループホーム夢路【認知症対応型共同生活介護】熊本県玉名郡和水町前原90-1", "url": "https://www.kaigokensaku.mhlw.go.jp/43/index.php?action_kouhyou_detail_004_kani=true&JigyosyoCd=4372400855-00&ServiceCd=320&Type=search", "url2": "https://r-yumeji.com/" }, "geometry": { "type": "Point", "coordinates": [ 130.6052148, 32.9907515 ] } },
{ "type": "Feature", "properties": { "内容": "なごみの園・菊水【認知症対応型共同生活介護】熊本県玉名郡和水町長小田334番地", "url": "https://www.kaigokensaku.mhlw.go.jp/43/index.php?action_kouhyou_detail_004_kani=true&JigyosyoCd=4372401135-00&ServiceCd=320&Type=search", "url2": "http://fureaimatsukawa.com" }, "geometry": { "type": "Point", "coordinates": [ 130.603459, 32.99972 ] } },
{ "type": "Feature", "properties": { "内容": "有限会社肥後いこいの家　グループホーム灰塚【認知症対応型共同生活介護】熊本県菊池郡大津町灰塚１２３－１", "url": "https://www.kaigokensaku.mhlw.go.jp/43/index.php?action_kouhyou_detail_004_kani=true&JigyosyoCd=4372601023-00&ServiceCd=320&Type=search", "url2": null }, "geometry": { "type": "Point", "coordinates": [ 130.859143600000039, 32.8628465 ] } },
{ "type": "Feature", "properties": { "内容": "グループホーム　つつじのさと【認知症対応型共同生活介護】熊本県菊池郡大津町大字大津字前田1187-1", "url": "https://www.kaigokensaku.mhlw.go.jp/43/index.php?action_kouhyou_detail_004_kani=true&JigyosyoCd=4392600013-00&ServiceCd=320&Type=search", "url2": "https://www.tutuji-sanso.jp" }, "geometry": { "type": "Point", "coordinates": [ 130.870014500000025, 32.879437 ] } },
{ "type": "Feature", "properties": { "内容": "グループホーム第二光喜園【認知症対応型共同生活介護】熊本県菊池郡大津町大字室1724-2", "url": "https://www.kaigokensaku.mhlw.go.jp/43/index.php?action_kouhyou_detail_004_kani=true&JigyosyoCd=4392600195-00&ServiceCd=320&Type=search", "url2": null }, "geometry": { "type": "Point", "coordinates": [ 130.860162, 32.8838521 ] } },
{ "type": "Feature", "properties": { "内容": "社会福祉法人　光進会　グループホーム　光喜園【認知症対応型共同生活介護】熊本県菊池郡大津町大字室1713番地", "url": "https://www.kaigokensaku.mhlw.go.jp/43/index.php?action_kouhyou_detail_004_kani=true&JigyosyoCd=4392600112-00&ServiceCd=320&Type=search", "url2": "http://koshin-kai.jp" }, "geometry": { "type": "Point", "coordinates": [ 130.866448100000071, 32.8792091 ] } },
{ "type": "Feature", "properties": { "内容": "認知症対応型共同生活介護　グループホーム陣内【認知症対応型共同生活介護】熊本県菊池郡大津町陣内1167-5", "url": "https://www.kaigokensaku.mhlw.go.jp/43/index.php?action_kouhyou_detail_004_kani=true&JigyosyoCd=4392600070-00&ServiceCd=320&Type=search", "url2": "http:/www.tanakakai.com/otsuka" }, "geometry": { "type": "Point", "coordinates": [ 130.873725599999943, 32.86291360000002 ] } },
{ "type": "Feature", "properties": { "内容": "グループホームげんきの家【認知症対応型共同生活介護】熊本県菊池郡菊陽町大字辛川1923番地1", "url": "https://www.kaigokensaku.mhlw.go.jp/43/index.php?action_kouhyou_detail_004_kani=true&JigyosyoCd=4372601148-00&ServiceCd=320&Type=search", "url2": "http://www.higashikumamoto.or.jp/" }, "geometry": { "type": "Point", "coordinates": [ 130.805350699999963, 32.8472024 ] } },
{ "type": "Feature", "properties": { "内容": "医療法人社団栄康会　グループホーム菊陽スマイル【認知症対応型共同生活介護】熊本県菊池郡菊陽町原水1019番地1", "url": "https://www.kaigokensaku.mhlw.go.jp/43/index.php?action_kouhyou_detail_004_kani=true&JigyosyoCd=4392600062-00&ServiceCd=320&Type=search", "url2": "http://www.kikuyou-smile.com/" }, "geometry": { "type": "Point", "coordinates": [ 130.827937, 32.8690895 ] } },
{ "type": "Feature", "properties": { "内容": "グループホーム　コスモピアきくよう【認知症対応型共同生活介護】熊本県菊池郡菊陽町原水5662番地17", "url": "https://www.kaigokensaku.mhlw.go.jp/43/index.php?action_kouhyou_detail_004_kani=true&JigyosyoCd=4392600237-00&ServiceCd=320&Type=search", "url2": "https://shinseiki.or.jp" }, "geometry": { "type": "Point", "coordinates": [ 130.7959711, 32.8674481 ] } },
{ "type": "Feature", "properties": { "内容": "グループホーム武蔵ヶ丘【認知症対応型共同生活介護】熊本県菊池郡菊陽町武蔵ヶ丘北1-8-1", "url": "https://www.kaigokensaku.mhlw.go.jp/43/index.php?action_kouhyou_detail_004_kani=true&JigyosyoCd=4392600096-00&ServiceCd=320&Type=search", "url2": "http://kaigonomirai.com" }, "geometry": { "type": "Point", "coordinates": [ 130.767675899999972, 32.8605567 ] } },
{ "type": "Feature", "properties": { "内容": "グループホームなごみ【認知症対応型共同生活介護】熊本県阿蘇郡小国町宮原４２５番地８", "url": "https://www.kaigokensaku.mhlw.go.jp/43/index.php?action_kouhyou_detail_004_kani=true&JigyosyoCd=4392700235-00&ServiceCd=320&Type=search", "url2": null }, "geometry": { "type": "Point", "coordinates": [ 131.0841978, 33.1227597 ] } },
{ "type": "Feature", "properties": { "内容": "グループホームあそ和楽【認知症対応型共同生活介護】熊本県阿蘇郡高森町高森２１３２番地１", "url": "https://www.kaigokensaku.mhlw.go.jp/43/index.php?action_kouhyou_detail_004_kani=true&JigyosyoCd=4372701005-00&ServiceCd=320&Type=search", "url2": null }, "geometry": { "type": "Point", "coordinates": [ 131.116214200000059, 32.825801 ] } },
{ "type": "Feature", "properties": { "内容": "グループホームあそ喜楽【認知症対応型共同生活介護】熊本県阿蘇郡高森町高森2133-8", "url": "https://www.kaigokensaku.mhlw.go.jp/43/index.php?action_kouhyou_detail_004_kani=true&JigyosyoCd=4392700086-00&ServiceCd=320&Type=search", "url2": null }, "geometry": { "type": "Point", "coordinates": [ 131.1168669, 32.8261871 ] } },
{ "type": "Feature", "properties": { "内容": "グループホーム　みどり【認知症対応型共同生活介護】熊本県阿蘇郡西原村布田845", "url": "https://www.kaigokensaku.mhlw.go.jp/43/index.php?action_kouhyou_detail_004_kani=true&JigyosyoCd=4372700932-00&ServiceCd=320&Type=search", "url2": "https://seijinkai-midori.org/" }, "geometry": { "type": "Point", "coordinates": [ 130.884445300000039, 32.8291973 ] } },
{ "type": "Feature", "properties": { "内容": "グループホームみなみ阿蘇【認知症対応型共同生活介護】熊本県阿蘇郡南阿蘇村久石2721-2", "url": "https://www.kaigokensaku.mhlw.go.jp/43/index.php?action_kouhyou_detail_004_kani=true&JigyosyoCd=4372700874-00&ServiceCd=320&Type=search", "url2": "http://www.minamiasocare.com" }, "geometry": { "type": "Point", "coordinates": [ 131.037023299999987, 32.8192793 ] } },
{ "type": "Feature", "properties": { "内容": "グループホーム陽なたぼっこ【認知症対応型共同生活介護】熊本県阿蘇郡南阿蘇村大字河陽4463番地", "url": "https://www.kaigokensaku.mhlw.go.jp/43/index.php?action_kouhyou_detail_004_kani=true&JigyosyoCd=4372701021-00&ServiceCd=320&Type=search", "url2": "http://www.hinooka1990.or.jp" }, "geometry": { "type": "Point", "coordinates": [ 131.003092015130619, 32.867749200727602 ] } },
{ "type": "Feature", "properties": { "内容": "グループホームグリーンヒルみふね【認知症対応型共同生活介護】熊本県上益城郡御船町木倉１７２０－６", "url": "https://www.kaigokensaku.mhlw.go.jp/43/index.php?action_kouhyou_detail_004_kani=true&JigyosyoCd=4372800799-00&ServiceCd=320&Type=search", "url2": "http://greenhillmifune.web.fc2.com/greenhillmifunetop.html" }, "geometry": { "type": "Point", "coordinates": [ 130.8162959, 32.7212651 ] } },
{ "type": "Feature", "properties": { "内容": "グループホーム日々輝【認知症対応型共同生活介護】熊本県上益城郡御船町辺田見１８１－１", "url": "https://www.kaigokensaku.mhlw.go.jp/43/index.php?action_kouhyou_detail_004_kani=true&JigyosyoCd=4372800989-00&ServiceCd=320&Type=search", "url2": null }, "geometry": { "type": "Point", "coordinates": [ 130.804216399999973, 32.711216 ] } },
{ "type": "Feature", "properties": { "内容": "グループホーム康寿苑【認知症対応型共同生活介護】熊本県上益城郡嘉島町上六嘉２２６８番地", "url": "https://www.kaigokensaku.mhlw.go.jp/43/index.php?action_kouhyou_detail_004_kani=true&JigyosyoCd=4372801037-00&ServiceCd=320&Type=search", "url2": "http：//kayuukai" }, "geometry": { "type": "Point", "coordinates": [ 130.76905, 32.7477616 ] } },
{ "type": "Feature", "properties": { "内容": "益城病院　高齢者グループホームふるさと【認知症対応型共同生活介護】熊本県上益城郡益城町福富849－2", "url": "https://www.kaigokensaku.mhlw.go.jp/43/index.php?action_kouhyou_detail_004_kani=true&JigyosyoCd=4312810734-00&ServiceCd=320&Type=search", "url2": "http://www.mashiki.jp/" }, "geometry": { "type": "Point", "coordinates": [ 130.797515312164251, 32.783748615751563 ] } },
{ "type": "Feature", "properties": { "内容": "グループホーム津森倶楽部【認知症対応型共同生活介護】熊本県上益城郡益城町大字寺中1番地1", "url": "https://www.kaigokensaku.mhlw.go.jp/43/index.php?action_kouhyou_detail_004_kani=true&JigyosyoCd=4392800134-00&ServiceCd=320&Type=search", "url2": "http://www.jikou-kai.com/tsumori" }, "geometry": { "type": "Point", "coordinates": [ 130.8443797, 32.8016102 ] } },
{ "type": "Feature", "properties": { "内容": "認知症高齢者グループホーム　グリーンヒルましき【認知症対応型共同生活介護】熊本県上益城郡益城町小池２６６４", "url": "https://www.kaigokensaku.mhlw.go.jp/43/index.php?action_kouhyou_detail_004_kani=true&JigyosyoCd=4392800209-00&ServiceCd=320&Type=search", "url2": "http://greenhillmashiki.com" }, "geometry": { "type": "Point", "coordinates": [ 130.802612299999964, 32.7486897 ] } },
{ "type": "Feature", "properties": { "内容": "グループホーム　乙女【認知症対応型共同生活介護】熊本県上益城郡甲佐町津志田１６６１", "url": "https://www.kaigokensaku.mhlw.go.jp/43/index.php?action_kouhyou_detail_004_kani=true&JigyosyoCd=4392800100-00&ServiceCd=320&Type=search", "url2": null }, "geometry": { "type": "Point", "coordinates": [ 130.785415599999965, 32.6836402 ] } },
{ "type": "Feature", "properties": { "内容": "グループホームせせらぎ【認知症対応型共同生活介護】熊本県上益城郡甲佐町白旗９８６", "url": "https://www.kaigokensaku.mhlw.go.jp/43/index.php?action_kouhyou_detail_004_kani=true&JigyosyoCd=4372800716-00&ServiceCd=320&Type=search", "url2": "http://www15.plala.or.jp/ghseseragi/" }, "geometry": { "type": "Point", "coordinates": [ 130.783376099999941, 32.707213 ] } },
{ "type": "Feature", "properties": { "内容": "グループホーム桜の丘【認知症対応型共同生活介護】熊本県上益城郡甲佐町大字西寒野１１５１-２", "url": "https://www.kaigokensaku.mhlw.go.jp/43/index.php?action_kouhyou_detail_004_kani=true&JigyosyoCd=4372801045-00&ServiceCd=320&Type=search", "url2": "http://www.sakuranooka.or.jp" }, "geometry": { "type": "Point", "coordinates": [ 130.812189240475504, 32.638367859045523 ] } },
{ "type": "Feature", "properties": { "内容": "グループホーム　年輪【認知症対応型共同生活介護】熊本県上益城郡甲佐町緑町３５９番地9", "url": "https://www.kaigokensaku.mhlw.go.jp/43/index.php?action_kouhyou_detail_004_kani=true&JigyosyoCd=4372800914-00&ServiceCd=320&Type=search", "url2": null }, "geometry": { "type": "Point", "coordinates": [ 130.808852938419591, 32.649379772482483 ] } },
{ "type": "Feature", "properties": { "内容": "ひまわり【認知症対応型共同生活介護】熊本県上益城郡山都町下市59番地", "url": "https://www.kaigokensaku.mhlw.go.jp/43/index.php?action_kouhyou_detail_004_kani=true&JigyosyoCd=4372800740-00&ServiceCd=320&Type=search", "url2": "http://www.kaigocsc.co.jp/lifelight/" }, "geometry": { "type": "Point", "coordinates": [ 130.987538399999949, 32.6838276 ] } },
{ "type": "Feature", "properties": { "内容": "グループホーム　緑仙館【認知症対応型共同生活介護】熊本県上益城郡山都町仏原９－１１", "url": "https://www.kaigokensaku.mhlw.go.jp/43/index.php?action_kouhyou_detail_004_kani=true&JigyosyoCd=4392800050-00&ServiceCd=320&Type=search", "url2": null }, "geometry": { "type": "Point", "coordinates": [ 131.096599273016409, 32.692678734876424 ] } },
{ "type": "Feature", "properties": { "内容": "グループホーム　やすらぎの里【認知症対応型共同生活介護】熊本県八代郡氷川町鹿島943番地", "url": "https://www.kaigokensaku.mhlw.go.jp/43/index.php?action_kouhyou_detail_004_kani=true&JigyosyoCd=4372900722-00&ServiceCd=320&Type=search", "url2": null }, "geometry": { "type": "Point", "coordinates": [ 130.668295, 32.5809309 ] } },
{ "type": "Feature", "properties": { "内容": "グループホーム　和鹿島【認知症対応型共同生活介護】熊本県八代郡氷川町鹿野1301-2", "url": "https://www.kaigokensaku.mhlw.go.jp/43/index.php?action_kouhyou_detail_004_kani=true&JigyosyoCd=4392900041-00&ServiceCd=320&Type=search", "url2": null }, "geometry": { "type": "Point", "coordinates": [ 130.664761399999946, 32.5902492 ] } },
{ "type": "Feature", "properties": { "内容": "グループホーム花音【認知症対応型共同生活介護】熊本県八代郡氷川町宮原588-2", "url": "https://www.kaigokensaku.mhlw.go.jp/43/index.php?action_kouhyou_detail_004_kani=true&JigyosyoCd=4392900082-00&ServiceCd=320&Type=search", "url2": "http://gh⁻canon.kna.jp/" }, "geometry": { "type": "Point", "coordinates": [ 130.6790306, 32.5573035 ] } },
{ "type": "Feature", "properties": { "内容": "グループホーム　むつみ荘【認知症対応型共同生活介護】熊本県葦北郡芦北町大字佐敷３７１番地の６", "url": "https://www.kaigokensaku.mhlw.go.jp/43/index.php?action_kouhyou_detail_004_kani=true&JigyosyoCd=4373000423-00&ServiceCd=320&Type=search", "url2": null }, "geometry": { "type": "Point", "coordinates": [ 130.503498600000057, 32.3062243 ] } },
{ "type": "Feature", "properties": { "内容": "グループホーム　あしきた【認知症対応型共同生活介護】熊本県葦北郡芦北町大字芦北２０１５－６", "url": "https://www.kaigokensaku.mhlw.go.jp/43/index.php?action_kouhyou_detail_004_kani=true&JigyosyoCd=4373000530-00&ServiceCd=320&Type=search", "url2": null }, "geometry": { "type": "Point", "coordinates": [ 130.493799800000033, 32.2998801 ] } },
{ "type": "Feature", "properties": { "内容": "グループホーム慈愛【認知症対応型共同生活介護】熊本県葦北郡芦北町大字天月1345番地", "url": "https://www.kaigokensaku.mhlw.go.jp/43/index.php?action_kouhyou_detail_004_kani=true&JigyosyoCd=4393000023-00&ServiceCd=320&Type=search", "url2": "https://jiyukai.com" }, "geometry": { "type": "Point", "coordinates": [ 130.582660700000019, 32.2914252 ] } },
{ "type": "Feature", "properties": { "内容": "グループホーム　千花【認知症対応型共同生活介護】熊本県葦北郡芦北町大字芦北２５９２－１", "url": "https://www.kaigokensaku.mhlw.go.jp/43/index.php?action_kouhyou_detail_004_kani=true&JigyosyoCd=4393000072-00&ServiceCd=320&Type=search", "url2": null }, "geometry": { "type": "Point", "coordinates": [ 130.4939306, 32.2957444 ] } },
{ "type": "Feature", "properties": { "内容": "紫おん福祉の家【認知症対応型共同生活介護】熊本県葦北郡芦北町鶴木山１２８８－５紫おん福祉の家", "url": "https://www.kaigokensaku.mhlw.go.jp/43/index.php?action_kouhyou_detail_004_kani=true&JigyosyoCd=4373000431-00&ServiceCd=320&Type=search", "url2": "shionfukushi@gmairu.com" }, "geometry": { "type": "Point", "coordinates": [ 130.4725899, 32.3184084 ] } },
{ "type": "Feature", "properties": { "内容": "グループホームつわぶき【認知症対応型共同生活介護】熊本県葦北郡芦北町大字湯浦1505番地１", "url": "https://www.kaigokensaku.mhlw.go.jp/43/index.php?action_kouhyou_detail_004_kani=true&JigyosyoCd=4373000589-00&ServiceCd=320&Type=search", "url2": "ghtuwabuki@fsint.or.jp" }, "geometry": { "type": "Point", "coordinates": [ 130.496995199999986, 32.27977379999998 ] } },
{ "type": "Feature", "properties": { "内容": "グループホーム　たのうらそう【認知症対応型共同生活介護】熊本県葦北郡芦北町大字田浦町822番地3", "url": "https://www.kaigokensaku.mhlw.go.jp/43/index.php?action_kouhyou_detail_004_kani=true&JigyosyoCd=4373000688-00&ServiceCd=320&Type=search", "url2": null }, "geometry": { "type": "Point", "coordinates": [ 130.503260400000045, 32.3636075 ] } },
{ "type": "Feature", "properties": { "内容": "グループホームあけぼの【認知症対応型共同生活介護】熊本県葦北郡津奈木町大字岩城484-1", "url": "https://www.kaigokensaku.mhlw.go.jp/43/index.php?action_kouhyou_detail_004_kani=true&JigyosyoCd=4373000621-00&ServiceCd=320&Type=search", "url2": "ａｋｅｂｏｎｏｅｎ．ｏｒ．ｊｐ" }, "geometry": { "type": "Point", "coordinates": [ 130.460333799999944, 32.2317753 ] } },
{ "type": "Feature", "properties": { "内容": "グループホーム　りんごの里【認知症対応型共同生活介護】大字小津奈木2120-62", "url": "https://www.kaigokensaku.mhlw.go.jp/43/index.php?action_kouhyou_detail_004_kani=true&JigyosyoCd=4393000106-00&ServiceCd=320&Type=search", "url2": "https://tunaginosato.wixsite.com/koueikai" }, "geometry": { "type": "Point", "coordinates": [ 130.436897234449361, 32.230935672013459 ] } },
{ "type": "Feature", "properties": { "内容": "グループホームつなぎの憩【認知症対応型共同生活介護】熊本県葦北郡津奈木町大字小津奈木2120番59", "url": "https://www.kaigokensaku.mhlw.go.jp/43/index.php?action_kouhyou_detail_004_kani=true&JigyosyoCd=4393000130-00&ServiceCd=320&Type=search", "url2": "https://www.frontier-gp.jp/" }, "geometry": { "type": "Point", "coordinates": [ 130.4365874, 32.2315533 ] } },
{ "type": "Feature", "properties": { "内容": "グループホーム　やすらぎの里にしき【認知症対応型共同生活介護】熊本県球磨郡錦町西１４１", "url": "https://www.kaigokensaku.mhlw.go.jp/43/index.php?action_kouhyou_detail_004_kani=true&JigyosyoCd=4373100835-00&ServiceCd=320&Type=search", "url2": null }, "geometry": { "type": "Point", "coordinates": [ 130.784457050262517, 32.197635294529839 ] } },
{ "type": "Feature", "properties": { "内容": "にしき園グループホーム【認知症対応型共同生活介護】熊本県球磨郡錦町大字西70番地", "url": "https://www.kaigokensaku.mhlw.go.jp/43/index.php?action_kouhyou_detail_004_kani=true&JigyosyoCd=4373101015-00&ServiceCd=320&Type=search", "url2": "nishikien.com" }, "geometry": { "type": "Point", "coordinates": [ 130.828637699999945, 32.193908 ] } },
{ "type": "Feature", "properties": { "内容": "グループホーム　若葉園【認知症対応型共同生活介護】熊本県球磨郡多良木町多良木1537", "url": "https://www.kaigokensaku.mhlw.go.jp/43/index.php?action_kouhyou_detail_004_kani=true&JigyosyoCd=4393100013-00&ServiceCd=320&Type=search", "url2": null }, "geometry": { "type": "Point", "coordinates": [ 130.931742399999962, 32.2628918 ] } },
{ "type": "Feature", "properties": { "内容": "グループホーム花みずき【認知症対応型共同生活介護】熊本県球磨郡多良木町久米1325番地", "url": "https://www.kaigokensaku.mhlw.go.jp/43/index.php?action_kouhyou_detail_004_kani=true&JigyosyoCd=4393100179-00&ServiceCd=320&Type=search", "url2": "http：//hanamizuki.taragi.jp" }, "geometry": { "type": "Point", "coordinates": [ 130.959115399999973, 32.2510909 ] } },
{ "type": "Feature", "properties": { "内容": "グループホーム　桜の里【認知症対応型共同生活介護】熊本県球磨郡水上村大字岩野2658番地１", "url": "https://www.kaigokensaku.mhlw.go.jp/43/index.php?action_kouhyou_detail_004_kani=true&JigyosyoCd=4393100021-00&ServiceCd=320&Type=search", "url2": "http://oyakuen-ｇ.or.jp" }, "geometry": { "type": "Point", "coordinates": [ 130.985389925611912, 32.294174513260273 ] } },
{ "type": "Feature", "properties": { "内容": "グループホーム　やすらぎの里さがら【認知症対応型共同生活介護】熊本県球磨郡相良村柳瀬973番地グループホームやすらぎの里さがら", "url": "https://www.kaigokensaku.mhlw.go.jp/43/index.php?action_kouhyou_detail_004_kani=true&JigyosyoCd=4393100211-00&ServiceCd=320&Type=search", "url2": null }, "geometry": { "type": "Point", "coordinates": [ 130.79982050000001, 32.2103517 ] } },
{ "type": "Feature", "properties": { "内容": "グループホーム　えがお【認知症対応型共同生活介護】熊本県球磨郡あさぎり町免田西字黒田2195番地1", "url": "https://www.kaigokensaku.mhlw.go.jp/43/index.php?action_kouhyou_detail_004_kani=true&JigyosyoCd=4373101023-00&ServiceCd=320&Type=search", "url2": "http://egao-care.net" }, "geometry": { "type": "Point", "coordinates": [ 130.8782119, 32.2261897 ] } },
{ "type": "Feature", "properties": { "内容": "ＪＡくま　福祉の里　グループホーム　木綿葉【認知症対応型共同生活介護】熊本県球磨郡あさぎり町須恵覚井828番地", "url": "https://www.kaigokensaku.mhlw.go.jp/43/index.php?action_kouhyou_detail_004_kani=true&JigyosyoCd=4393100088-00&ServiceCd=320&Type=search", "url2": null }, "geometry": { "type": "Point", "coordinates": [ 130.898903045754992, 32.258651382858545 ] } },
{ "type": "Feature", "properties": { "内容": "グループホーム菜の花苓北【認知症対応型共同生活介護】熊本県天草郡苓北町志岐１５１－１", "url": "https://www.kaigokensaku.mhlw.go.jp/43/index.php?action_kouhyou_detail_004_kani=true&JigyosyoCd=4393200029-00&ServiceCd=320&Type=search", "url2": "nanohana-group.net" }, "geometry": { "type": "Point", "coordinates": [ 130.0507682, 32.5127925 ] } },
{ "type": "Feature", "properties": { "内容": "グループホームひまわり【認知症対応型共同生活介護】熊本県天草郡苓北町志岐1051-3番地グループホームひまわり", "url": "https://www.kaigokensaku.mhlw.go.jp/43/index.php?action_kouhyou_detail_004_kani=true&JigyosyoCd=4393200052-00&ServiceCd=320&Type=search", "url2": null }, "geometry": { "type": "Point", "coordinates": [ 130.051079299999969, 32.5126453 ] } }
]
}
