{
"type": "FeatureCollection",
"name": "geo_43_特定施設入居者生活介護（有料老人ホーム（サービス付き高齢者向け住宅））",
"crs": { "type": "name", "properties": { "name": "urn:ogc:def:crs:OGC:1.3:CRS84" } },
"features": [
{ "type": "Feature", "properties": { "内容": "特定施設シルバーピアグランド通り【特定施設入居者生活介護（有料老人ホーム（サービス付き高齢者向け住宅））】熊本県熊本市中央区上水前寺１丁目6番5号", "url": "https://www.kaigokensaku.mhlw.go.jp/43/index.php?action_kouhyou_detail_004_kani=true&JigyosyoCd=4370108906-00&ServiceCd=&Type=search", "url2": "http://www.tohya.or.jp" }, "geometry": { "type": "Point", "coordinates": [ 130.742930456344538, 32.794293471717175 ] } },
{ "type": "Feature", "properties": { "内容": "ファインヴィレッジ【特定施設入居者生活介護（有料老人ホーム（サービス付き高齢者向け住宅））】熊本県熊本市中央区黒髪６丁目３１-２", "url": "https://www.kaigokensaku.mhlw.go.jp/43/index.php?action_kouhyou_detail_004_kani=true&JigyosyoCd=4370110621-00&ServiceCd=&Type=search", "url2": null }, "geometry": { "type": "Point", "coordinates": [ 130.739519800000039, 32.8188049 ] } },
{ "type": "Feature", "properties": { "内容": "サービス付き高齢者向け住宅さくら咲く特定施設入居者生活介護事業所【特定施設入居者生活介護（有料老人ホーム（サービス付き高齢者向け住宅））】熊本県熊本市東区石原2丁目4番1号サービス付き高齢者向け住宅さくら咲く特定施設入居者生活介護事業所", "url": "https://www.kaigokensaku.mhlw.go.jp/43/index.php?action_kouhyou_detail_004_kani=true&JigyosyoCd=4370114177-00&ServiceCd=&Type=search", "url2": "http://hougakuen.com" }, "geometry": { "type": "Point", "coordinates": [ 130.781112, 32.8415509 ] } },
{ "type": "Feature", "properties": { "内容": "シエスタ錦ケ丘【特定施設入居者生活介護（有料老人ホーム（サービス付き高齢者向け住宅））】熊本県熊本市東区錦ケ丘26番11号", "url": "https://www.kaigokensaku.mhlw.go.jp/43/index.php?action_kouhyou_detail_004_kani=true&JigyosyoCd=4370108070-00&ServiceCd=&Type=search", "url2": "http://yushin-wel.jp/" }, "geometry": { "type": "Point", "coordinates": [ 130.75858310000001, 32.7915269 ] } },
{ "type": "Feature", "properties": { "内容": "サンセリテ月出【特定施設入居者生活介護（有料老人ホーム（サービス付き高齢者向け住宅））】熊本県熊本市東区月出2丁目4-23サンセリテ月出", "url": "https://www.kaigokensaku.mhlw.go.jp/43/index.php?action_kouhyou_detail_004_kani=true&JigyosyoCd=4370108575-00&ServiceCd=&Type=search", "url2": "http:/vansay.jp/zaitaku/sincerite/" }, "geometry": { "type": "Point", "coordinates": [ 130.762555, 32.8035926 ] } },
{ "type": "Feature", "properties": { "内容": "ココファン尾ノ上【特定施設入居者生活介護（有料老人ホーム（サービス付き高齢者向け住宅））】熊本県熊本市東区尾ノ上１丁目２５－３０", "url": "https://www.kaigokensaku.mhlw.go.jp/43/index.php?action_kouhyou_detail_004_kani=true&JigyosyoCd=4370115646-00&ServiceCd=&Type=search", "url2": "https://www.cocofump.co.jp/" }, "geometry": { "type": "Point", "coordinates": [ 130.752402600000011, 32.7910143 ] } },
{ "type": "Feature", "properties": { "内容": "ファインテラスせいじの【特定施設入居者生活介護（有料老人ホーム（サービス付き高齢者向け住宅））】熊本市西区島崎2丁目11-13", "url": "https://www.kaigokensaku.mhlw.go.jp/43/index.php?action_kouhyou_detail_004_kani=true&JigyosyoCd=4370108260-00&ServiceCd=&Type=search", "url2": "https://www.seijino.or.jp/" }, "geometry": { "type": "Point", "coordinates": [ 130.690703799999937, 32.8094659 ] } },
{ "type": "Feature", "properties": { "内容": "なでしこガーデン上熊本【特定施設入居者生活介護（有料老人ホーム（サービス付き高齢者向け住宅））】上熊本2丁目15番24号なでしこガーデン上熊本", "url": "https://www.kaigokensaku.mhlw.go.jp/43/index.php?action_kouhyou_detail_004_kani=true&JigyosyoCd=4370112908-00&ServiceCd=&Type=search", "url2": "http://ｗｗｗ.n-gk.net/" }, "geometry": { "type": "Point", "coordinates": [ 130.69996679999997, 32.8136464 ] } },
{ "type": "Feature", "properties": { "内容": "サービス付き高齢者向け住宅（特定施設）ホスピタウンハウス【特定施設入居者生活介護（有料老人ホーム（サービス付き高齢者向け住宅））】熊本県熊本市南区富合町古閑１０１２番地", "url": "https://www.kaigokensaku.mhlw.go.jp/43/index.php?action_kouhyou_detail_004_kani=true&JigyosyoCd=4370110217-00&ServiceCd=&Type=search", "url2": "http://www.nishikuma.com/" }, "geometry": { "type": "Point", "coordinates": [ 130.675609309786978, 32.709772106950965 ] } },
{ "type": "Feature", "properties": { "内容": "ホスピタルメント桜十字【特定施設入居者生活介護（有料老人ホーム（サービス付き高齢者向け住宅））】熊本市南区御幸笛田7丁目13-21ホスピタルメント桜十字", "url": "https://www.kaigokensaku.mhlw.go.jp/43/index.php?action_kouhyou_detail_004_kani=true&JigyosyoCd=4370107098-00&ServiceCd=&Type=search", "url2": "http://www.hospitalment.co.jp" }, "geometry": { "type": "Point", "coordinates": [ 130.715428300000013, 32.7554021 ] } },
{ "type": "Feature", "properties": { "内容": "サービス付高齢者向け住宅　きらり舞原【特定施設入居者生活介護（有料老人ホーム（サービス付き高齢者向け住宅））】熊本県熊本市南区城南町舞原三和原1416番1", "url": "https://www.kaigokensaku.mhlw.go.jp/43/index.php?action_kouhyou_detail_004_kani=true&JigyosyoCd=4372301400-00&ServiceCd=&Type=search", "url2": null }, "geometry": { "type": "Point", "coordinates": [ 130.751021218857801, 32.715288645372702 ] } },
{ "type": "Feature", "properties": { "内容": "熊本市北区植木町滴水212【特定施設入居者生活介護（有料老人ホーム（サービス付き高齢者向け住宅））】熊本県熊本市北区植木町滴水212", "url": "https://www.kaigokensaku.mhlw.go.jp/43/index.php?action_kouhyou_detail_004_kani=true&JigyosyoCd=4370115497-00&ServiceCd=&Type=search", "url2": "http://annonnosato.com" }, "geometry": { "type": "Point", "coordinates": [ 130.6869763, 32.8906059 ] } },
{ "type": "Feature", "properties": { "内容": "八景水谷昭和館【特定施設入居者生活介護（有料老人ホーム（サービス付き高齢者向け住宅））】熊本市北区山室４丁目９－３０高齢者複合支援施設　八景水谷昭和館", "url": "https://www.kaigokensaku.mhlw.go.jp/43/index.php?action_kouhyou_detail_004_kani=true&JigyosyoCd=4370109391-00&ServiceCd=&Type=search", "url2": "http://www.syowakan.jp" }, "geometry": { "type": "Point", "coordinates": [ 130.720434399999931, 32.8419222 ] } },
{ "type": "Feature", "properties": { "内容": "ブロッサムやつしろⅢ【特定施設入居者生活介護（有料老人ホーム（サービス付き高齢者向け住宅））】熊本県八代市郡築三番町81-2", "url": "https://www.kaigokensaku.mhlw.go.jp/43/index.php?action_kouhyou_detail_004_kani=true&JigyosyoCd=4370203004-00&ServiceCd=&Type=search", "url2": "http://hc-b.com" }, "geometry": { "type": "Point", "coordinates": [ 130.567931829505596, 32.52437089441306 ] } },
{ "type": "Feature", "properties": { "内容": "特定施設入居者生活介護つどい（サービス付き高齢者向け住宅）【特定施設入居者生活介護（有料老人ホーム（サービス付き高齢者向け住宅））】熊本県阿蘇市小池9番地", "url": "https://www.kaigokensaku.mhlw.go.jp/43/index.php?action_kouhyou_detail_004_kani=true&JigyosyoCd=4371400385-00&ServiceCd=&Type=search", "url2": "http://tsudoi.main.jp" }, "geometry": { "type": "Point", "coordinates": [ 131.059235400000034, 32.972721 ] } },
{ "type": "Feature", "properties": { "内容": "特定施設入居者生活介護はあとふる【特定施設入居者生活介護（有料老人ホーム（サービス付き高齢者向け住宅））】熊本県上益城郡山都町馬見原791-4", "url": "https://www.kaigokensaku.mhlw.go.jp/43/index.php?action_kouhyou_detail_004_kani=true&JigyosyoCd=4372802274-00&ServiceCd=&Type=search", "url2": "https://kyousei2011.co.jp/" }, "geometry": { "type": "Point", "coordinates": [ 131.1602665, 32.6824577 ] } },
{ "type": "Feature", "properties": { "内容": "ひまわりの里【特定施設入居者生活介護（有料老人ホーム（サービス付き高齢者向け住宅））】熊本県球磨郡錦町一武２１３０番地の１", "url": "https://www.kaigokensaku.mhlw.go.jp/43/index.php?action_kouhyou_detail_004_kani=true&JigyosyoCd=4373101171-00&ServiceCd=&Type=search", "url2": "http://www.himawari-nishiki.com/" }, "geometry": { "type": "Point", "coordinates": [ 130.8484727, 32.2034272 ] } },
{ "type": "Feature", "properties": { "内容": "特定施設入居者生活介護そらまめ【特定施設入居者生活介護（有料老人ホーム（サービス付き高齢者向け住宅））】熊本県球磨郡あさぎり町岡原北1125番地", "url": "https://www.kaigokensaku.mhlw.go.jp/43/index.php?action_kouhyou_detail_004_kani=true&JigyosyoCd=4373101163-00&ServiceCd=&Type=search", "url2": "http://soradon.to-yo-kai.com/" }, "geometry": { "type": "Point", "coordinates": [ 130.930857100000026, 32.2379885 ] } }
]
}
