{
"type": "FeatureCollection",
"name": "geo_43_高校",
"crs": { "type": "name", "properties": { "name": "urn:ogc:def:crs:EPSG::6668" } },
"features": [
{ "type": "Feature", "properties": { "P29_001": "43101", "P29_002": "D143210000014", "P29_003": "16004", "P29_004": "熊本県立済々黌高等学校", "P29_005": "熊本県熊本市中央区黒髪2-22-1", "P29_006": "2", "P29_007": "0", "P29_008": "00", "P29_009": null }, "geometry": { "type": "Point", "coordinates": [ 130.722684890459675, 32.81773874218829 ] } },
{ "type": "Feature", "properties": { "P29_001": "43101", "P29_002": "D143210000023", "P29_003": "16004", "P29_004": "熊本県立熊本高等学校", "P29_005": "熊本県熊本市中央区新大江1-8", "P29_006": "2", "P29_007": "0", "P29_008": "00", "P29_009": null }, "geometry": { "type": "Point", "coordinates": [ 130.729636707289529, 32.799498224234654 ] } },
{ "type": "Feature", "properties": { "P29_001": "43101", "P29_002": "D143210000032", "P29_003": "16004", "P29_004": "熊本県立第一高等学校", "P29_005": "熊本県熊本市中央区古城町3-1", "P29_006": "2", "P29_007": "0", "P29_008": "00", "P29_009": null }, "geometry": { "type": "Point", "coordinates": [ 130.700020030254365, 32.801197188000614 ] } },
{ "type": "Feature", "properties": { "P29_001": "43102", "P29_002": "D143210000041", "P29_003": "16004", "P29_004": "熊本県立第二高等学校", "P29_005": "熊本県熊本市東区東町3-13-1", "P29_006": "2", "P29_007": "0", "P29_008": "00", "P29_009": null }, "geometry": { "type": "Point", "coordinates": [ 130.766838110292014, 32.781703613047334 ] } },
{ "type": "Feature", "properties": { "P29_001": "43101", "P29_002": "D143210000050", "P29_003": "16004", "P29_004": "熊本県立熊本商業高等学校", "P29_005": "熊本県熊本市中央区神水1-1-2", "P29_006": "2", "P29_007": "0", "P29_008": "00", "P29_009": null }, "geometry": { "type": "Point", "coordinates": [ 130.739832422346836, 32.786596759004333 ] } },
{ "type": "Feature", "properties": { "P29_001": "43101", "P29_002": "D143210000069", "P29_003": "16004", "P29_004": "熊本県立熊本工業高等学校", "P29_005": "熊本県熊本市中央区上京塚町5-1", "P29_006": "2", "P29_007": "0", "P29_008": "00", "P29_009": null }, "geometry": { "type": "Point", "coordinates": [ 130.747269105165344, 32.792040876479177 ] } },
{ "type": "Feature", "properties": { "P29_001": "43104", "P29_002": "D143210000078", "P29_003": "16004", "P29_004": "熊本県立熊本農業高等学校", "P29_005": "熊本県熊本市南区元三町5-1-1", "P29_006": "2", "P29_007": "0", "P29_008": "00", "P29_009": null }, "geometry": { "type": "Point", "coordinates": [ 130.694520739779392, 32.743738404171815 ] } },
{ "type": "Feature", "properties": { "P29_001": "43101", "P29_002": "D143210000087", "P29_003": "16004", "P29_004": "熊本市立必由館高等学校", "P29_005": "熊本県熊本市中央区坪井4-15-1", "P29_006": "3", "P29_007": "0", "P29_008": "00", "P29_009": null }, "geometry": { "type": "Point", "coordinates": [ 130.713382967766393, 32.81643363666722 ] } },
{ "type": "Feature", "properties": { "P29_001": "43103", "P29_002": "D143210000096", "P29_003": "16004", "P29_004": "熊本市立千原台高等学校", "P29_005": "熊本県熊本市西区島崎2-37-1", "P29_006": "3", "P29_007": "0", "P29_008": "00", "P29_009": null }, "geometry": { "type": "Point", "coordinates": [ 130.686783106851095, 32.80614938811761 ] } },
{ "type": "Feature", "properties": { "P29_001": "43202", "P29_002": "D143210000103", "P29_003": "16004", "P29_004": "熊本県立八代高等学校", "P29_005": "熊本県八代市永碇町856", "P29_006": "2", "P29_007": "0", "P29_008": "00", "P29_009": null }, "geometry": { "type": "Point", "coordinates": [ 130.597077910451333, 32.519523686462271 ] } },
{ "type": "Feature", "properties": { "P29_001": "43202", "P29_002": "D143210000112", "P29_003": "16004", "P29_004": "熊本県立八代東高等学校", "P29_005": "熊本県八代市鷹辻町4-2", "P29_006": "2", "P29_007": "0", "P29_008": "00", "P29_009": null }, "geometry": { "type": "Point", "coordinates": [ 130.603305725081754, 32.51048864655673 ] } },
{ "type": "Feature", "properties": { "P29_001": "43202", "P29_002": "D143210000121", "P29_003": "16004", "P29_004": "熊本県立八代工業高等学校", "P29_005": "熊本県八代市大福寺町473", "P29_006": "2", "P29_007": "0", "P29_008": "00", "P29_009": null }, "geometry": { "type": "Point", "coordinates": [ 130.605927414462883, 32.487008146949044 ] } },
{ "type": "Feature", "properties": { "P29_001": "43203", "P29_002": "D143210000130", "P29_003": "16004", "P29_004": "熊本県立人吉高等学校", "P29_005": "熊本県人吉市北泉田町350", "P29_006": "2", "P29_007": "0", "P29_008": "00", "P29_009": null }, "geometry": { "type": "Point", "coordinates": [ 130.767900139461602, 32.220342515297794 ] } },
{ "type": "Feature", "properties": { "P29_001": "43203", "P29_002": "D143210000149", "P29_003": "16004", "P29_004": "熊本県立球磨工業高等学校", "P29_005": "熊本県人吉市城本町800", "P29_006": "2", "P29_007": "0", "P29_008": "00", "P29_009": null }, "geometry": { "type": "Point", "coordinates": [ 130.752499720928569, 32.21927259756994 ] } },
{ "type": "Feature", "properties": { "P29_001": "43206", "P29_002": "D143210000158", "P29_003": "16004", "P29_004": "熊本県立玉名高等学校", "P29_005": "熊本県玉名市中1853", "P29_006": "2", "P29_007": "0", "P29_008": "00", "P29_009": null }, "geometry": { "type": "Point", "coordinates": [ 130.548650085448458, 32.930975599381604 ] } },
{ "type": "Feature", "properties": { "P29_001": "43206", "P29_002": "D143210000167", "P29_003": "16004", "P29_004": "熊本県立北稜高等学校", "P29_005": "熊本県玉名市立願寺247", "P29_006": "2", "P29_007": "0", "P29_008": "00", "P29_009": null }, "geometry": { "type": "Point", "coordinates": [ 130.550261571572605, 32.935530578781716 ] } },
{ "type": "Feature", "properties": { "P29_001": "43215", "P29_002": "D143210000176", "P29_003": "16004", "P29_004": "熊本県立天草高等学校", "P29_005": "熊本県天草市本渡町本渡557", "P29_006": "2", "P29_007": "0", "P29_008": "00", "P29_009": null }, "geometry": { "type": "Point", "coordinates": [ 130.182095148052611, 32.456855944415622 ] } },
{ "type": "Feature", "properties": { "P29_001": "43215", "P29_002": "D143210000185", "P29_003": "16004", "P29_004": "熊本県立天草高等学校倉岳校", "P29_005": "熊本県天草市倉岳町棚底2680-2", "P29_006": "2", "P29_007": "0", "P29_008": "00", "P29_009": null }, "geometry": { "type": "Point", "coordinates": [ 130.334008675701966, 32.405380339433322 ] } },
{ "type": "Feature", "properties": { "P29_001": "43215", "P29_002": "D143210000194", "P29_003": "16004", "P29_004": "熊本県立天草工業高等学校", "P29_005": "熊本県天草市亀場町亀川38-36", "P29_006": "2", "P29_007": "0", "P29_008": "00", "P29_009": null }, "geometry": { "type": "Point", "coordinates": [ 130.202515244061033, 32.446435883790649 ] } },
{ "type": "Feature", "properties": { "P29_001": "43210", "P29_002": "D143210000201", "P29_003": "16004", "P29_004": "熊本県立菊池高等学校", "P29_005": "熊本県菊池市隈府1332-1", "P29_006": "2", "P29_007": "0", "P29_008": "00", "P29_009": null }, "geometry": { "type": "Point", "coordinates": [ 130.811476508203953, 32.986128307629457 ] } },
{ "type": "Feature", "properties": { "P29_001": "43211", "P29_002": "D143210000210", "P29_003": "16004", "P29_004": "熊本県立宇土高等学校", "P29_005": "熊本県宇土市古城町63", "P29_006": "2", "P29_007": "0", "P29_008": "00", "P29_009": null }, "geometry": { "type": "Point", "coordinates": [ 130.655115959150464, 32.680430840782243 ] } },
{ "type": "Feature", "properties": { "P29_001": "43208", "P29_002": "D143210000229", "P29_003": "16004", "P29_004": "熊本県立鹿本高等学校", "P29_005": "熊本県山鹿市鹿校通3-5-1", "P29_006": "2", "P29_007": "0", "P29_008": "00", "P29_009": null }, "geometry": { "type": "Point", "coordinates": [ 130.710193306994228, 33.011264470588124 ] } },
{ "type": "Feature", "properties": { "P29_001": "43213", "P29_002": "D143210000238", "P29_003": "16004", "P29_004": "熊本県立松橋高等学校", "P29_005": "熊本県宇城市松橋町久具300", "P29_006": "2", "P29_007": "0", "P29_008": "00", "P29_009": null }, "geometry": { "type": "Point", "coordinates": [ 130.685777022973355, 32.647012729159172 ] } },
{ "type": "Feature", "properties": { "P29_001": "43206", "P29_002": "D143210000247", "P29_003": "16004", "P29_004": "熊本県立玉名工業高等学校", "P29_005": "熊本県玉名市岱明町下前原368", "P29_006": "2", "P29_007": "0", "P29_008": "00", "P29_009": null }, "geometry": { "type": "Point", "coordinates": [ 130.526191004957184, 32.928430607550631 ] } },
{ "type": "Feature", "properties": { "P29_001": "43208", "P29_002": "D143210000256", "P29_003": "16004", "P29_004": "熊本県立鹿本農業高等学校", "P29_005": "熊本県山鹿市鹿本町来民2055", "P29_006": "2", "P29_007": "0", "P29_008": "00", "P29_009": null }, "geometry": { "type": "Point", "coordinates": [ 130.725304477273454, 32.997829662166609 ] } },
{ "type": "Feature", "properties": { "P29_001": "43210", "P29_002": "D143210000265", "P29_003": "16004", "P29_004": "熊本県立菊池農業高等学校", "P29_005": "熊本県菊池市泗水町吉富250", "P29_006": "2", "P29_007": "0", "P29_008": "00", "P29_009": null }, "geometry": { "type": "Point", "coordinates": [ 130.789428811507236, 32.941515954727933 ] } },
{ "type": "Feature", "properties": { "P29_001": "43403", "P29_002": "D143210000274", "P29_003": "16004", "P29_004": "熊本県立大津高等学校", "P29_005": "熊本県菊池郡大津町大津1340", "P29_006": "2", "P29_007": "0", "P29_008": "00", "P29_009": null }, "geometry": { "type": "Point", "coordinates": [ 130.872191565586775, 32.873275210953281 ] } },
{ "type": "Feature", "properties": { "P29_001": "43403", "P29_002": "D143210000283", "P29_003": "16004", "P29_004": "熊本県立翔陽高等学校", "P29_005": "熊本県菊池郡大津町室1782", "P29_006": "2", "P29_007": "0", "P29_008": "00", "P29_009": null }, "geometry": { "type": "Point", "coordinates": [ 130.860901173304342, 32.885562121875608 ] } },
{ "type": "Feature", "properties": { "P29_001": "43424", "P29_002": "D143210000292", "P29_003": "16004", "P29_004": "熊本県立小国高等学校", "P29_005": "熊本県阿蘇郡小国町宮原1887-1", "P29_006": "2", "P29_007": "0", "P29_008": "00", "P29_009": null }, "geometry": { "type": "Point", "coordinates": [ 131.061416338392604, 33.119288986322864 ] } },
{ "type": "Feature", "properties": { "P29_001": "43428", "P29_002": "D143210000309", "P29_003": "16004", "P29_004": "熊本県立高森高等学校", "P29_005": "熊本県阿蘇郡高森町高森1557", "P29_006": "2", "P29_007": "0", "P29_008": "00", "P29_009": null }, "geometry": { "type": "Point", "coordinates": [ 131.124962018550832, 32.820826525691572 ] } },
{ "type": "Feature", "properties": { "P29_001": "43441", "P29_002": "D143210000318", "P29_003": "16004", "P29_004": "熊本県立御船高等学校", "P29_005": "熊本県上益城郡御船町木倉1253", "P29_006": "2", "P29_007": "0", "P29_008": "00", "P29_009": null }, "geometry": { "type": "Point", "coordinates": [ 130.805241339356684, 32.715266251420289 ] } },
{ "type": "Feature", "properties": { "P29_001": "43444", "P29_002": "D143210000327", "P29_003": "16004", "P29_004": "熊本県立甲佐高等学校", "P29_005": "熊本県上益城郡甲佐町横田327", "P29_006": "2", "P29_007": "0", "P29_008": "00", "P29_009": null }, "geometry": { "type": "Point", "coordinates": [ 130.81017494406322, 32.657364578073683 ] } },
{ "type": "Feature", "properties": { "P29_001": "43202", "P29_002": "D143210000336", "P29_003": "16004", "P29_004": "熊本県立八代農業高等学校", "P29_005": "熊本県八代市鏡町鏡村129", "P29_006": "2", "P29_007": "0", "P29_008": "00", "P29_009": null }, "geometry": { "type": "Point", "coordinates": [ 130.660994142424471, 32.564846956693181 ] } },
{ "type": "Feature", "properties": { "P29_001": "43202", "P29_002": "D143210000345", "P29_003": "16004", "P29_004": "熊本県立八代農業高等学校泉分校", "P29_005": "熊本県八代市泉町柿迫3636", "P29_006": "2", "P29_007": "0", "P29_008": "00", "P29_009": null }, "geometry": { "type": "Point", "coordinates": [ 130.820417056191047, 32.541387637624076 ] } },
{ "type": "Feature", "properties": { "P29_001": "43482", "P29_002": "D143210000354", "P29_003": "16004", "P29_004": "熊本県立芦北高等学校", "P29_005": "熊本県葦北郡芦北町乙千屋20-2", "P29_006": "2", "P29_007": "0", "P29_008": "00", "P29_009": null }, "geometry": { "type": "Point", "coordinates": [ 130.507007822441125, 32.307354852645844 ] } },
{ "type": "Feature", "properties": { "P29_001": "43208", "P29_002": "D143210000363", "P29_003": "16004", "P29_004": "熊本県立鹿本商工高等学校", "P29_005": "熊本県山鹿市鹿本町御宇田312", "P29_006": "2", "P29_007": "0", "P29_008": "00", "P29_009": null }, "geometry": { "type": "Point", "coordinates": [ 130.729813158494125, 33.000871245100114 ] } },
{ "type": "Feature", "properties": { "P29_001": "43511", "P29_002": "D143210000372", "P29_003": "16004", "P29_004": "熊本県立人吉高等学校五木分校", "P29_005": "熊本県球磨郡五木村甲2672-61", "P29_006": "2", "P29_007": "0", "P29_008": "00", "P29_009": null }, "geometry": { "type": "Point", "coordinates": [ 130.825975432646032, 32.398600078284396 ] } },
{ "type": "Feature", "properties": { "P29_001": "43213", "P29_002": "D143210000381", "P29_003": "16004", "P29_004": "熊本県立小川工業高等学校", "P29_005": "熊本県宇城市小川町北新田770", "P29_006": "2", "P29_007": "0", "P29_008": "00", "P29_009": null }, "geometry": { "type": "Point", "coordinates": [ 130.697692203615532, 32.604891076431031 ] } },
{ "type": "Feature", "properties": { "P29_001": "43103", "P29_002": "D143210000390", "P29_003": "16004", "P29_004": "熊本県立熊本西高等学校", "P29_005": "熊本県熊本市西区城山大塘5-5-15", "P29_006": "2", "P29_007": "0", "P29_008": "00", "P29_009": null }, "geometry": { "type": "Point", "coordinates": [ 130.648993178206979, 32.782521937352236 ] } },
{ "type": "Feature", "properties": { "P29_001": "43101", "P29_002": "D143210000407", "P29_003": "16004", "P29_004": "熊本県立湧心館高等学校", "P29_005": "熊本県熊本市中央区出水4-1-2", "P29_006": "2", "P29_007": "0", "P29_008": "00", "P29_009": null }, "geometry": { "type": "Point", "coordinates": [ 130.730958342596239, 32.781196546558263 ] } },
{ "type": "Feature", "properties": { "P29_001": "43105", "P29_002": "D143210000416", "P29_003": "16004", "P29_004": "熊本県立熊本北高等学校", "P29_005": "熊本県熊本市北区兎谷3-5-1", "P29_006": "2", "P29_007": "0", "P29_008": "00", "P29_009": null }, "geometry": { "type": "Point", "coordinates": [ 130.74710347791418, 32.841109044721819 ] } },
{ "type": "Feature", "properties": { "P29_001": "43102", "P29_002": "D143210000425", "P29_003": "16004", "P29_004": "熊本県立東稜高等学校", "P29_005": "熊本県熊本市東区小峯4-5-10", "P29_006": "2", "P29_007": "0", "P29_008": "00", "P29_009": null }, "geometry": { "type": "Point", "coordinates": [ 130.778205859155833, 32.799317150303558 ] } },
{ "type": "Feature", "properties": { "P29_001": "43214", "P29_002": "D143210000434", "P29_003": "16004", "P29_004": "熊本県立阿蘇中央高等学校", "P29_005": "熊本県阿蘇市一の宮町宮地2460", "P29_006": "2", "P29_007": "0", "P29_008": "00", "P29_009": null }, "geometry": { "type": "Point", "coordinates": [ 131.113898495502156, 32.941582219330826 ] } },
{ "type": "Feature", "properties": { "P29_001": "43212", "P29_002": "D143210000443", "P29_003": "16004", "P29_004": "熊本県立上天草高等学校", "P29_005": "熊本県上天草市大矢野町中5424", "P29_006": "2", "P29_007": "0", "P29_008": "00", "P29_009": null }, "geometry": { "type": "Point", "coordinates": [ 130.441941091751914, 32.567447606465109 ] } },
{ "type": "Feature", "properties": { "P29_001": "43447", "P29_002": "D143210000452", "P29_003": "16004", "P29_004": "熊本県立矢部高等学校", "P29_005": "熊本県上益城郡山都町城平954", "P29_006": "2", "P29_007": "0", "P29_008": "00", "P29_009": null }, "geometry": { "type": "Point", "coordinates": [ 130.994816406278488, 32.68731026173608 ] } },
{ "type": "Feature", "properties": { "P29_001": "43202", "P29_002": "D143210000461", "P29_003": "16004", "P29_004": "熊本県立八代清流高等学校", "P29_005": "熊本県八代市渡町松上1576", "P29_006": "2", "P29_007": "0", "P29_008": "00", "P29_009": null }, "geometry": { "type": "Point", "coordinates": [ 130.624824520624031, 32.491340253487273 ] } },
{ "type": "Feature", "properties": { "P29_001": "43205", "P29_002": "D143210000470", "P29_003": "16004", "P29_004": "熊本県立水俣高等学校", "P29_005": "熊本県水俣市洗切町11-1", "P29_006": "2", "P29_007": "0", "P29_008": "00", "P29_009": null }, "geometry": { "type": "Point", "coordinates": [ 130.40248192700605, 32.214434292667988 ] } },
{ "type": "Feature", "properties": { "P29_001": "43204", "P29_002": "D143210000489", "P29_003": "16004", "P29_004": "熊本県立岱志高等学校", "P29_005": "熊本県荒尾市荒尾2620-1", "P29_006": "2", "P29_007": "0", "P29_008": "00", "P29_009": null }, "geometry": { "type": "Point", "coordinates": [ 130.448129654985479, 32.977407509472847 ] } },
{ "type": "Feature", "properties": { "P29_001": "43215", "P29_002": "D143210000498", "P29_003": "16004", "P29_004": "熊本県立天草拓心高等学校", "P29_005": "熊本県天草市本渡町本戸馬場495", "P29_006": "2", "P29_007": "0", "P29_008": "00", "P29_009": null }, "geometry": { "type": "Point", "coordinates": [ 130.182901288192141, 32.468656852129769 ] } },
{ "type": "Feature", "properties": { "P29_001": "43215", "P29_002": "D143210000504", "P29_003": "16004", "P29_004": "熊本県立牛深高等学校", "P29_005": "熊本県天草市久玉町1216-5", "P29_006": "2", "P29_007": "0", "P29_008": "00", "P29_009": null }, "geometry": { "type": "Point", "coordinates": [ 130.029952602581261, 32.215601644748347 ] } },
{ "type": "Feature", "properties": { "P29_001": "43501", "P29_002": "D143210000513", "P29_003": "16004", "P29_004": "熊本県立球磨中央高等学校", "P29_005": "熊本県球磨郡錦町西192", "P29_006": "2", "P29_007": "0", "P29_008": "00", "P29_009": null }, "geometry": { "type": "Point", "coordinates": [ 130.808595293676348, 32.199991641350465 ] } },
{ "type": "Feature", "properties": { "P29_001": "43514", "P29_002": "D143210000522", "P29_003": "16004", "P29_004": "熊本県立南稜高等学校", "P29_005": "熊本県球磨郡あさぎり町上北310", "P29_006": "2", "P29_007": "0", "P29_008": "00", "P29_009": null }, "geometry": { "type": "Point", "coordinates": [ 130.896546537672833, 32.232959158115946 ] } },
{ "type": "Feature", "properties": { "P29_001": "43101", "P29_002": "D143310000012", "P29_003": "16004", "P29_004": "九州学院高等学校", "P29_005": "熊本県熊本市中央区大江5-2-1", "P29_006": "4", "P29_007": "0", "P29_008": "00", "P29_009": null }, "geometry": { "type": "Point", "coordinates": [ 130.721056916010895, 32.797798365364841 ] } },
{ "type": "Feature", "properties": { "P29_001": "43101", "P29_002": "D143310000021", "P29_003": "16004", "P29_004": "鎮西高等学校", "P29_005": "熊本県熊本市中央区九品寺3-1-1", "P29_006": "4", "P29_007": "0", "P29_008": "00", "P29_009": null }, "geometry": { "type": "Point", "coordinates": [ 130.719476560024248, 32.795952428397996 ] } },
{ "type": "Feature", "properties": { "P29_001": "43101", "P29_002": "D143310000030", "P29_003": "16004", "P29_004": "真和高等学校", "P29_005": "熊本県熊本市中央区九品寺3-1-1", "P29_006": "4", "P29_007": "0", "P29_008": "00", "P29_009": null }, "geometry": { "type": "Point", "coordinates": [ 130.719711622749486, 32.795619649435281 ] } },
{ "type": "Feature", "properties": { "P29_001": "43101", "P29_002": "D143310000049", "P29_003": "16004", "P29_004": "開新高等学校", "P29_005": "熊本県熊本市中央区大江6-1-33", "P29_006": "4", "P29_007": "0", "P29_008": "00", "P29_009": null }, "geometry": { "type": "Point", "coordinates": [ 130.725898536674805, 32.7994324033819 ] } },
{ "type": "Feature", "properties": { "P29_001": "43101", "P29_002": "D143310000058", "P29_003": "16004", "P29_004": "熊本学園大学付属高等学校", "P29_005": "熊本県熊本市中央区大江2-5-1", "P29_006": "4", "P29_007": "0", "P29_008": "00", "P29_009": null }, "geometry": { "type": "Point", "coordinates": [ 130.727310696729973, 32.805035083036309 ] } },
{ "type": "Feature", "properties": { "P29_001": "43102", "P29_002": "D143310000067", "P29_003": "16004", "P29_004": "東海大学付属熊本星翔高等学校", "P29_005": "熊本県熊本市東区渡鹿9-1-1", "P29_006": "4", "P29_007": "0", "P29_008": "00", "P29_009": null }, "geometry": { "type": "Point", "coordinates": [ 130.745247020802339, 32.812451839224757 ] } },
{ "type": "Feature", "properties": { "P29_001": "43101", "P29_002": "D143310000076", "P29_003": "16004", "P29_004": "尚絅高等学校", "P29_005": "熊本県熊本市中央区九品寺2-6-78", "P29_006": "4", "P29_007": "0", "P29_008": "00", "P29_009": null }, "geometry": { "type": "Point", "coordinates": [ 130.717560354477229, 32.797632527784202 ] } },
{ "type": "Feature", "properties": { "P29_001": "43101", "P29_002": "D143310000085", "P29_003": "16004", "P29_004": "慶誠高等学校", "P29_005": "熊本県熊本市中央区大江4-9-58", "P29_006": "4", "P29_007": "0", "P29_008": "00", "P29_009": null }, "geometry": { "type": "Point", "coordinates": [ 130.721334474950964, 32.799362390984456 ] } },
{ "type": "Feature", "properties": { "P29_001": "43101", "P29_002": "D143310000094", "P29_003": "16004", "P29_004": "熊本国府高等学校", "P29_005": "熊本県熊本市中央区国府2-15-1", "P29_006": "4", "P29_007": "0", "P29_008": "00", "P29_009": null }, "geometry": { "type": "Point", "coordinates": [ 130.728231957883679, 32.787792117029106 ] } },
{ "type": "Feature", "properties": { "P29_001": "43102", "P29_002": "D143310000101", "P29_003": "16004", "P29_004": "熊本マリスト学園高等学校", "P29_005": "熊本県熊本市東区健軍2-11-54", "P29_006": "4", "P29_007": "0", "P29_008": "00", "P29_009": null }, "geometry": { "type": "Point", "coordinates": [ 130.750543848266261, 32.783323299761939 ] } },
{ "type": "Feature", "properties": { "P29_001": "43101", "P29_002": "D143310000110", "P29_003": "16004", "P29_004": "ルーテル学院高等学校", "P29_005": "熊本県熊本市中央区黒髪3-12-16", "P29_006": "4", "P29_007": "0", "P29_008": "00", "P29_009": null }, "geometry": { "type": "Point", "coordinates": [ 130.722928378928088, 32.819768749830409 ] } },
{ "type": "Feature", "properties": { "P29_001": "43101", "P29_002": "D143310000129", "P29_003": "16004", "P29_004": "熊本信愛女学院高等学校", "P29_005": "熊本県熊本市中央区上林町3-18", "P29_006": "4", "P29_007": "0", "P29_008": "00", "P29_009": null }, "geometry": { "type": "Point", "coordinates": [ 130.711135003660985, 32.808259995960469 ] } },
{ "type": "Feature", "properties": { "P29_001": "43101", "P29_002": "D143310000138", "P29_003": "16004", "P29_004": "熊本中央高等学校", "P29_005": "熊本県熊本市中央区内坪井町4-8", "P29_006": "4", "P29_007": "0", "P29_008": "00", "P29_009": null }, "geometry": { "type": "Point", "coordinates": [ 130.708597171680537, 32.810478393364015 ] } },
{ "type": "Feature", "properties": { "P29_001": "43103", "P29_002": "D143310000147", "P29_003": "16004", "P29_004": "文徳高等学校", "P29_005": "熊本県熊本市西区池田4-22-2", "P29_006": "4", "P29_007": "0", "P29_008": "00", "P29_009": null }, "geometry": { "type": "Point", "coordinates": [ 130.695588518917219, 32.833553426797607 ] } },
{ "type": "Feature", "properties": { "P29_001": "43202", "P29_002": "D143310000156", "P29_003": "16004", "P29_004": "八代白百合学園高等学校", "P29_005": "熊本県八代市井上町727-1", "P29_006": "4", "P29_007": "0", "P29_008": "00", "P29_009": null }, "geometry": { "type": "Point", "coordinates": [ 130.631488693179705, 32.51843853394822 ] } },
{ "type": "Feature", "properties": { "P29_001": "43202", "P29_002": "D143310000165", "P29_003": "16004", "P29_004": "秀岳館高等学校", "P29_005": "熊本県八代市興国町1-5", "P29_006": "4", "P29_007": "0", "P29_008": "00", "P29_009": null }, "geometry": { "type": "Point", "coordinates": [ 130.604385529843682, 32.515918053975092 ] } },
{ "type": "Feature", "properties": { "P29_001": "43204", "P29_002": "D143310000174", "P29_003": "16004", "P29_004": "有明高等学校", "P29_005": "熊本県荒尾市増永2200", "P29_006": "4", "P29_007": "0", "P29_008": "00", "P29_009": null }, "geometry": { "type": "Point", "coordinates": [ 130.451266999538603, 32.971977099086587 ] } },
{ "type": "Feature", "properties": { "P29_001": "43206", "P29_002": "D143310000183", "P29_003": "16004", "P29_004": "玉名女子高等学校", "P29_005": "熊本県玉名市岩崎1061", "P29_006": "4", "P29_007": "0", "P29_008": "00", "P29_009": null }, "geometry": { "type": "Point", "coordinates": [ 130.556310220375678, 32.932715427452024 ] } },
{ "type": "Feature", "properties": { "P29_001": "43210", "P29_002": "D143310000192", "P29_003": "16004", "P29_004": "菊池女子高等学校", "P29_005": "熊本県菊池市隈府1081", "P29_006": "4", "P29_007": "0", "P29_008": "00", "P29_009": null }, "geometry": { "type": "Point", "coordinates": [ 130.817280707799199, 32.981366689180348 ] } },
{ "type": "Feature", "properties": { "P29_001": "43206", "P29_002": "D143310000209", "P29_003": "16004", "P29_004": "専修大学熊本玉名高等学校", "P29_005": "熊本県玉名市岱明町野口1046", "P29_006": "4", "P29_007": "0", "P29_008": "00", "P29_009": null }, "geometry": { "type": "Point", "coordinates": [ 130.537811746211361, 32.92435884546709 ] } },
{ "type": "Feature", "properties": { "P29_001": "43208", "P29_002": "D143310000218", "P29_003": "16004", "P29_004": "城北高等学校", "P29_005": "熊本県山鹿市志々岐798", "P29_006": "4", "P29_007": "0", "P29_008": "00", "P29_009": null }, "geometry": { "type": "Point", "coordinates": [ 130.678104548863416, 33.000566342702818 ] } },
{ "type": "Feature", "properties": { "P29_001": "43215", "P29_002": "D143310000227", "P29_003": "16004", "P29_004": "勇志国際高等学校", "P29_005": "熊本県天草市御所浦町牧島1065-3", "P29_006": "4", "P29_007": "0", "P29_008": "00", "P29_009": null }, "geometry": { "type": "Point", "coordinates": [ 130.324768309954237, 32.349848778483754 ] } },
{ "type": "Feature", "properties": { "P29_001": "43447", "P29_002": "D143310000236", "P29_003": "16004", "P29_004": "一ツ葉高等学校", "P29_005": "熊本県上益城郡山都町目丸2472", "P29_006": "4", "P29_007": "0", "P29_008": "00", "P29_009": null }, "geometry": { "type": "Point", "coordinates": [ 130.975785539231424, 32.635924231709922 ] } },
{ "type": "Feature", "properties": { "P29_001": "43433", "P29_002": "D143310000245", "P29_003": "16004", "P29_004": "くまもと清陵高等学校", "P29_005": "熊本県阿蘇郡南阿蘇村河陰字小野5-300", "P29_006": "4", "P29_007": "0", "P29_008": "00", "P29_009": null }, "geometry": { "type": "Point", "coordinates": [ 131.028851261783103, 32.814020332466193 ] } },
{ "type": "Feature", "properties": { "P29_001": "43447", "P29_002": "D143310000254", "P29_003": "16004", "P29_004": "やまと高等学校", "P29_005": "熊本県上益城郡山都町滝上223", "P29_006": "4", "P29_007": "0", "P29_008": "00", "P29_009": null }, "geometry": { "type": "Point", "coordinates": [ 131.139548948031177, 32.686241222530839 ] } }
]
}
