{
"type": "FeatureCollection",
"name": "geo_43_福祉用具貸与",
"crs": { "type": "name", "properties": { "name": "urn:ogc:def:crs:OGC:1.3:CRS84" } },
"features": [
{ "type": "Feature", "properties": { "内容": "株式会社野田市電子ヘルスケア事業部【福祉用具貸与】熊本県熊本市中央区世安町335番地", "url": "https://www.kaigokensaku.mhlw.go.jp/43/index.php?action_kouhyou_detail_004_kani=true&JigyosyoCd=4370112148-00&ServiceCd=170&Type=search", "url2": "http://www.nodaichig.jp" }, "geometry": { "type": "Point", "coordinates": [ 130.698250899999948, 32.7846962 ] } },
{ "type": "Feature", "properties": { "内容": "セントケア熊本福祉用具【福祉用具貸与】熊本県熊本市中央区十禅寺1丁目3番1号", "url": "https://www.kaigokensaku.mhlw.go.jp/43/index.php?action_kouhyou_detail_004_kani=true&JigyosyoCd=4370106116-00&ServiceCd=170&Type=search", "url2": "http://www.saint-care.com/" }, "geometry": { "type": "Point", "coordinates": [ 130.695595700000013, 32.7801493 ] } },
{ "type": "Feature", "properties": { "内容": "ニチイケアセンタ－熊本【福祉用具貸与】熊本市中央区水前寺6-27-20神水恵比須ビル1Ｆ", "url": "https://www.kaigokensaku.mhlw.go.jp/43/index.php?action_kouhyou_detail_004_kani=true&JigyosyoCd=4370101323-00&ServiceCd=170&Type=search", "url2": "http://www.nichiigakkan.co.jp" }, "geometry": { "type": "Point", "coordinates": [ 130.743535599999973, 32.788024 ] } },
{ "type": "Feature", "properties": { "内容": "セントケアりまいん熊本【福祉用具貸与】十禅寺一丁目3番1号", "url": "https://www.kaigokensaku.mhlw.go.jp/43/index.php?action_kouhyou_detail_004_kani=true&JigyosyoCd=4370115638-00&ServiceCd=170&Type=search", "url2": "http://www.saint-care.com/" }, "geometry": { "type": "Point", "coordinates": [ 130.6955945, 32.7801362 ] } },
{ "type": "Feature", "properties": { "内容": "椿レンタルケア【福祉用具貸与】熊本県熊本市中央区本山3丁目5-15有料老人ホーム　つばき園", "url": "https://www.kaigokensaku.mhlw.go.jp/43/index.php?action_kouhyou_detail_004_kani=true&JigyosyoCd=4370114078-00&ServiceCd=170&Type=search", "url2": null }, "geometry": { "type": "Point", "coordinates": [ 130.6946376, 32.7882721 ] } },
{ "type": "Feature", "properties": { "内容": "福祉用具貸与事業所ひまわり【福祉用具貸与】熊本県熊本市中央区神水1-21-16", "url": "https://www.kaigokensaku.mhlw.go.jp/43/index.php?action_kouhyou_detail_004_kani=true&JigyosyoCd=4370111959-00&ServiceCd=170&Type=search", "url2": null }, "geometry": { "type": "Point", "coordinates": [ 130.743948035787156, 32.786176537278905 ] } },
{ "type": "Feature", "properties": { "内容": "株式会社　熊本診療協力社【福祉用具貸与】熊本県熊本市中央区九品寺5丁目9-2", "url": "https://www.kaigokensaku.mhlw.go.jp/43/index.php?action_kouhyou_detail_004_kani=true&JigyosyoCd=4370106371-00&ServiceCd=170&Type=search", "url2": null }, "geometry": { "type": "Point", "coordinates": [ 130.715365799999972, 32.7916405 ] } },
{ "type": "Feature", "properties": { "内容": "YOU8【福祉用具貸与】上水前寺2丁目2‐23　マツフジビル", "url": "https://www.kaigokensaku.mhlw.go.jp/43/index.php?action_kouhyou_detail_004_kani=true&JigyosyoCd=4370114748-00&ServiceCd=170&Type=search", "url2": null }, "geometry": { "type": "Point", "coordinates": [ 130.7385869, 32.8074957 ] } },
{ "type": "Feature", "properties": { "内容": "株式会社ハヤシコンフォート【福祉用具貸与】熊本市中央区琴平2丁目4番3号", "url": "https://www.kaigokensaku.mhlw.go.jp/43/index.php?action_kouhyou_detail_004_kani=true&JigyosyoCd=4370106876-00&ServiceCd=170&Type=search", "url2": null }, "geometry": { "type": "Point", "coordinates": [ 130.70769150000001, 32.7894655 ] } },
{ "type": "Feature", "properties": { "内容": "有限会社　須賀　タル【福祉用具貸与】熊本県熊本市中央区国府四丁目１０－８３", "url": "https://www.kaigokensaku.mhlw.go.jp/43/index.php?action_kouhyou_detail_004_kani=true&JigyosyoCd=4370103584-00&ServiceCd=170&Type=search", "url2": "http://sugataru.sakura.ne.jp" }, "geometry": { "type": "Point", "coordinates": [ 130.725159699999949, 32.7846163 ] } },
{ "type": "Feature", "properties": { "内容": "ユーズフルライフ【福祉用具貸与】本荘町727番地", "url": "https://www.kaigokensaku.mhlw.go.jp/43/index.php?action_kouhyou_detail_004_kani=true&JigyosyoCd=4370116750-00&ServiceCd=170&Type=search", "url2": null }, "geometry": { "type": "Point", "coordinates": [ 130.703244874343909, 32.7846563326788 ] } },
{ "type": "Feature", "properties": { "内容": "くぼた屋【福祉用具貸与】九品寺6丁目6番6－804号", "url": "https://www.kaigokensaku.mhlw.go.jp/43/index.php?action_kouhyou_detail_004_kani=true&JigyosyoCd=4370116115-00&ServiceCd=170&Type=search", "url2": null }, "geometry": { "type": "Point", "coordinates": [ 130.7177781, 32.7887636 ] } },
{ "type": "Feature", "properties": { "内容": "スマイルケア　しょうぶ苑【福祉用具貸与】画図町所島1039江津しょうぶ苑", "url": "https://www.kaigokensaku.mhlw.go.jp/43/index.php?action_kouhyou_detail_004_kani=true&JigyosyoCd=4370111454-00&ServiceCd=170&Type=search", "url2": "http://www.shoubuen.com/" }, "geometry": { "type": "Point", "coordinates": [ 130.734040100000016, 32.7718258 ] } },
{ "type": "Feature", "properties": { "内容": "タカヒロ福祉用具【福祉用具貸与】熊本県熊本市東区尾ノ上1丁目14番25号", "url": "https://www.kaigokensaku.mhlw.go.jp/43/index.php?action_kouhyou_detail_004_kani=true&JigyosyoCd=4370114250-00&ServiceCd=170&Type=search", "url2": null }, "geometry": { "type": "Point", "coordinates": [ 130.751413, 32.7899692 ] } },
{ "type": "Feature", "properties": { "内容": "りん【福祉用具貸与】新南部５丁目２-５３サービス付高齢者住宅歩１階", "url": "https://www.kaigokensaku.mhlw.go.jp/43/index.php?action_kouhyou_detail_004_kani=true&JigyosyoCd=4370115489-00&ServiceCd=170&Type=search", "url2": null }, "geometry": { "type": "Point", "coordinates": [ 130.748680400000012, 32.8183433 ] } },
{ "type": "Feature", "properties": { "内容": "ハッピーライフ【福祉用具貸与】熊本県熊本市東区小峯3丁目3-17コーポ内田105号", "url": "https://www.kaigokensaku.mhlw.go.jp/43/index.php?action_kouhyou_detail_004_kani=true&JigyosyoCd=4370115729-00&ServiceCd=170&Type=search", "url2": "https://www.happylife-kumamoto.com/" }, "geometry": { "type": "Point", "coordinates": [ 130.774267400000014, 32.7987656 ] } },
{ "type": "Feature", "properties": { "内容": "アグニール熊本　福祉用具事業所【福祉用具貸与】熊本県熊本市東区花立2丁目8-21-102", "url": "https://www.kaigokensaku.mhlw.go.jp/43/index.php?action_kouhyou_detail_004_kani=true&JigyosyoCd=4370116214-00&ServiceCd=170&Type=search", "url2": null }, "geometry": { "type": "Point", "coordinates": [ 130.776215028836077, 32.781565989074963 ] } },
{ "type": "Feature", "properties": { "内容": "QCC熊本【福祉用具貸与】熊本県熊本市東区長嶺南3丁目2-86", "url": "https://www.kaigokensaku.mhlw.go.jp/43/index.php?action_kouhyou_detail_004_kani=true&JigyosyoCd=4370113732-00&ServiceCd=170&Type=search", "url2": "http://qccg.jp" }, "geometry": { "type": "Point", "coordinates": [ 130.771056899999934, 32.8130125 ] } },
{ "type": "Feature", "properties": { "内容": "地域生活応援館【福祉用具貸与】熊本県熊本市東区上南部２丁目１番６７号", "url": "https://www.kaigokensaku.mhlw.go.jp/43/index.php?action_kouhyou_detail_004_kani=true&JigyosyoCd=4370111066-00&ServiceCd=170&Type=search", "url2": "http://www.kumasuma.co.jp" }, "geometry": { "type": "Point", "coordinates": [ 130.765713, 32.8287347 ] } },
{ "type": "Feature", "properties": { "内容": "アステ【福祉用具貸与】熊本県熊本市東区月出2丁目2番51号　1F-2サンセール月出", "url": "https://www.kaigokensaku.mhlw.go.jp/43/index.php?action_kouhyou_detail_004_kani=true&JigyosyoCd=4370115380-00&ServiceCd=170&Type=search", "url2": null }, "geometry": { "type": "Point", "coordinates": [ 130.76062, 32.8030753 ] } },
{ "type": "Feature", "properties": { "内容": "アメックス熊本株式会社【福祉用具貸与】熊本県熊本市東区尾ノ上1丁目3番9号", "url": "https://www.kaigokensaku.mhlw.go.jp/43/index.php?action_kouhyou_detail_004_kani=true&JigyosyoCd=4370100960-00&ServiceCd=170&Type=search", "url2": "http://amex-k.jp" }, "geometry": { "type": "Point", "coordinates": [ 130.749380699999961, 32.789199300000035 ] } },
{ "type": "Feature", "properties": { "内容": "介臨丸　熊本営業所【福祉用具貸与】熊本県熊本市東区小山2丁目11番17号", "url": "https://www.kaigokensaku.mhlw.go.jp/43/index.php?action_kouhyou_detail_004_kani=true&JigyosyoCd=4370110829-00&ServiceCd=170&Type=search", "url2": null }, "geometry": { "type": "Point", "coordinates": [ 130.787131544180284, 32.828052930911284 ] } },
{ "type": "Feature", "properties": { "内容": "アンド・クリエイト【福祉用具貸与】御領8-6-50倉庫付事務所(N)102", "url": "https://www.kaigokensaku.mhlw.go.jp/43/index.php?action_kouhyou_detail_004_kani=true&JigyosyoCd=4370115661-00&ServiceCd=170&Type=search", "url2": null }, "geometry": { "type": "Point", "coordinates": [ 130.772616672375676, 32.832991452341794 ] } },
{ "type": "Feature", "properties": { "内容": "まるもり東【福祉用具貸与】錦ケ丘9-13田島コーポ　103", "url": "https://www.kaigokensaku.mhlw.go.jp/43/index.php?action_kouhyou_detail_004_kani=true&JigyosyoCd=4370115737-00&ServiceCd=170&Type=search", "url2": null }, "geometry": { "type": "Point", "coordinates": [ 130.754756062080901, 32.790922210089377 ] } },
{ "type": "Feature", "properties": { "内容": "太陽シルバーサービス株式会社　熊本営業所【福祉用具貸与】熊本県熊本市東区画図町大字下無田1432-22", "url": "https://www.kaigokensaku.mhlw.go.jp/43/index.php?action_kouhyou_detail_004_kani=true&JigyosyoCd=4370106207-00&ServiceCd=170&Type=search", "url2": "http://www.taiyoss.co.jp" }, "geometry": { "type": "Point", "coordinates": [ 130.768949099999986, 32.7755867 ] } },
{ "type": "Feature", "properties": { "内容": "株式会社いずみ【福祉用具貸与】熊本県熊本市東区月出5丁目3-31", "url": "https://www.kaigokensaku.mhlw.go.jp/43/index.php?action_kouhyou_detail_004_kani=true&JigyosyoCd=4370116727-00&ServiceCd=170&Type=search", "url2": null }, "geometry": { "type": "Point", "coordinates": [ 130.7727341, 32.8033264 ] } },
{ "type": "Feature", "properties": { "内容": "有限会社　T3【福祉用具貸与】渡鹿8-1-84ｶｰｻ･ﾌｨｵｰﾚ103号", "url": "https://www.kaigokensaku.mhlw.go.jp/43/index.php?action_kouhyou_detail_004_kani=true&JigyosyoCd=4370114318-00&ServiceCd=170&Type=search", "url2": "t3mkzy.com" }, "geometry": { "type": "Point", "coordinates": [ 130.741165639252102, 32.808542897015585 ] } },
{ "type": "Feature", "properties": { "内容": "ケアプラス福祉住環境サポート【福祉用具貸与】熊本県熊本市東区尾ノ上2丁目3-3-1", "url": "https://www.kaigokensaku.mhlw.go.jp/43/index.php?action_kouhyou_detail_004_kani=true&JigyosyoCd=4370114672-00&ServiceCd=170&Type=search", "url2": "https://www.care-plus.jp/" }, "geometry": { "type": "Point", "coordinates": [ 130.7532536, 32.7948147 ] } },
{ "type": "Feature", "properties": { "内容": "有限会社　熊本託麻義肢【福祉用具貸与】熊本県熊本市東区八反田2丁目1-49", "url": "https://www.kaigokensaku.mhlw.go.jp/43/index.php?action_kouhyou_detail_004_kani=true&JigyosyoCd=4370101315-00&ServiceCd=170&Type=search", "url2": null }, "geometry": { "type": "Point", "coordinates": [ 130.7600218, 32.8163136 ] } },
{ "type": "Feature", "properties": { "内容": "福祉用具貸与事業所　江津湖ケアサービス【福祉用具貸与】熊本県熊本市東区画図町大字重富735番地51", "url": "https://www.kaigokensaku.mhlw.go.jp/43/index.php?action_kouhyou_detail_004_kani=true&JigyosyoCd=4370115133-00&ServiceCd=170&Type=search", "url2": null }, "geometry": { "type": "Point", "coordinates": [ 130.730180599897068, 32.75789300486359 ] } },
{ "type": "Feature", "properties": { "内容": "サプリホーム【福祉用具貸与】熊本県熊本市東区湖東3-7-21", "url": "https://www.kaigokensaku.mhlw.go.jp/43/index.php?action_kouhyou_detail_004_kani=true&JigyosyoCd=4372801698-00&ServiceCd=170&Type=search", "url2": "http://supprehome.jp/" }, "geometry": { "type": "Point", "coordinates": [ 130.743704872274748, 32.778310017626126 ] } },
{ "type": "Feature", "properties": { "内容": "ゆうしん福祉用具事業所【福祉用具貸与】熊本県熊本市東区錦ヶ丘26-1", "url": "https://www.kaigokensaku.mhlw.go.jp/43/index.php?action_kouhyou_detail_004_kani=true&JigyosyoCd=4370115083-00&ServiceCd=170&Type=search", "url2": "http://yushin-wel.jp/" }, "geometry": { "type": "Point", "coordinates": [ 130.758751100000012, 32.7915073 ] } },
{ "type": "Feature", "properties": { "内容": "株式会社　ホワシ【福祉用具貸与】熊本県熊本市東区小山5丁目19番55号", "url": "https://www.kaigokensaku.mhlw.go.jp/43/index.php?action_kouhyou_detail_004_kani=true&JigyosyoCd=4370110951-00&ServiceCd=170&Type=search", "url2": "www.howashi.jp" }, "geometry": { "type": "Point", "coordinates": [ 130.793079391401619, 32.830949830322865 ] } },
{ "type": "Feature", "properties": { "内容": "すまいる熊本【福祉用具貸与】熊本県熊本市東区神園1丁目9番3号", "url": "https://www.kaigokensaku.mhlw.go.jp/43/index.php?action_kouhyou_detail_004_kani=true&JigyosyoCd=4370116768-00&ServiceCd=170&Type=search", "url2": "http://fukuen.co.jp/" }, "geometry": { "type": "Point", "coordinates": [ 130.7811802, 32.8370281 ] } },
{ "type": "Feature", "properties": { "内容": "福祉用具貸与事業所クローバー【福祉用具貸与】保田窪４丁目８－７", "url": "https://www.kaigokensaku.mhlw.go.jp/43/index.php?action_kouhyou_detail_004_kani=true&JigyosyoCd=4370116859-00&ServiceCd=170&Type=search", "url2": "https://qol4.com" }, "geometry": { "type": "Point", "coordinates": [ 130.7530352, 32.8087405 ] } },
{ "type": "Feature", "properties": { "内容": "福祉用具事業所　まつお【福祉用具貸与】熊本県熊本市東区新南部5丁目2-61", "url": "https://www.kaigokensaku.mhlw.go.jp/43/index.php?action_kouhyou_detail_004_kani=true&JigyosyoCd=4370116867-00&ServiceCd=170&Type=search", "url2": null }, "geometry": { "type": "Point", "coordinates": [ 130.748442, 32.8182714 ] } },
{ "type": "Feature", "properties": { "内容": "福祉用具はなぞの【福祉用具貸与】熊本県熊本市西区花園1-12-8", "url": "https://www.kaigokensaku.mhlw.go.jp/43/index.php?action_kouhyou_detail_004_kani=true&JigyosyoCd=4370115273-00&ServiceCd=170&Type=search", "url2": null }, "geometry": { "type": "Point", "coordinates": [ 130.6966841, 32.8125255 ] } },
{ "type": "Feature", "properties": { "内容": "株式会社リアルライフデザイン【福祉用具貸与】熊本市西区池田２丁目１５－４", "url": "https://www.kaigokensaku.mhlw.go.jp/43/index.php?action_kouhyou_detail_004_kani=true&JigyosyoCd=4370104368-00&ServiceCd=170&Type=search", "url2": "http://www8.plala.or.jp/r-l-d/" }, "geometry": { "type": "Point", "coordinates": [ 130.706080199999974, 32.829434 ] } },
{ "type": "Feature", "properties": { "内容": "レンタルサービスひゅうが熊本【福祉用具貸与】春日1丁目6-3-703号室URBABGRACE", "url": "https://www.kaigokensaku.mhlw.go.jp/43/index.php?action_kouhyou_detail_004_kani=true&JigyosyoCd=4370116669-00&ServiceCd=170&Type=search", "url2": "https://kirari3.com/" }, "geometry": { "type": "Point", "coordinates": [ 135.562415857672107, 34.818111659815564 ] } },
{ "type": "Feature", "properties": { "内容": "有限会社ベストライフ福祉用具サービス【福祉用具貸与】春日7丁目16-12ケアライフ春日", "url": "https://www.kaigokensaku.mhlw.go.jp/43/index.php?action_kouhyou_detail_004_kani=true&JigyosyoCd=4370111744-00&ServiceCd=170&Type=search", "url2": null }, "geometry": { "type": "Point", "coordinates": [ 130.6811113, 32.7863013 ] } },
{ "type": "Feature", "properties": { "内容": "パナソニックエイジフリーショップ上熊本【福祉用具貸与】熊本県熊本市西区花園1丁目4番2号", "url": "https://www.kaigokensaku.mhlw.go.jp/43/index.php?action_kouhyou_detail_004_kani=true&JigyosyoCd=4370113062-00&ServiceCd=170&Type=search", "url2": "http://sumai.panasonic.jp/agefree/map/detail.php?id=319" }, "geometry": { "type": "Point", "coordinates": [ 130.697830900000014, 32.8128769 ] } },
{ "type": "Feature", "properties": { "内容": "リーフ熊本【福祉用具貸与】熊本県熊本市西区池上町774番地有料老人ホームひかり内", "url": "https://www.kaigokensaku.mhlw.go.jp/43/index.php?action_kouhyou_detail_004_kani=true&JigyosyoCd=4370111926-00&ServiceCd=170&Type=search", "url2": "https://www.seed-hikari2.com/" }, "geometry": { "type": "Point", "coordinates": [ 130.673714018138071, 32.789226695675325 ] } },
{ "type": "Feature", "properties": { "内容": "有限会社　グッドヘルス【福祉用具貸与】熊本市西区島崎2-22-15", "url": "https://www.kaigokensaku.mhlw.go.jp/43/index.php?action_kouhyou_detail_004_kani=true&JigyosyoCd=4370100937-00&ServiceCd=170&Type=search", "url2": "https://www.good-health.co.jp/" }, "geometry": { "type": "Point", "coordinates": [ 130.690442699999949, 32.808068800000022 ] } },
{ "type": "Feature", "properties": { "内容": "株式会社　スズキ自販熊本【福祉用具貸与】熊本市南区平田1丁目１－６", "url": "https://www.kaigokensaku.mhlw.go.jp/43/index.php?action_kouhyou_detail_004_kani=true&JigyosyoCd=4370103667-00&ServiceCd=170&Type=search", "url2": "http://sj-kumamoto.jp/" }, "geometry": { "type": "Point", "coordinates": [ 130.69500979999998, 32.7749164 ] } },
{ "type": "Feature", "properties": { "内容": "福祉用具貸与事業所　パニコム【福祉用具貸与】熊本市南区海路口町４９９－２", "url": "https://www.kaigokensaku.mhlw.go.jp/43/index.php?action_kouhyou_detail_004_kani=true&JigyosyoCd=4370102776-00&ServiceCd=170&Type=search", "url2": "http://www.morise-kaigo.com/" }, "geometry": { "type": "Point", "coordinates": [ 130.617244300000038, 32.7389823 ] } },
{ "type": "Feature", "properties": { "内容": "有限会社　徳　工　房【福祉用具貸与】熊本県熊本市富合町国町235-2番地", "url": "https://www.kaigokensaku.mhlw.go.jp/43/index.php?action_kouhyou_detail_004_kani=true&JigyosyoCd=4370107114-00&ServiceCd=170&Type=search", "url2": "tokukoubou0705@kzc.biglobe.ne.jp" }, "geometry": { "type": "Point", "coordinates": [ 130.667635427122491, 32.720452786842955 ] } },
{ "type": "Feature", "properties": { "内容": "株式会社わかふき【福祉用具貸与】熊本県熊本市南区八分字町2560-1", "url": "https://www.kaigokensaku.mhlw.go.jp/43/index.php?action_kouhyou_detail_004_kani=true&JigyosyoCd=4370111975-00&ServiceCd=170&Type=search", "url2": null }, "geometry": { "type": "Point", "coordinates": [ 130.659519, 32.7606008 ] } },
{ "type": "Feature", "properties": { "内容": "株式会社　荒木マリーン【福祉用具貸与】熊本市南区近見9丁目9番5号", "url": "https://www.kaigokensaku.mhlw.go.jp/43/index.php?action_kouhyou_detail_004_kani=true&JigyosyoCd=4370104947-00&ServiceCd=170&Type=search", "url2": "https://arakimari-n.com/" }, "geometry": { "type": "Point", "coordinates": [ 130.697899207812554, 32.7619568732351 ] } },
{ "type": "Feature", "properties": { "内容": "千広【福祉用具貸与】熊本市南区近見1-8-5", "url": "https://www.kaigokensaku.mhlw.go.jp/43/index.php?action_kouhyou_detail_004_kani=true&JigyosyoCd=4370103287-00&ServiceCd=170&Type=search", "url2": "http://www.chihiro-fukushi.jp/" }, "geometry": { "type": "Point", "coordinates": [ 130.69065048187278, 32.765992161843442 ] } },
{ "type": "Feature", "properties": { "内容": "トータル　マスター【福祉用具貸与】熊本県熊本市南区良町5丁目15番23号", "url": "https://www.kaigokensaku.mhlw.go.jp/43/index.php?action_kouhyou_detail_004_kani=true&JigyosyoCd=4370111249-00&ServiceCd=170&Type=search", "url2": "chihiro-fukushi.jp" }, "geometry": { "type": "Point", "coordinates": [ 130.7211772336575, 32.755948126909203 ] } },
{ "type": "Feature", "properties": { "内容": "福祉用具貸与事業所　あきた【福祉用具貸与】熊本県熊本市南区会富町1120番地", "url": "https://www.kaigokensaku.mhlw.go.jp/43/index.php?action_kouhyou_detail_004_kani=true&JigyosyoCd=4370101299-00&ServiceCd=170&Type=search", "url2": "http://www.akita-hospital.or.jp" }, "geometry": { "type": "Point", "coordinates": [ 130.654130799999962, 32.752129300000014 ] } },
{ "type": "Feature", "properties": { "内容": "てとて【福祉用具貸与】熊本市南区良町1丁目20-15", "url": "https://www.kaigokensaku.mhlw.go.jp/43/index.php?action_kouhyou_detail_004_kani=true&JigyosyoCd=4370115992-00&ServiceCd=170&Type=search", "url2": null }, "geometry": { "type": "Point", "coordinates": [ 130.726064846032756, 32.761100733486593 ] } },
{ "type": "Feature", "properties": { "内容": "有限会社カインドケア【福祉用具貸与】熊本県熊本市南区城南町六田546番地5", "url": "https://www.kaigokensaku.mhlw.go.jp/43/index.php?action_kouhyou_detail_004_kani=true&JigyosyoCd=4370102917-00&ServiceCd=170&Type=search", "url2": null }, "geometry": { "type": "Point", "coordinates": [ 130.7170969, 32.706242700000011 ] } },
{ "type": "Feature", "properties": { "内容": "特定医療法人萬生会　　ライフショップまこと【福祉用具貸与】熊本県熊本市南区田迎町田井島224番地", "url": "https://www.kaigokensaku.mhlw.go.jp/43/index.php?action_kouhyou_detail_004_kani=true&JigyosyoCd=4370105936-00&ServiceCd=170&Type=search", "url2": "http://vansay.jp/kumamoto" }, "geometry": { "type": "Point", "coordinates": [ 130.72604350000006, 32.767704 ] } },
{ "type": "Feature", "properties": { "内容": "ベストケア熊本【福祉用具貸与】熊本市南区近見6丁目16番18号", "url": "https://www.kaigokensaku.mhlw.go.jp/43/index.php?action_kouhyou_detail_004_kani=true&JigyosyoCd=4370108955-00&ServiceCd=170&Type=search", "url2": null }, "geometry": { "type": "Point", "coordinates": [ 130.695507300000031, 32.7637146 ] } },
{ "type": "Feature", "properties": { "内容": "ケアパーク川尻店【福祉用具貸与】熊本県熊本市南区八幡5丁目3番31号", "url": "https://www.kaigokensaku.mhlw.go.jp/43/index.php?action_kouhyou_detail_004_kani=true&JigyosyoCd=4370116180-00&ServiceCd=170&Type=search", "url2": "https://www.care-park.com/" }, "geometry": { "type": "Point", "coordinates": [ 130.680963145368963, 32.747744285574605 ] } },
{ "type": "Feature", "properties": { "内容": "ふくえん熊本【福祉用具貸与】熊本市南区南高江2丁目1-28", "url": "https://www.kaigokensaku.mhlw.go.jp/43/index.php?action_kouhyou_detail_004_kani=true&JigyosyoCd=4370110050-00&ServiceCd=170&Type=search", "url2": "http://fukuen.co.jp/" }, "geometry": { "type": "Point", "coordinates": [ 130.685852863526179, 32.751573710369485 ] } },
{ "type": "Feature", "properties": { "内容": "株式会社フロンティア　熊本営業所【福祉用具貸与】熊本県熊本市南区流通団地2-20-1センコービル2階", "url": "https://www.kaigokensaku.mhlw.go.jp/43/index.php?action_kouhyou_detail_004_kani=true&JigyosyoCd=4370109417-00&ServiceCd=170&Type=search", "url2": "http://www.frontier-ph.com/homecare/index.html" }, "geometry": { "type": "Point", "coordinates": [ 130.703175900000019, 32.7685561 ] } },
{ "type": "Feature", "properties": { "内容": "フランスベッド株式会社メディカル熊本営業所【福祉用具貸与】熊本市南区流通団地1丁目60番地", "url": "https://www.kaigokensaku.mhlw.go.jp/43/index.php?action_kouhyou_detail_004_kani=true&JigyosyoCd=4370106561-00&ServiceCd=170&Type=search", "url2": "http://www.francebed.co.jp/" }, "geometry": { "type": "Point", "coordinates": [ 130.7060424, 32.7665703 ] } },
{ "type": "Feature", "properties": { "内容": "株式会社　ファーマダイワ【福祉用具貸与】熊本県熊本市南区流通団地1丁目56番地", "url": "https://www.kaigokensaku.mhlw.go.jp/43/index.php?action_kouhyou_detail_004_kani=true&JigyosyoCd=4370113005-00&ServiceCd=170&Type=search", "url2": "http://www.pharma-daiwa.co.jp/" }, "geometry": { "type": "Point", "coordinates": [ 130.707013314016791, 32.766315167426136 ] } },
{ "type": "Feature", "properties": { "内容": "株式会社　介助　南熊本営業所【福祉用具貸与】熊本県熊本市南区田井島1丁目9-19", "url": "https://www.kaigokensaku.mhlw.go.jp/43/index.php?action_kouhyou_detail_004_kani=true&JigyosyoCd=4370109771-00&ServiceCd=170&Type=search", "url2": "https://kaisuke.co.jp/" }, "geometry": { "type": "Point", "coordinates": [ 130.7242185, 32.7688205 ] } },
{ "type": "Feature", "properties": { "内容": "リブアップ【福祉用具貸与】熊本県熊本市南区御幸笛田8丁目9番19号", "url": "https://www.kaigokensaku.mhlw.go.jp/43/index.php?action_kouhyou_detail_004_kani=true&JigyosyoCd=4370116149-00&ServiceCd=170&Type=search", "url2": null }, "geometry": { "type": "Point", "coordinates": [ 130.7128567, 32.7525356 ] } },
{ "type": "Feature", "properties": { "内容": "熊本ヤマハ株式会社【福祉用具貸与】熊本市南区南高江３丁目２番１号", "url": "https://www.kaigokensaku.mhlw.go.jp/43/index.php?action_kouhyou_detail_004_kani=true&JigyosyoCd=4370102586-00&ServiceCd=170&Type=search", "url2": "http://www.ky-kaigo.com/" }, "geometry": { "type": "Point", "coordinates": [ 130.688663600000041, 32.7579566 ] } },
{ "type": "Feature", "properties": { "内容": "株式会社ひまわりらいふ【福祉用具貸与】熊本県熊本市北区武蔵ヶ丘6丁目3-30", "url": "https://www.kaigokensaku.mhlw.go.jp/43/index.php?action_kouhyou_detail_004_kani=true&JigyosyoCd=4370106660-00&ServiceCd=170&Type=search", "url2": null }, "geometry": { "type": "Point", "coordinates": [ 130.7713249, 32.8525583 ] } },
{ "type": "Feature", "properties": { "内容": "株式会社　悠生【福祉用具貸与】熊本県熊本市北区植木町広住461-17", "url": "https://www.kaigokensaku.mhlw.go.jp/43/index.php?action_kouhyou_detail_004_kani=true&JigyosyoCd=4372500811-00&ServiceCd=170&Type=search", "url2": null }, "geometry": { "type": "Point", "coordinates": [ 130.696291200000019, 32.9017661 ] } },
{ "type": "Feature", "properties": { "内容": "Let'sレンタ！【福祉用具貸与】熊本県熊本市北区高平3丁目42-3", "url": "https://www.kaigokensaku.mhlw.go.jp/43/index.php?action_kouhyou_detail_004_kani=true&JigyosyoCd=4370114268-00&ServiceCd=170&Type=search", "url2": null }, "geometry": { "type": "Point", "coordinates": [ 130.719047, 32.8389783 ] } },
{ "type": "Feature", "properties": { "内容": "有限会社　サンキューハート【福祉用具貸与】熊本市北区鹿子木町８８番地１", "url": "https://www.kaigokensaku.mhlw.go.jp/43/index.php?action_kouhyou_detail_004_kani=true&JigyosyoCd=4370103824-00&ServiceCd=170&Type=search", "url2": null }, "geometry": { "type": "Point", "coordinates": [ 130.7018438, 32.8710052 ] } },
{ "type": "Feature", "properties": { "内容": "熊本医療ガス株式会社【福祉用具貸与】熊本市北区下硯川町2205", "url": "https://www.kaigokensaku.mhlw.go.jp/43/index.php?action_kouhyou_detail_004_kani=true&JigyosyoCd=4370103527-00&ServiceCd=170&Type=search", "url2": "http://www.kumamoto-iryou-gas.co.jp" }, "geometry": { "type": "Point", "coordinates": [ 130.7089297, 32.8531014 ] } },
{ "type": "Feature", "properties": { "内容": "株式会社トーカイ　熊本営業所【福祉用具貸与】飛田4丁目9番112号", "url": "https://www.kaigokensaku.mhlw.go.jp/43/index.php?action_kouhyou_detail_004_kani=true&JigyosyoCd=4370108096-00&ServiceCd=170&Type=search", "url2": "https://www.tokai-corp.com/" }, "geometry": { "type": "Point", "coordinates": [ 130.722789799999987, 32.8545045 ] } },
{ "type": "Feature", "properties": { "内容": "アクサ【福祉用具貸与】熊本県熊本市北区下硯川二丁目7番24号", "url": "https://www.kaigokensaku.mhlw.go.jp/43/index.php?action_kouhyou_detail_004_kani=true&JigyosyoCd=4370102644-00&ServiceCd=170&Type=search", "url2": null }, "geometry": { "type": "Point", "coordinates": [ 130.70760759999996, 32.8502544 ] } },
{ "type": "Feature", "properties": { "内容": "太陽シルバーサービス株式会社　熊本北営業所【福祉用具貸与】熊本県熊本市北区鶴羽田１丁目１０番７号", "url": "https://www.kaigokensaku.mhlw.go.jp/43/index.php?action_kouhyou_detail_004_kani=true&JigyosyoCd=4370107056-00&ServiceCd=170&Type=search", "url2": "http://www.taiyoss.co.jp" }, "geometry": { "type": "Point", "coordinates": [ 130.7257952, 32.8565488 ] } },
{ "type": "Feature", "properties": { "内容": "ハイコムライフクリエート株式会社【福祉用具貸与】熊本県熊本市北区楠8丁目18-53", "url": "https://www.kaigokensaku.mhlw.go.jp/43/index.php?action_kouhyou_detail_004_kani=true&JigyosyoCd=4370113534-00&ServiceCd=170&Type=search", "url2": "https://www.hicomlifecreate.com/" }, "geometry": { "type": "Point", "coordinates": [ 130.766056700000036, 32.8491012 ] } },
{ "type": "Feature", "properties": { "内容": "暖　レンタルサービス【福祉用具貸与】山室5丁目4番21号", "url": "https://www.kaigokensaku.mhlw.go.jp/43/index.php?action_kouhyou_detail_004_kani=true&JigyosyoCd=4370115364-00&ServiceCd=170&Type=search", "url2": "http://dan-inc.co.jp" }, "geometry": { "type": "Point", "coordinates": [ 130.7179363, 32.8454524 ] } },
{ "type": "Feature", "properties": { "内容": "株式会社エヴァ・ライフ　ベストケア北熊本【福祉用具貸与】熊本市北区植木町鐙田1543-3", "url": "https://www.kaigokensaku.mhlw.go.jp/43/index.php?action_kouhyou_detail_004_kani=true&JigyosyoCd=4370114151-00&ServiceCd=170&Type=search", "url2": "evahlife.jp" }, "geometry": { "type": "Point", "coordinates": [ 130.7009131, 32.8764441 ] } },
{ "type": "Feature", "properties": { "内容": "株式会社　介助　熊本営業所【福祉用具貸与】熊本県熊本市北区下硯川2-9-11", "url": "https://www.kaigokensaku.mhlw.go.jp/43/index.php?action_kouhyou_detail_004_kani=true&JigyosyoCd=4370107882-00&ServiceCd=170&Type=search", "url2": null }, "geometry": { "type": "Point", "coordinates": [ 130.707796499999972, 32.8519515 ] } },
{ "type": "Feature", "properties": { "内容": "有限会社　田中商店【福祉用具貸与】熊本県熊本市北区植木町正清５３６", "url": "https://www.kaigokensaku.mhlw.go.jp/43/index.php?action_kouhyou_detail_004_kani=true&JigyosyoCd=4372500456-00&ServiceCd=170&Type=search", "url2": "tanaka0813@.cup.ocn.ne.jp" }, "geometry": { "type": "Point", "coordinates": [ 130.717969, 32.962856 ] } },
{ "type": "Feature", "properties": { "内容": "NPO法人　サークルフェスタ【福祉用具貸与】熊本県八代市新町６番１８号", "url": "https://www.kaigokensaku.mhlw.go.jp/43/index.php?action_kouhyou_detail_004_kani=true&JigyosyoCd=4370202402-00&ServiceCd=170&Type=search", "url2": null }, "geometry": { "type": "Point", "coordinates": [ 130.607104099999987, 32.5067347 ] } },
{ "type": "Feature", "properties": { "内容": "ケアパーク福祉用具レンタル事業所【福祉用具貸与】熊本県八代市上日置町4298-5", "url": "https://www.kaigokensaku.mhlw.go.jp/43/index.php?action_kouhyou_detail_004_kani=true&JigyosyoCd=4370200125-00&ServiceCd=170&Type=search", "url2": "http://www.care-park.com/" }, "geometry": { "type": "Point", "coordinates": [ 130.641237451512097, 32.52199457833337 ] } },
{ "type": "Feature", "properties": { "内容": "介護用品まんてん【福祉用具貸与】熊本県八代市北の丸町３－５０", "url": "https://www.kaigokensaku.mhlw.go.jp/43/index.php?action_kouhyou_detail_004_kani=true&JigyosyoCd=4370200620-00&ServiceCd=170&Type=search", "url2": "https://www.sirasagi-care.co.jp/" }, "geometry": { "type": "Point", "coordinates": [ 130.595477, 32.5099116 ] } },
{ "type": "Feature", "properties": { "内容": "株式会社福祉サービス熊本【福祉用具貸与】熊本県八代市田中町573-8", "url": "https://www.kaigokensaku.mhlw.go.jp/43/index.php?action_kouhyou_detail_004_kani=true&JigyosyoCd=4370200992-00&ServiceCd=170&Type=search", "url2": "http://fukusinosatoyatusiro.jimdo.com/" }, "geometry": { "type": "Point", "coordinates": [ 130.60663169999998, 32.5170283 ] } },
{ "type": "Feature", "properties": { "内容": "かがやき園福祉用具レンタル事業所【福祉用具貸与】熊本県八代市通町8番30号", "url": "https://www.kaigokensaku.mhlw.go.jp/43/index.php?action_kouhyou_detail_004_kani=true&JigyosyoCd=4370201842-00&ServiceCd=170&Type=search", "url2": null }, "geometry": { "type": "Point", "coordinates": [ 130.603877511639439, 32.506953292146953 ] } },
{ "type": "Feature", "properties": { "内容": "エニータイム【福祉用具貸与】萩原町１丁目３番地３０号", "url": "https://www.kaigokensaku.mhlw.go.jp/43/index.php?action_kouhyou_detail_004_kani=true&JigyosyoCd=4370202253-00&ServiceCd=170&Type=search", "url2": "https://www.any-time.co.jp" }, "geometry": { "type": "Point", "coordinates": [ 130.620758900000027, 32.5027414 ] } },
{ "type": "Feature", "properties": { "内容": "福祉用具たんぽぽ【福祉用具貸与】熊本県八代市上日置町2389番地", "url": "https://www.kaigokensaku.mhlw.go.jp/43/index.php?action_kouhyou_detail_004_kani=true&JigyosyoCd=4370202816-00&ServiceCd=170&Type=search", "url2": null }, "geometry": { "type": "Point", "coordinates": [ 130.619975299999965, 32.5125821 ] } },
{ "type": "Feature", "properties": { "内容": "栄幸株式会社【福祉用具貸与】熊本県八代市海士江町2276番地", "url": "https://www.kaigokensaku.mhlw.go.jp/43/index.php?action_kouhyou_detail_004_kani=true&JigyosyoCd=4370202824-00&ServiceCd=170&Type=search", "url2": null }, "geometry": { "type": "Point", "coordinates": [ 130.625313431877203, 32.529272518472609 ] } },
{ "type": "Feature", "properties": { "内容": "サニーデイズ【福祉用具貸与】熊本県八代市松江城町3番28号", "url": "https://www.kaigokensaku.mhlw.go.jp/43/index.php?action_kouhyou_detail_004_kani=true&JigyosyoCd=4370203343-00&ServiceCd=170&Type=search", "url2": null }, "geometry": { "type": "Point", "coordinates": [ 130.601090838132848, 32.505723578287942 ] } },
{ "type": "Feature", "properties": { "内容": "ミタカトライブ株式会社【福祉用具貸与】熊本県八代市宮地町1577番地1", "url": "https://www.kaigokensaku.mhlw.go.jp/43/index.php?action_kouhyou_detail_004_kani=true&JigyosyoCd=4370203418-00&ServiceCd=170&Type=search", "url2": "https://t-mitaka.com" }, "geometry": { "type": "Point", "coordinates": [ 130.635617200000013, 32.5013955 ] } },
{ "type": "Feature", "properties": { "内容": "千広　八代営業所【福祉用具貸与】熊本県八代市新町3-10", "url": "https://www.kaigokensaku.mhlw.go.jp/43/index.php?action_kouhyou_detail_004_kani=true&JigyosyoCd=4370203350-00&ServiceCd=170&Type=search", "url2": "https://home-health.chihiro-fukushi.jp/" }, "geometry": { "type": "Point", "coordinates": [ 130.6103779, 32.5068305 ] } },
{ "type": "Feature", "properties": { "内容": "ヨシズミ【福祉用具貸与】熊本県八代市弥生町15-10", "url": "https://www.kaigokensaku.mhlw.go.jp/43/index.php?action_kouhyou_detail_004_kani=true&JigyosyoCd=4370200919-00&ServiceCd=170&Type=search", "url2": "https://yoshizumi02.jp/" }, "geometry": { "type": "Point", "coordinates": [ 130.60660882209018, 32.50328718621347 ] } },
{ "type": "Feature", "properties": { "内容": "株式会社大夢【福祉用具貸与】熊本県八代市古城町2568番地1", "url": "https://www.kaigokensaku.mhlw.go.jp/43/index.php?action_kouhyou_detail_004_kani=true&JigyosyoCd=4370202386-00&ServiceCd=170&Type=search", "url2": null }, "geometry": { "type": "Point", "coordinates": [ 130.5912945, 32.4941571 ] } },
{ "type": "Feature", "properties": { "内容": "福祉用具レンタルＡＴＳ【福祉用具貸与】熊本県八代市郡築三番町81-2チェリーブロッサムⅡ105", "url": "https://www.kaigokensaku.mhlw.go.jp/43/index.php?action_kouhyou_detail_004_kani=true&JigyosyoCd=4370203475-00&ServiceCd=170&Type=search", "url2": "https://hc-b.com" }, "geometry": { "type": "Point", "coordinates": [ 130.5673887, 32.5246499 ] } },
{ "type": "Feature", "properties": { "内容": "福祉用具の店　にじいろ【福祉用具貸与】熊本県人吉市鬼木町字芦原699番地1ヴィラヴェルデ　103", "url": "https://www.kaigokensaku.mhlw.go.jp/43/index.php?action_kouhyou_detail_004_kani=true&JigyosyoCd=4370301345-00&ServiceCd=170&Type=search", "url2": null }, "geometry": { "type": "Point", "coordinates": [ 130.764953703136257, 32.225376395580057 ] } },
{ "type": "Feature", "properties": { "内容": "株式会社　ホワシ　人吉営業所【福祉用具貸与】熊本県人吉市寺町21番1号", "url": "https://www.kaigokensaku.mhlw.go.jp/43/index.php?action_kouhyou_detail_004_kani=true&JigyosyoCd=4370301188-00&ServiceCd=170&Type=search", "url2": "www.howashi.jp" }, "geometry": { "type": "Point", "coordinates": [ 130.761029600000029, 32.20946 ] } },
{ "type": "Feature", "properties": { "内容": "株式会社ケアメイト【福祉用具貸与】熊本県人吉市下原田町字瓜生田1109", "url": "https://www.kaigokensaku.mhlw.go.jp/43/index.php?action_kouhyou_detail_004_kani=true&JigyosyoCd=4370301360-00&ServiceCd=170&Type=search", "url2": null }, "geometry": { "type": "Point", "coordinates": [ 130.7177581, 32.2310529 ] } },
{ "type": "Feature", "properties": { "内容": "荒尾介護システム　サービス事業部【福祉用具貸与】熊本県荒尾市原万田696番地9", "url": "https://www.kaigokensaku.mhlw.go.jp/43/index.php?action_kouhyou_detail_004_kani=true&JigyosyoCd=4370400691-00&ServiceCd=170&Type=search", "url2": null }, "geometry": { "type": "Point", "coordinates": [ 130.438471700000036, 33.0019756 ] } },
{ "type": "Feature", "properties": { "内容": "有限会社　ミムラ・ヒューマンケア【福祉用具貸与】熊本県荒尾市川登１８６３―４１４", "url": "https://www.kaigokensaku.mhlw.go.jp/43/index.php?action_kouhyou_detail_004_kani=true&JigyosyoCd=4370400568-00&ServiceCd=170&Type=search", "url2": "https://www.mimura-humancare.com" }, "geometry": { "type": "Point", "coordinates": [ 130.469778200000064, 32.9729347 ] } },
{ "type": "Feature", "properties": { "内容": "株式会社ホワシ　荒尾営業所【福祉用具貸与】熊本県荒尾市金山字三ツ枝1422番地1", "url": "https://www.kaigokensaku.mhlw.go.jp/43/index.php?action_kouhyou_detail_004_kani=true&JigyosyoCd=4370401384-00&ServiceCd=170&Type=search", "url2": "https://www.howashi.jp" }, "geometry": { "type": "Point", "coordinates": [ 130.504568116279671, 32.943997437520167 ] } },
{ "type": "Feature", "properties": { "内容": "ケアパーク水俣【福祉用具貸与】熊本県水俣市汐見町１丁目９９－２", "url": "https://www.kaigokensaku.mhlw.go.jp/43/index.php?action_kouhyou_detail_004_kani=true&JigyosyoCd=4370500532-00&ServiceCd=170&Type=search", "url2": "http://www.care-park.com/" }, "geometry": { "type": "Point", "coordinates": [ 130.385327291571031, 32.201297071089208 ] } },
{ "type": "Feature", "properties": { "内容": "福祉用具のライフ【福祉用具貸与】熊本県水俣市古賀町２丁目６番16号", "url": "https://www.kaigokensaku.mhlw.go.jp/43/index.php?action_kouhyou_detail_004_kani=true&JigyosyoCd=4370500995-00&ServiceCd=170&Type=search", "url2": "https://life-minamata.com/" }, "geometry": { "type": "Point", "coordinates": [ 130.462512800000013, 33.7240602 ] } },
{ "type": "Feature", "properties": { "内容": "ほほえみ介護サービス【福祉用具貸与】熊本県玉名市繁根木２５９－１８", "url": "https://www.kaigokensaku.mhlw.go.jp/43/index.php?action_kouhyou_detail_004_kani=true&JigyosyoCd=4370600993-00&ServiceCd=170&Type=search", "url2": null }, "geometry": { "type": "Point", "coordinates": [ 130.555920799999967, 32.9262624 ] } },
{ "type": "Feature", "properties": { "内容": "株式会社　サークルケア【福祉用具貸与】熊本県玉名市伊倉北方39番地1", "url": "https://www.kaigokensaku.mhlw.go.jp/43/index.php?action_kouhyou_detail_004_kani=true&JigyosyoCd=4370601132-00&ServiceCd=170&Type=search", "url2": null }, "geometry": { "type": "Point", "coordinates": [ 130.567524345504836, 32.906686419014711 ] } },
{ "type": "Feature", "properties": { "内容": "有限会社　三栄商会（サンエイメディカル）【福祉用具貸与】熊本県山鹿市中央通４０６", "url": "https://www.kaigokensaku.mhlw.go.jp/43/index.php?action_kouhyou_detail_004_kani=true&JigyosyoCd=4370800346-00&ServiceCd=170&Type=search", "url2": "http://www.sanei-medical.co.jp" }, "geometry": { "type": "Point", "coordinates": [ 130.684356799999932, 33.0155946 ] } },
{ "type": "Feature", "properties": { "内容": "プラスケア　山鹿【福祉用具貸与】熊本県山鹿市方保田３６７４－１", "url": "https://www.kaigokensaku.mhlw.go.jp/43/index.php?action_kouhyou_detail_004_kani=true&JigyosyoCd=4370800957-00&ServiceCd=170&Type=search", "url2": "pluscare2002.co.jp" }, "geometry": { "type": "Point", "coordinates": [ 130.719453318276919, 33.004910054815568 ] } },
{ "type": "Feature", "properties": { "内容": "アイアル・ケア【福祉用具貸与】熊本県山鹿市久原3981-2", "url": "https://www.kaigokensaku.mhlw.go.jp/43/index.php?action_kouhyou_detail_004_kani=true&JigyosyoCd=4370800510-00&ServiceCd=170&Type=search", "url2": null }, "geometry": { "type": "Point", "coordinates": [ 130.7131789, 33.019506 ] } },
{ "type": "Feature", "properties": { "内容": "ベストケア山鹿【福祉用具貸与】熊本県山鹿市古閑1282-1", "url": "https://www.kaigokensaku.mhlw.go.jp/43/index.php?action_kouhyou_detail_004_kani=true&JigyosyoCd=4370107817-00&ServiceCd=170&Type=search", "url2": "http://evahlife.jp" }, "geometry": { "type": "Point", "coordinates": [ 130.709765599999969, 33.0086125 ] } },
{ "type": "Feature", "properties": { "内容": "株式会社タートル【福祉用具貸与】熊本県菊池市隈府279", "url": "https://www.kaigokensaku.mhlw.go.jp/43/index.php?action_kouhyou_detail_004_kani=true&JigyosyoCd=4371000599-00&ServiceCd=170&Type=search", "url2": "http://www3.ocn.ne.jp/~turtle" }, "geometry": { "type": "Point", "coordinates": [ 130.808636, 32.9813661 ] } },
{ "type": "Feature", "properties": { "内容": "ライフサポート　煌【福祉用具貸与】住吉町3074番地", "url": "https://www.kaigokensaku.mhlw.go.jp/43/index.php?action_kouhyou_detail_004_kani=true&JigyosyoCd=4371100787-00&ServiceCd=170&Type=search", "url2": "kirameki@star.ocn.ne.jp" }, "geometry": { "type": "Point", "coordinates": [ 130.583058067493766, 32.702938575347495 ] } },
{ "type": "Feature", "properties": { "内容": "ケアパーク熊本南店【福祉用具貸与】熊本県宇土市松山町９３７番地１", "url": "https://www.kaigokensaku.mhlw.go.jp/43/index.php?action_kouhyou_detail_004_kani=true&JigyosyoCd=4371100902-00&ServiceCd=170&Type=search", "url2": "http://www.care-park.com/" }, "geometry": { "type": "Point", "coordinates": [ 130.66952660000004, 32.6732309 ] } },
{ "type": "Feature", "properties": { "内容": "株式会社ライフ【福祉用具貸与】熊本県宇土市立岡町541番地3", "url": "https://www.kaigokensaku.mhlw.go.jp/43/index.php?action_kouhyou_detail_004_kani=true&JigyosyoCd=4371100944-00&ServiceCd=170&Type=search", "url2": null }, "geometry": { "type": "Point", "coordinates": [ 130.684604164804114, 32.675426773719884 ] } },
{ "type": "Feature", "properties": { "内容": "有限会社　さかがわ【福祉用具貸与】熊本県上天草市龍ヶ岳町１２３７－１５番地", "url": "https://www.kaigokensaku.mhlw.go.jp/43/index.php?action_kouhyou_detail_004_kani=true&JigyosyoCd=4373200684-00&ServiceCd=170&Type=search", "url2": "amakusa.care" }, "geometry": { "type": "Point", "coordinates": [ 130.389594, 32.3935355 ] } },
{ "type": "Feature", "properties": { "内容": "株式会社こころ【福祉用具貸与】熊本県上天草市松島町合津3433-70", "url": "https://www.kaigokensaku.mhlw.go.jp/43/index.php?action_kouhyou_detail_004_kani=true&JigyosyoCd=4371200298-00&ServiceCd=170&Type=search", "url2": null }, "geometry": { "type": "Point", "coordinates": [ 130.427465399999988, 32.5083875 ] } },
{ "type": "Feature", "properties": { "内容": "有限会社ひまわり【福祉用具貸与】熊本県宇城市松橋町東松崎602番地", "url": "https://www.kaigokensaku.mhlw.go.jp/43/index.php?action_kouhyou_detail_004_kani=true&JigyosyoCd=4372300915-00&ServiceCd=170&Type=search", "url2": null }, "geometry": { "type": "Point", "coordinates": [ 130.671308, 32.6438165 ] } },
{ "type": "Feature", "properties": { "内容": "ケアーズ・イン【福祉用具貸与】熊本県阿蘇市狩尾240番地2", "url": "https://www.kaigokensaku.mhlw.go.jp/43/index.php?action_kouhyou_detail_004_kani=true&JigyosyoCd=4372701104-00&ServiceCd=170&Type=search", "url2": null }, "geometry": { "type": "Point", "coordinates": [ 131.030415799999986, 32.9549488 ] } },
{ "type": "Feature", "properties": { "内容": "有限会社　福吉商会【福祉用具貸与】熊本県天草市中央新町６－６", "url": "https://www.kaigokensaku.mhlw.go.jp/43/index.php?action_kouhyou_detail_004_kani=true&JigyosyoCd=4370700538-00&ServiceCd=170&Type=search", "url2": null }, "geometry": { "type": "Point", "coordinates": [ 130.190568900000017, 32.4566488 ] } },
{ "type": "Feature", "properties": { "内容": "ダスキンヘルスレント天草ステーション【福祉用具貸与】熊本県天草市北原町1番19号", "url": "https://www.kaigokensaku.mhlw.go.jp/43/index.php?action_kouhyou_detail_004_kani=true&JigyosyoCd=4370700652-00&ServiceCd=170&Type=search", "url2": "http://healthrent.duskin.jp/" }, "geometry": { "type": "Point", "coordinates": [ 130.188554699999941, 32.4651452 ] } },
{ "type": "Feature", "properties": { "内容": "株式会社　優愛らいふ・ケア【福祉用具貸与】熊本県天草市亀場町亀川１４２－１０", "url": "https://www.kaigokensaku.mhlw.go.jp/43/index.php?action_kouhyou_detail_004_kani=true&JigyosyoCd=4371500309-00&ServiceCd=170&Type=search", "url2": null }, "geometry": { "type": "Point", "coordinates": [ 130.200799299999971, 32.4450776 ] } },
{ "type": "Feature", "properties": { "内容": "株式会社シルバーレスキュー【福祉用具貸与】熊本県天草市本渡町本渡2578-6", "url": "https://www.kaigokensaku.mhlw.go.jp/43/index.php?action_kouhyou_detail_004_kani=true&JigyosyoCd=4371501067-00&ServiceCd=170&Type=search", "url2": "https://silver-rescue.com/" }, "geometry": { "type": "Point", "coordinates": [ 130.179439699999989, 32.4569466 ] } },
{ "type": "Feature", "properties": { "内容": "株式会社ミタカ　天草営業所【福祉用具貸与】熊本県天草市楠浦町字新田10263-4", "url": "https://www.kaigokensaku.mhlw.go.jp/43/index.php?action_kouhyou_detail_004_kani=true&JigyosyoCd=4370700322-00&ServiceCd=170&Type=search", "url2": "http://www.t-mitaka.com" }, "geometry": { "type": "Point", "coordinates": [ 130.203561253839581, 32.433560943128654 ] } },
{ "type": "Feature", "properties": { "内容": "天草介護【福祉用具貸与】熊本県天草市有明町上津浦1370番地1", "url": "https://www.kaigokensaku.mhlw.go.jp/43/index.php?action_kouhyou_detail_004_kani=true&JigyosyoCd=4371500853-00&ServiceCd=170&Type=search", "url2": null }, "geometry": { "type": "Point", "coordinates": [ 130.29446081957397, 32.495742052673393 ] } },
{ "type": "Feature", "properties": { "内容": "QCC天草【福祉用具貸与】熊本県天草市今釜新町3559", "url": "https://www.kaigokensaku.mhlw.go.jp/43/index.php?action_kouhyou_detail_004_kani=true&JigyosyoCd=4371501000-00&ServiceCd=170&Type=search", "url2": null }, "geometry": { "type": "Point", "coordinates": [ 130.196942900000067, 32.4598729 ] } },
{ "type": "Feature", "properties": { "内容": "有限会社三協車椅子製作所【福祉用具貸与】合志市須屋2126-5", "url": "https://www.kaigokensaku.mhlw.go.jp/43/index.php?action_kouhyou_detail_004_kani=true&JigyosyoCd=4370101174-00&ServiceCd=170&Type=search", "url2": "http://sankyo-wheelchair.jp" }, "geometry": { "type": "Point", "coordinates": [ 130.733875200000057, 32.870217 ] } },
{ "type": "Feature", "properties": { "内容": "株式会社　熊本介護【福祉用具貸与】豊岡２０００番地１８７", "url": "https://www.kaigokensaku.mhlw.go.jp/43/index.php?action_kouhyou_detail_004_kani=true&JigyosyoCd=4371600190-00&ServiceCd=170&Type=search", "url2": null }, "geometry": { "type": "Point", "coordinates": [ 130.762989699999906, 32.8774441 ] } },
{ "type": "Feature", "properties": { "内容": "合同会社メディケアライフ【福祉用具貸与】熊本県合志市須屋345番地12", "url": "https://www.kaigokensaku.mhlw.go.jp/43/index.php?action_kouhyou_detail_004_kani=true&JigyosyoCd=4371600851-00&ServiceCd=170&Type=search", "url2": null }, "geometry": { "type": "Point", "coordinates": [ 130.7411998, 32.867238 ] } },
{ "type": "Feature", "properties": { "内容": "スペースケア熊本営業所【福祉用具貸与】熊本県菊池郡大津町高尾野9-1", "url": "https://www.kaigokensaku.mhlw.go.jp/43/index.php?action_kouhyou_detail_004_kani=true&JigyosyoCd=4372601940-00&ServiceCd=170&Type=search", "url2": "https://www.spacecare.co.jp" }, "geometry": { "type": "Point", "coordinates": [ 130.901544368343679, 32.890766455218589 ] } },
{ "type": "Feature", "properties": { "内容": "株式会社　リニエルサプライ【福祉用具貸与】熊本県菊池郡大津町大津1438-9", "url": "https://www.kaigokensaku.mhlw.go.jp/43/index.php?action_kouhyou_detail_004_kani=true&JigyosyoCd=4372600579-00&ServiceCd=170&Type=search", "url2": "https://www.linaire-supply.jp" }, "geometry": { "type": "Point", "coordinates": [ 130.871391588221741, 32.879688547504784 ] } },
{ "type": "Feature", "properties": { "内容": "りん【福祉用具貸与】熊本県菊池郡大津町森729-41ヒルサイド大津A-101", "url": "https://www.kaigokensaku.mhlw.go.jp/43/index.php?action_kouhyou_detail_004_kani=true&JigyosyoCd=4372602286-00&ServiceCd=170&Type=search", "url2": null }, "geometry": { "type": "Point", "coordinates": [ 130.8937158, 32.876873 ] } },
{ "type": "Feature", "properties": { "内容": "株式会社　愛夢【福祉用具貸与】熊本県菊池郡菊陽町大字津久礼１７３番地１２タウンハウスシンフォニー１０２号", "url": "https://www.kaigokensaku.mhlw.go.jp/43/index.php?action_kouhyou_detail_004_kani=true&JigyosyoCd=4372601817-00&ServiceCd=170&Type=search", "url2": null }, "geometry": { "type": "Point", "coordinates": [ 130.8248069, 32.8618261 ] } },
{ "type": "Feature", "properties": { "内容": "介護の太助　熊本店【福祉用具貸与】熊本県菊池郡菊陽町津久礼8-5un・deux201号", "url": "https://www.kaigokensaku.mhlw.go.jp/43/index.php?action_kouhyou_detail_004_kani=true&JigyosyoCd=4372602187-00&ServiceCd=170&Type=search", "url2": "https://kaigo-tasuke.co.jp/" }, "geometry": { "type": "Point", "coordinates": [ 130.815080287810389, 32.861373181707407 ] } },
{ "type": "Feature", "properties": { "内容": "有限会社ベストライフ福祉用具サービス【福祉用具貸与】熊本県菊池郡菊陽町花立1丁目5番30号", "url": "https://www.kaigokensaku.mhlw.go.jp/43/index.php?action_kouhyou_detail_004_kani=true&JigyosyoCd=4372602328-00&ServiceCd=170&Type=search", "url2": "https://bestlife1165.com/facility/kikuyou/" }, "geometry": { "type": "Point", "coordinates": [ 130.756000079584794, 32.860284500336526 ] } },
{ "type": "Feature", "properties": { "内容": "株式会社宮崎ヒューマンサービス熊本営業所【福祉用具貸与】熊本県阿蘇郡高森町高森2164-4", "url": "https://www.kaigokensaku.mhlw.go.jp/43/index.php?action_kouhyou_detail_004_kani=true&JigyosyoCd=4372701518-00&ServiceCd=170&Type=search", "url2": "http://www.miyazaki-human.co.jp/" }, "geometry": { "type": "Point", "coordinates": [ 131.122274299999958, 32.8261212 ] } },
{ "type": "Feature", "properties": { "内容": "ダスキンヘルスレント熊本南ステーション【福祉用具貸与】熊本県上益城郡御船町大字豊秋字田代畑588番地", "url": "https://www.kaigokensaku.mhlw.go.jp/43/index.php?action_kouhyou_detail_004_kani=true&JigyosyoCd=4372802225-00&ServiceCd=170&Type=search", "url2": "https://healthrent.duskin.jp/" }, "geometry": { "type": "Point", "coordinates": [ 130.7690641, 32.7269533 ] } },
{ "type": "Feature", "properties": { "内容": "株式会社　ミタカ【福祉用具貸与】熊本県上益城郡嘉島町上仲間850番地2", "url": "https://www.kaigokensaku.mhlw.go.jp/43/index.php?action_kouhyou_detail_004_kani=true&JigyosyoCd=4372800328-00&ServiceCd=170&Type=search", "url2": "http://www.t-mitaka.com" }, "geometry": { "type": "Point", "coordinates": [ 130.736319, 32.742775699999989 ] } },
{ "type": "Feature", "properties": { "内容": "ダスキンヘルスレント熊本ステーション【福祉用具貸与】熊本県上益城郡益城町惣領1861-3物流センター２F", "url": "https://www.kaigokensaku.mhlw.go.jp/43/index.php?action_kouhyou_detail_004_kani=true&JigyosyoCd=4370106439-00&ServiceCd=170&Type=search", "url2": "http://healthrent.duskin.jp/" }, "geometry": { "type": "Point", "coordinates": [ 130.7983527, 32.7961161 ] } },
{ "type": "Feature", "properties": { "内容": "福祉用具事業所颯真【福祉用具貸与】熊本県上益城郡益城町福富652サンリッチT-D棟", "url": "https://www.kaigokensaku.mhlw.go.jp/43/index.php?action_kouhyou_detail_004_kani=true&JigyosyoCd=4372802142-00&ServiceCd=170&Type=search", "url2": "https://soshin-care.co.jp/" }, "geometry": { "type": "Point", "coordinates": [ 130.79713240000001, 32.7808939 ] } },
{ "type": "Feature", "properties": { "内容": "福祉用具事業所アンド【福祉用具貸与】熊本県上益城郡益城町惣領1458番地5", "url": "https://www.kaigokensaku.mhlw.go.jp/43/index.php?action_kouhyou_detail_004_kani=true&JigyosyoCd=4372802126-00&ServiceCd=170&Type=search", "url2": "https://www.big-advance.site/c/156/2158" }, "geometry": { "type": "Point", "coordinates": [ 130.8029165, 32.7863264 ] } },
{ "type": "Feature", "properties": { "内容": "有限会社　コーセイ商事【福祉用具貸与】熊本県上益城郡甲佐町大字岩下123-3", "url": "https://www.kaigokensaku.mhlw.go.jp/43/index.php?action_kouhyou_detail_004_kani=true&JigyosyoCd=4372800476-00&ServiceCd=170&Type=search", "url2": "http://cosei-pharmacy.com/" }, "geometry": { "type": "Point", "coordinates": [ 130.809718500000031, 32.6508883 ] } },
{ "type": "Feature", "properties": { "内容": "山都介護ｻｰﾋﾞｽ【福祉用具貸与】馬見原794番地8号", "url": "https://www.kaigokensaku.mhlw.go.jp/43/index.php?action_kouhyou_detail_004_kani=true&JigyosyoCd=4372801490-00&ServiceCd=170&Type=search", "url2": null }, "geometry": { "type": "Point", "coordinates": [ 131.160959899999966, 32.6825474 ] } },
{ "type": "Feature", "properties": { "内容": "有限会社大福屋【福祉用具貸与】熊本県葦北郡芦北町大字芦北2313番地4", "url": "https://www.kaigokensaku.mhlw.go.jp/43/index.php?action_kouhyou_detail_004_kani=true&JigyosyoCd=4373000571-00&ServiceCd=170&Type=search", "url2": null }, "geometry": { "type": "Point", "coordinates": [ 130.493850299999963, 32.291594800000034 ] } },
{ "type": "Feature", "properties": { "内容": "ハートケア熊本【福祉用具貸与】大字花岡1661-1", "url": "https://www.kaigokensaku.mhlw.go.jp/43/index.php?action_kouhyou_detail_004_kani=true&JigyosyoCd=4373000753-00&ServiceCd=170&Type=search", "url2": "https://nansyu-m.co.jp/" }, "geometry": { "type": "Point", "coordinates": [ 130.495443900000026, 32.3025771 ] } },
{ "type": "Feature", "properties": { "内容": "池田メディカル【福祉用具貸与】熊本県球磨郡多良木町黒肥地2038-3", "url": "https://www.kaigokensaku.mhlw.go.jp/43/index.php?action_kouhyou_detail_004_kani=true&JigyosyoCd=4373100991-00&ServiceCd=170&Type=search", "url2": null }, "geometry": { "type": "Point", "coordinates": [ 130.94181947301638, 32.276061255376355 ] } },
{ "type": "Feature", "properties": { "内容": "福祉用具寿楽【福祉用具貸与】熊本県球磨郡多良木町大字多良木１３８８番地２ヤマダビル", "url": "https://www.kaigokensaku.mhlw.go.jp/43/index.php?action_kouhyou_detail_004_kani=true&JigyosyoCd=4373101569-00&ServiceCd=170&Type=search", "url2": "https://www.juraku4jp.com/" }, "geometry": { "type": "Point", "coordinates": [ 130.933297, 32.2601424 ] } },
{ "type": "Feature", "properties": { "内容": "株式会社　心優【福祉用具貸与】熊本県球磨郡多良木町大字多良木1007番地", "url": "https://www.kaigokensaku.mhlw.go.jp/43/index.php?action_kouhyou_detail_004_kani=true&JigyosyoCd=4373101189-00&ServiceCd=170&Type=search", "url2": "http://k-shinyu.jimdo.com" }, "geometry": { "type": "Point", "coordinates": [ 130.937019362135288, 32.260531454750357 ] } },
{ "type": "Feature", "properties": { "内容": "有限会社久保田自動車【福祉用具貸与】熊本県球磨郡水上村大字岩野１２１番地１", "url": "https://www.kaigokensaku.mhlw.go.jp/43/index.php?action_kouhyou_detail_004_kani=true&JigyosyoCd=4373101288-00&ServiceCd=170&Type=search", "url2": null }, "geometry": { "type": "Point", "coordinates": [ 131.008509658182675, 32.31378555143106 ] } },
{ "type": "Feature", "properties": { "内容": "株式会社　西金物店「泰西」【福祉用具貸与】熊本県球磨郡あさぎり町免田東5040-1", "url": "https://www.kaigokensaku.mhlw.go.jp/43/index.php?action_kouhyou_detail_004_kani=true&JigyosyoCd=4373100827-00&ServiceCd=170&Type=search", "url2": "http://nisi-kanamono.com/" }, "geometry": { "type": "Point", "coordinates": [ 130.918607922352379, 32.251036388886376 ] } },
{ "type": "Feature", "properties": { "内容": "清風ハートピア【福祉用具貸与】熊本県球磨郡あさぎり町免田西2664-16", "url": "https://www.kaigokensaku.mhlw.go.jp/43/index.php?action_kouhyou_detail_004_kani=true&JigyosyoCd=4373100611-00&ServiceCd=170&Type=search", "url2": "http://www.seifu.co.jp" }, "geometry": { "type": "Point", "coordinates": [ 130.870425965768902, 32.223438718736084 ] } },
{ "type": "Feature", "properties": { "内容": "有限会社　シー・エス商会【福祉用具貸与】熊本県天草郡苓北町志岐702番地1", "url": "https://www.kaigokensaku.mhlw.go.jp/43/index.php?action_kouhyou_detail_004_kani=true&JigyosyoCd=4373201104-00&ServiceCd=170&Type=search", "url2": null }, "geometry": { "type": "Point", "coordinates": [ 130.050240499999973, 32.5126064 ] } }
]
}
