{
"type": "FeatureCollection",
"name": "geo_43_幼保連携型認定こども園",
"crs": { "type": "name", "properties": { "name": "urn:ogc:def:crs:EPSG::6668" } },
"features": [
{ "type": "Feature", "properties": { "P29_001": "43208", "P29_002": "A243210000019", "P29_003": "16013", "P29_004": "山鹿市立鹿本こども園", "P29_005": "熊本県山鹿市鹿本町御宇田202-5", "P29_006": "3", "P29_007": "0", "P29_008": "00", "P29_009": null }, "geometry": { "type": "Point", "coordinates": [ 130.736586521757488, 33.0047978948419 ] } },
{ "type": "Feature", "properties": { "P29_001": "43101", "P29_002": "A243310000017", "P29_003": "16013", "P29_004": "幼保連携型認定こども園九州学院みどり幼稚園", "P29_005": "熊本県熊本市中央区大江5-3-36", "P29_006": "4", "P29_007": "0", "P29_008": "00", "P29_009": null }, "geometry": { "type": "Point", "coordinates": [ 130.721273995618844, 32.797147999707498 ] } },
{ "type": "Feature", "properties": { "P29_001": "43101", "P29_002": "A243310000026", "P29_003": "16013", "P29_004": "認定こども園ルーテル学院幼稚園", "P29_005": "熊本県熊本市中央区黒髪3-12-16", "P29_006": "4", "P29_007": "0", "P29_008": "00", "P29_009": null }, "geometry": { "type": "Point", "coordinates": [ 130.723786135854368, 32.821568931704178 ] } },
{ "type": "Feature", "properties": { "P29_001": "43101", "P29_002": "A243310000035", "P29_003": "16013", "P29_004": "認定こども園神水幼稚園", "P29_005": "熊本県熊本市中央区神水1-14-1", "P29_006": "4", "P29_007": "0", "P29_008": "00", "P29_009": null }, "geometry": { "type": "Point", "coordinates": [ 130.741261165700507, 32.784652764361645 ] } },
{ "type": "Feature", "properties": { "P29_001": "43101", "P29_002": "A243310000044", "P29_003": "16013", "P29_004": "第一幼稚園", "P29_005": "熊本県熊本市中央区坪井4-20-22", "P29_006": "4", "P29_007": "0", "P29_008": "00", "P29_009": null }, "geometry": { "type": "Point", "coordinates": [ 130.716285251925427, 32.817135370791867 ] } },
{ "type": "Feature", "properties": { "P29_001": "43101", "P29_002": "A243310000053", "P29_003": "16013", "P29_004": "認定こども園東海大学付属かもめ幼稚園", "P29_005": "熊本県熊本市中央区帯山7-13-41", "P29_006": "4", "P29_007": "0", "P29_008": "00", "P29_009": null }, "geometry": { "type": "Point", "coordinates": [ 130.756977585521781, 32.806970832829911 ] } },
{ "type": "Feature", "properties": { "P29_001": "43102", "P29_002": "A243310000062", "P29_003": "16013", "P29_004": "認定こども園めぐみ幼稚園", "P29_005": "熊本県熊本市東区水源2-2-1", "P29_006": "4", "P29_007": "0", "P29_008": "00", "P29_009": null }, "geometry": { "type": "Point", "coordinates": [ 130.75789930681907, 32.775925327803101 ] } },
{ "type": "Feature", "properties": { "P29_001": "43102", "P29_002": "A243310000071", "P29_003": "16013", "P29_004": "幼保連携型認定こども園ことう", "P29_005": "熊本県熊本市東区湖東1-12-26", "P29_006": "4", "P29_007": "0", "P29_008": "00", "P29_009": null }, "geometry": { "type": "Point", "coordinates": [ 130.745830098551721, 32.780412828367844 ] } },
{ "type": "Feature", "properties": { "P29_001": "43102", "P29_002": "A243310000080", "P29_003": "16013", "P29_004": "幼保連携型認定こども園ことうだいに", "P29_005": "熊本県熊本市東区健軍3-36-14", "P29_006": "4", "P29_007": "0", "P29_008": "00", "P29_009": null }, "geometry": { "type": "Point", "coordinates": [ 130.760005003382162, 32.783505002818544 ] } },
{ "type": "Feature", "properties": { "P29_001": "43102", "P29_002": "A243310000099", "P29_003": "16013", "P29_004": "幼保連携型認定こども園にしばる", "P29_005": "熊本県熊本市東区新南部3-3-51", "P29_006": "4", "P29_007": "0", "P29_008": "00", "P29_009": null }, "geometry": { "type": "Point", "coordinates": [ 130.747852704570647, 32.811844759061771 ] } },
{ "type": "Feature", "properties": { "P29_001": "43102", "P29_002": "A243310000106", "P29_003": "16013", "P29_004": "幼保連携型認定こども園とうぶ", "P29_005": "熊本県熊本市東区花立5-4-93", "P29_006": "4", "P29_007": "0", "P29_008": "00", "P29_009": null }, "geometry": { "type": "Point", "coordinates": [ 130.771309239993343, 32.786442371025181 ] } },
{ "type": "Feature", "properties": { "P29_001": "43102", "P29_002": "A243310000115", "P29_003": "16013", "P29_004": "幼保連携型認定こども園くるみ幼稚園", "P29_005": "熊本県熊本市東区渡鹿8-1-18", "P29_006": "4", "P29_007": "0", "P29_008": "00", "P29_009": null }, "geometry": { "type": "Point", "coordinates": [ 130.740698999034038, 32.810337103558645 ] } },
{ "type": "Feature", "properties": { "P29_001": "43102", "P29_002": "A243310000124", "P29_003": "16013", "P29_004": "認定こども園エンゼル保育園", "P29_005": "熊本県熊本市東区佐土原1-22-20", "P29_006": "4", "P29_007": "0", "P29_008": "00", "P29_009": null }, "geometry": { "type": "Point", "coordinates": [ 130.775171866437972, 32.791595615738139 ] } },
{ "type": "Feature", "properties": { "P29_001": "43102", "P29_002": "A243310000133", "P29_003": "16013", "P29_004": "やまなみ", "P29_005": "熊本県熊本市東区戸島西2-3-50", "P29_006": "4", "P29_007": "0", "P29_008": "00", "P29_009": null }, "geometry": { "type": "Point", "coordinates": [ 130.78262507108974, 32.812254552912719 ] } },
{ "type": "Feature", "properties": { "P29_001": "43103", "P29_002": "A243310000142", "P29_003": "16013", "P29_004": "幼保連携型認定こども園西部音楽幼稚園", "P29_005": "熊本県熊本市西区中原町686", "P29_006": "4", "P29_007": "0", "P29_008": "00", "P29_009": null }, "geometry": { "type": "Point", "coordinates": [ 130.635572251464197, 32.769593206201975 ] } },
{ "type": "Feature", "properties": { "P29_001": "43103", "P29_002": "A243310000151", "P29_003": "16013", "P29_004": "幼保連携型認定こども園城山幼稚園", "P29_005": "熊本県熊本市西区城山大塘1-21-1", "P29_006": "4", "P29_007": "0", "P29_008": "00", "P29_009": null }, "geometry": { "type": "Point", "coordinates": [ 130.658776246253922, 32.779186886654067 ] } },
{ "type": "Feature", "properties": { "P29_001": "43103", "P29_002": "A243310000160", "P29_003": "16013", "P29_004": "幼保連携型認定こども園城山保育園", "P29_005": "熊本県熊本市西区上代6-9-1", "P29_006": "4", "P29_007": "0", "P29_008": "00", "P29_009": null }, "geometry": { "type": "Point", "coordinates": [ 130.665392230944008, 32.774920456604498 ] } },
{ "type": "Feature", "properties": { "P29_001": "43103", "P29_002": "A243310000179", "P29_003": "16013", "P29_004": "幼保連携型認定こども園芳野保育園", "P29_005": "熊本県熊本市西区河内町岳880", "P29_006": "4", "P29_007": "0", "P29_008": "00", "P29_009": null }, "geometry": { "type": "Point", "coordinates": [ 130.641547674733147, 32.832395947397906 ] } },
{ "type": "Feature", "properties": { "P29_001": "43104", "P29_002": "A243310000188", "P29_003": "16013", "P29_004": "田迎こども園", "P29_005": "熊本県熊本市南区良町1-22-1", "P29_006": "4", "P29_007": "0", "P29_008": "00", "P29_009": null }, "geometry": { "type": "Point", "coordinates": [ 130.726996241912246, 32.760355095236214 ] } },
{ "type": "Feature", "properties": { "P29_001": "43105", "P29_002": "A243310000197", "P29_003": "16013", "P29_004": "第二幼稚園", "P29_005": "熊本県熊本市北区清水東町10-45", "P29_006": "4", "P29_007": "0", "P29_008": "00", "P29_009": null }, "geometry": { "type": "Point", "coordinates": [ 130.728882965389971, 32.83882781317697 ] } },
{ "type": "Feature", "properties": { "P29_001": "43105", "P29_002": "A243310000204", "P29_003": "16013", "P29_004": "ほくぶ幼稚園", "P29_005": "熊本県熊本市北区鹿子木町356", "P29_006": "4", "P29_007": "0", "P29_008": "00", "P29_009": null }, "geometry": { "type": "Point", "coordinates": [ 130.699507857050406, 32.871635877454572 ] } },
{ "type": "Feature", "properties": { "P29_001": "43105", "P29_002": "A243310000213", "P29_003": "16013", "P29_004": "喜育こども園", "P29_005": "熊本県熊本市北区植木町一木43-2", "P29_006": "4", "P29_007": "0", "P29_008": "00", "P29_009": null }, "geometry": { "type": "Point", "coordinates": [ 130.689108822522002, 32.912369122603735 ] } },
{ "type": "Feature", "properties": { "P29_001": "43105", "P29_002": "A243310000222", "P29_003": "16013", "P29_004": "山東こども園", "P29_005": "熊本県熊本市北区植木町有泉829", "P29_006": "4", "P29_007": "0", "P29_008": "00", "P29_009": null }, "geometry": { "type": "Point", "coordinates": [ 130.708371892990101, 32.913849619561951 ] } },
{ "type": "Feature", "properties": { "P29_001": "43105", "P29_002": "A243310000231", "P29_003": "16013", "P29_004": "蓮の実こども園", "P29_005": "熊本県熊本市北区植木町植木343", "P29_006": "4", "P29_007": "0", "P29_008": "00", "P29_009": null }, "geometry": { "type": "Point", "coordinates": [ 130.690838151011945, 32.89192450825923 ] } },
{ "type": "Feature", "properties": { "P29_001": "43105", "P29_002": "A243310000240", "P29_003": "16013", "P29_004": "武蔵ヶ丘こども園", "P29_005": "熊本県熊本市北区武蔵ヶ丘5-15-8", "P29_006": "4", "P29_007": "0", "P29_008": "00", "P29_009": null }, "geometry": { "type": "Point", "coordinates": [ 130.771803948724823, 32.854152224854353 ] } },
{ "type": "Feature", "properties": { "P29_001": "43203", "P29_002": "A243310000259", "P29_003": "16013", "P29_004": "あいだこども園", "P29_005": "熊本県人吉市東間上町2789", "P29_006": "4", "P29_007": "0", "P29_008": "00", "P29_009": null }, "geometry": { "type": "Point", "coordinates": [ 130.765325860609124, 32.201348762563747 ] } },
{ "type": "Feature", "properties": { "P29_001": "43203", "P29_002": "A243310000268", "P29_003": "16013", "P29_004": "さざなみ保育園", "P29_005": "熊本県人吉市下戸越町1632-1", "P29_006": "4", "P29_007": "0", "P29_008": "00", "P29_009": null }, "geometry": { "type": "Point", "coordinates": [ 130.735589547175721, 32.205159218562926 ] } },
{ "type": "Feature", "properties": { "P29_001": "43203", "P29_002": "A243310000277", "P29_003": "16013", "P29_004": "せん月保育園", "P29_005": "熊本県人吉市矢黒町1602-1", "P29_006": "4", "P29_007": "0", "P29_008": "00", "P29_009": null }, "geometry": { "type": "Point", "coordinates": [ 130.735526680638827, 32.203789687780201 ] } },
{ "type": "Feature", "properties": { "P29_001": "43203", "P29_002": "A243310000286", "P29_003": "16013", "P29_004": "人吉こども園", "P29_005": "熊本県人吉市願成寺町956", "P29_006": "4", "P29_007": "0", "P29_008": "00", "P29_009": null }, "geometry": { "type": "Point", "coordinates": [ 130.771915358895626, 32.218008690930382 ] } },
{ "type": "Feature", "properties": { "P29_001": "43204", "P29_002": "A243310000295", "P29_003": "16013", "P29_004": "幼保連携型認定こども園みやじま幼稚園", "P29_005": "熊本県荒尾市万田918-1", "P29_006": "4", "P29_007": "0", "P29_008": "00", "P29_009": null }, "geometry": { "type": "Point", "coordinates": [ 130.439544750433669, 32.996507054629653 ] } },
{ "type": "Feature", "properties": { "P29_001": "43206", "P29_002": "A243310000302", "P29_003": "16013", "P29_004": "幼保連携型認定こども園岱明幼稚園", "P29_005": "熊本県玉名市岱明町大野下266-2", "P29_006": "4", "P29_007": "0", "P29_008": "00", "P29_009": null }, "geometry": { "type": "Point", "coordinates": [ 130.50372622226746, 32.914608055956037 ] } },
{ "type": "Feature", "properties": { "P29_001": "43206", "P29_002": "A243310000311", "P29_003": "16013", "P29_004": "認定こども園玉名ルーテル幼稚園", "P29_005": "熊本県玉名市繁根木21", "P29_006": "4", "P29_007": "0", "P29_008": "00", "P29_009": null }, "geometry": { "type": "Point", "coordinates": [ 130.556658038046407, 32.92994194515304 ] } },
{ "type": "Feature", "properties": { "P29_001": "43213", "P29_002": "A243310000320", "P29_003": "16013", "P29_004": "学校法人岡田学園認定こども園白梅幼稚園", "P29_005": "熊本県宇城市不知火町長崎2209-1", "P29_006": "4", "P29_007": "0", "P29_008": "00", "P29_009": null }, "geometry": { "type": "Point", "coordinates": [ 130.648552292438723, 32.649655373860028 ] } },
{ "type": "Feature", "properties": { "P29_001": "43213", "P29_002": "A243310000339", "P29_003": "16013", "P29_004": "肥後菊幼稚園", "P29_005": "熊本県宇城市松橋町萩尾2056", "P29_006": "4", "P29_007": "0", "P29_008": "00", "P29_009": null }, "geometry": { "type": "Point", "coordinates": [ 130.718951435375516, 32.664280246512021 ] } },
{ "type": "Feature", "properties": { "P29_001": "43216", "P29_002": "A243310000348", "P29_003": "16013", "P29_004": "合志こども園", "P29_005": "熊本県合志市幾久富1647-96", "P29_006": "4", "P29_007": "0", "P29_008": "00", "P29_009": null }, "geometry": { "type": "Point", "coordinates": [ 130.783358145450421, 32.871510752396489 ] } },
{ "type": "Feature", "properties": { "P29_001": "43203", "P29_002": "A243310000357", "P29_003": "16013", "P29_004": "中原こども園", "P29_005": "熊本県人吉市下原田町原の前1168", "P29_006": "4", "P29_007": "0", "P29_008": "00", "P29_009": null }, "geometry": { "type": "Point", "coordinates": [ 130.723625003627916, 32.230215485091612 ] } },
{ "type": "Feature", "properties": { "P29_001": "43204", "P29_002": "A243310000366", "P29_003": "16013", "P29_004": "荒尾めぐみ幼稚園", "P29_005": "熊本県荒尾市増永647-2", "P29_006": "4", "P29_007": "0", "P29_008": "00", "P29_009": null }, "geometry": { "type": "Point", "coordinates": [ 130.435834147427244, 32.974089191470647 ] } },
{ "type": "Feature", "properties": { "P29_001": "43205", "P29_002": "A243310000375", "P29_003": "16013", "P29_004": "さわらびこども園", "P29_005": "熊本県水俣市陣内2-2-1", "P29_006": "4", "P29_007": "0", "P29_008": "00", "P29_009": null }, "geometry": { "type": "Point", "coordinates": [ 130.410300689233082, 32.209307388184698 ] } },
{ "type": "Feature", "properties": { "P29_001": "43205", "P29_002": "A243310000384", "P29_003": "16013", "P29_004": "中央保育園西方寺認定こども園", "P29_005": "熊本県水俣市古城2-7-7", "P29_006": "4", "P29_007": "0", "P29_008": "00", "P29_009": null }, "geometry": { "type": "Point", "coordinates": [ 130.413685097256064, 32.20615362634851 ] } },
{ "type": "Feature", "properties": { "P29_001": "43213", "P29_002": "A243310000393", "P29_003": "16013", "P29_004": "まこと幼稚園", "P29_005": "熊本県宇城市松橋町豊福1017-3", "P29_006": "4", "P29_007": "0", "P29_008": "00", "P29_009": null }, "geometry": { "type": "Point", "coordinates": [ 130.707335191882834, 32.633647976874606 ] } },
{ "type": "Feature", "properties": { "P29_001": "43404", "P29_002": "A243310000400", "P29_003": "16013", "P29_004": "尚絅大学短期大学部附属こども園", "P29_005": "熊本県菊池郡菊陽町武蔵ヶ丘北2-8-1", "P29_006": "4", "P29_007": "0", "P29_008": "00", "P29_009": null }, "geometry": { "type": "Point", "coordinates": [ 130.763266906015275, 32.857525940807236 ] } },
{ "type": "Feature", "properties": { "P29_001": "43443", "P29_002": "A243310000419", "P29_003": "16013", "P29_004": "あじさい保育幼稚園", "P29_005": "熊本県上益城郡益城町安永447-6", "P29_006": "4", "P29_007": "0", "P29_008": "00", "P29_009": null }, "geometry": { "type": "Point", "coordinates": [ 130.814254864769538, 32.786715571222608 ] } },
{ "type": "Feature", "properties": { "P29_001": "43506", "P29_002": "A243310000428", "P29_003": "16013", "P29_004": "慈光こども園", "P29_005": "熊本県球磨郡湯前町1962-1", "P29_006": "4", "P29_007": "0", "P29_008": "00", "P29_009": null }, "geometry": { "type": "Point", "coordinates": [ 130.982346355648701, 32.276764343367013 ] } },
{ "type": "Feature", "properties": { "P29_001": "43102", "P29_002": "A243310000437", "P29_003": "16013", "P29_004": "聖母幼稚園", "P29_005": "熊本県熊本市東区南町13-7", "P29_006": "4", "P29_007": "0", "P29_008": "00", "P29_009": null }, "geometry": { "type": "Point", "coordinates": [ 130.758282999246404, 32.772470004437672 ] } },
{ "type": "Feature", "properties": { "P29_001": "43104", "P29_002": "A243310000446", "P29_003": "16013", "P29_004": "幼保連携型認定こども園恵水幼稚園", "P29_005": "熊本県熊本市南区御幸笛田3-13-12", "P29_006": "4", "P29_007": "0", "P29_008": "00", "P29_009": null }, "geometry": { "type": "Point", "coordinates": [ 130.710024185580608, 32.760936019107248 ] } },
{ "type": "Feature", "properties": { "P29_001": "43105", "P29_002": "A243310000455", "P29_003": "16013", "P29_004": "幼保連携型認定こども園城北幼稚園", "P29_005": "熊本県熊本市北区清水新地2-8-2", "P29_006": "4", "P29_007": "0", "P29_008": "00", "P29_009": null }, "geometry": { "type": "Point", "coordinates": [ 130.733853289672652, 32.847190419558025 ] } },
{ "type": "Feature", "properties": { "P29_001": "43101", "P29_002": "A243310000464", "P29_003": "16013", "P29_004": "寺原保育園", "P29_005": "熊本県熊本市中央区坪井5-13-6", "P29_006": "4", "P29_007": "0", "P29_008": "00", "P29_009": null }, "geometry": { "type": "Point", "coordinates": [ 130.713368005242927, 32.81522061127005 ] } },
{ "type": "Feature", "properties": { "P29_001": "43101", "P29_002": "A243310000473", "P29_003": "16013", "P29_004": "幼保連携型認定こども園シオン", "P29_005": "熊本県熊本市中央区新町4-7-35", "P29_006": "4", "P29_007": "0", "P29_008": "00", "P29_009": null }, "geometry": { "type": "Point", "coordinates": [ 130.694859517857623, 32.799266578388362 ] } },
{ "type": "Feature", "properties": { "P29_001": "43101", "P29_002": "A243310000482", "P29_003": "16013", "P29_004": "幼保連携型認定こども園くほんじこども園", "P29_005": "熊本県熊本市中央区八王寺町51-35", "P29_006": "4", "P29_007": "0", "P29_008": "00", "P29_009": null }, "geometry": { "type": "Point", "coordinates": [ 130.717732999219436, 32.781251998936966 ] } },
{ "type": "Feature", "properties": { "P29_001": "43102", "P29_002": "A243310000491", "P29_003": "16013", "P29_004": "幼保連携型認定こども園ひばり", "P29_005": "熊本県熊本市東区山ノ内1-1-87", "P29_006": "4", "P29_007": "0", "P29_008": "00", "P29_009": null }, "geometry": { "type": "Point", "coordinates": [ 130.767735508092386, 32.798197434130579 ] } },
{ "type": "Feature", "properties": { "P29_001": "43102", "P29_002": "A243310000507", "P29_003": "16013", "P29_004": "やまばとこども園", "P29_005": "熊本県熊本市東区御領2-12-20", "P29_006": "4", "P29_007": "0", "P29_008": "00", "P29_009": null }, "geometry": { "type": "Point", "coordinates": [ 130.76723026763608, 32.823711804817336 ] } },
{ "type": "Feature", "properties": { "P29_001": "43102", "P29_002": "A243310000516", "P29_003": "16013", "P29_004": "木の葉こども園", "P29_005": "熊本県熊本市東区石原2-5-31", "P29_006": "4", "P29_007": "0", "P29_008": "00", "P29_009": null }, "geometry": { "type": "Point", "coordinates": [ 130.78318269032161, 32.842973937962199 ] } },
{ "type": "Feature", "properties": { "P29_001": "43102", "P29_002": "A243310000525", "P29_003": "16013", "P29_004": "つばめこども園", "P29_005": "熊本県熊本市東区長嶺南7-7-15", "P29_006": "4", "P29_007": "0", "P29_008": "00", "P29_009": null }, "geometry": { "type": "Point", "coordinates": [ 130.775671733119765, 32.815656614634158 ] } },
{ "type": "Feature", "properties": { "P29_001": "43102", "P29_002": "A243310000534", "P29_003": "16013", "P29_004": "なぎさこども園", "P29_005": "熊本県熊本市東区江津1-7-25", "P29_006": "4", "P29_007": "0", "P29_008": "00", "P29_009": null }, "geometry": { "type": "Point", "coordinates": [ 130.735903759518862, 32.781154974904936 ] } },
{ "type": "Feature", "properties": { "P29_001": "43102", "P29_002": "A243310000543", "P29_003": "16013", "P29_004": "幼保連携型認定こども園ふわわ", "P29_005": "熊本県熊本市東区桜木1-11-21", "P29_006": "4", "P29_007": "0", "P29_008": "00", "P29_009": null }, "geometry": { "type": "Point", "coordinates": [ 130.778423962051761, 32.778198021338646 ] } },
{ "type": "Feature", "properties": { "P29_001": "43103", "P29_002": "A243310000552", "P29_003": "16013", "P29_004": "幼保連携型認定こども園こずえ保育園", "P29_005": "熊本県熊本市西区新土河原1-7-20", "P29_006": "4", "P29_007": "0", "P29_008": "00", "P29_009": null }, "geometry": { "type": "Point", "coordinates": [ 130.678818999976414, 32.774893999579795 ] } },
{ "type": "Feature", "properties": { "P29_001": "43103", "P29_002": "A243310000561", "P29_003": "16013", "P29_004": "かおるこども園", "P29_005": "熊本県熊本市西区中島町2056-2", "P29_006": "4", "P29_007": "0", "P29_008": "00", "P29_009": null }, "geometry": { "type": "Point", "coordinates": [ 130.628203720916872, 32.766097248352303 ] } },
{ "type": "Feature", "properties": { "P29_001": "43104", "P29_002": "A243310000570", "P29_003": "16013", "P29_004": "仁愛幼育園", "P29_005": "熊本県熊本市南区薄場1-14-10", "P29_006": "4", "P29_007": "0", "P29_008": "00", "P29_009": null }, "geometry": { "type": "Point", "coordinates": [ 130.677554786572813, 32.766918252596994 ] } },
{ "type": "Feature", "properties": { "P29_001": "43104", "P29_002": "A243310000589", "P29_003": "16013", "P29_004": "幼保連携型認定こども園力合さくら子ども園", "P29_005": "熊本県熊本市南区合志3-6-26", "P29_006": "4", "P29_007": "0", "P29_008": "00", "P29_009": null }, "geometry": { "type": "Point", "coordinates": [ 130.675942003520163, 32.757053000276613 ] } },
{ "type": "Feature", "properties": { "P29_001": "43104", "P29_002": "A243310000598", "P29_003": "16013", "P29_004": "幼保連携型認定こども園こじか園", "P29_005": "熊本県熊本市南区南高江7-9-30", "P29_006": "4", "P29_007": "0", "P29_008": "00", "P29_009": null }, "geometry": { "type": "Point", "coordinates": [ 130.690311211865577, 32.745007187849303 ] } },
{ "type": "Feature", "properties": { "P29_001": "43104", "P29_002": "A243310000605", "P29_003": "16013", "P29_004": "幼保連携型認定こども園モロナイ保育園", "P29_005": "熊本県熊本市南区八分字町618", "P29_006": "4", "P29_007": "0", "P29_008": "00", "P29_009": null }, "geometry": { "type": "Point", "coordinates": [ 130.665557207861042, 32.760925369098665 ] } },
{ "type": "Feature", "properties": { "P29_001": "43105", "P29_002": "A243310000614", "P29_003": "16013", "P29_004": "五丁こども園", "P29_005": "熊本県熊本市北区貢町66-1", "P29_006": "4", "P29_007": "0", "P29_008": "00", "P29_009": null }, "geometry": { "type": "Point", "coordinates": [ 130.702446843428078, 32.844367146244643 ] } },
{ "type": "Feature", "properties": { "P29_001": "43103", "P29_002": "A243310000623", "P29_003": "16013", "P29_004": "幼保連携型認定こども園亀の子幼稚園", "P29_005": "熊本県熊本市西区谷尾崎町415", "P29_006": "4", "P29_007": "0", "P29_008": "00", "P29_009": null }, "geometry": { "type": "Point", "coordinates": [ 130.675584817615885, 32.798102143694777 ] } },
{ "type": "Feature", "properties": { "P29_001": "43105", "P29_002": "A243310000632", "P29_003": "16013", "P29_004": "幼保連携型認定こども園高平幼稚園", "P29_005": "熊本県熊本市北区高平2-20-32", "P29_006": "4", "P29_007": "0", "P29_008": "00", "P29_009": null }, "geometry": { "type": "Point", "coordinates": [ 130.718308506666119, 32.834134073859332 ] } },
{ "type": "Feature", "properties": { "P29_001": "43101", "P29_002": "A243310000641", "P29_003": "16013", "P29_004": "幼保連携型認定こども園帯山のぎくこども園", "P29_005": "熊本県熊本市中央区帯山4-55-17", "P29_006": "4", "P29_007": "0", "P29_008": "00", "P29_009": null }, "geometry": { "type": "Point", "coordinates": [ 130.749184803073376, 32.80669460995955 ] } },
{ "type": "Feature", "properties": { "P29_001": "43101", "P29_002": "A243310000650", "P29_003": "16013", "P29_004": "大江こども園", "P29_005": "熊本県熊本市中央区大江2-1-18", "P29_006": "4", "P29_007": "0", "P29_008": "00", "P29_009": null }, "geometry": { "type": "Point", "coordinates": [ 130.726760428622043, 32.806112181695937 ] } },
{ "type": "Feature", "properties": { "P29_001": "43101", "P29_002": "A243310000669", "P29_003": "16013", "P29_004": "きよめこども園", "P29_005": "熊本県熊本市中央区国府2-6-24", "P29_006": "4", "P29_007": "0", "P29_008": "00", "P29_009": null }, "geometry": { "type": "Point", "coordinates": [ 130.727066518152299, 32.787741370956752 ] } },
{ "type": "Feature", "properties": { "P29_001": "43101", "P29_002": "A243310000678", "P29_003": "16013", "P29_004": "幼保連携型認定こども園かっぱこどもえん", "P29_005": "熊本県熊本市中央区保田窪1-2-101", "P29_006": "4", "P29_007": "0", "P29_008": "00", "P29_009": null }, "geometry": { "type": "Point", "coordinates": [ 130.741913381051376, 32.805259530637088 ] } },
{ "type": "Feature", "properties": { "P29_001": "43103", "P29_002": "A243310000687", "P29_003": "16013", "P29_004": "幼保連携型認定こども園誠櫻幼愛園", "P29_005": "熊本県熊本市西区春日6-22-1", "P29_006": "4", "P29_007": "0", "P29_008": "00", "P29_009": null }, "geometry": { "type": "Point", "coordinates": [ 130.683763956039598, 32.785395339453835 ] } },
{ "type": "Feature", "properties": { "P29_001": "43104", "P29_002": "A243310000696", "P29_003": "16013", "P29_004": "認定こども園第一幼育園", "P29_005": "熊本県熊本市南区富合町新256-1", "P29_006": "4", "P29_007": "0", "P29_008": "00", "P29_009": null }, "geometry": { "type": "Point", "coordinates": [ 130.680446361756623, 32.711646584449682 ] } },
{ "type": "Feature", "properties": { "P29_001": "43104", "P29_002": "A243310000703", "P29_003": "16013", "P29_004": "そよかぜこども園", "P29_005": "熊本県熊本市南区南高江1-11-126", "P29_006": "4", "P29_007": "0", "P29_008": "00", "P29_009": null }, "geometry": { "type": "Point", "coordinates": [ 130.682773496194102, 32.756054533542077 ] } },
{ "type": "Feature", "properties": { "P29_001": "43105", "P29_002": "A243310000712", "P29_003": "16013", "P29_004": "こぐまこども園", "P29_005": "熊本県熊本市北区四方寄町39-1", "P29_006": "4", "P29_007": "0", "P29_008": "00", "P29_009": null }, "geometry": { "type": "Point", "coordinates": [ 130.7206070874349, 32.856361195129431 ] } },
{ "type": "Feature", "properties": { "P29_001": "43105", "P29_002": "A243310000721", "P29_003": "16013", "P29_004": "たつだの森保育園", "P29_005": "熊本県熊本市北区龍田陳内3-38-50", "P29_006": "4", "P29_007": "0", "P29_008": "00", "P29_009": null }, "geometry": { "type": "Point", "coordinates": [ 130.748024727907648, 32.83147274419413 ] } },
{ "type": "Feature", "properties": { "P29_001": "43203", "P29_002": "A243310000730", "P29_003": "16013", "P29_004": "泉田こども園", "P29_005": "熊本県人吉市北泉田町223-1", "P29_006": "4", "P29_007": "0", "P29_008": "00", "P29_009": null }, "geometry": { "type": "Point", "coordinates": [ 130.763088353824855, 32.219214088143033 ] } },
{ "type": "Feature", "properties": { "P29_001": "43205", "P29_002": "A243310000749", "P29_003": "16013", "P29_004": "みどりの森こども園", "P29_005": "熊本県水俣市袋674", "P29_006": "4", "P29_007": "0", "P29_008": "00", "P29_009": null }, "geometry": { "type": "Point", "coordinates": [ 130.381411598386421, 32.183784513080901 ] } },
{ "type": "Feature", "properties": { "P29_001": "43205", "P29_002": "A243310000758", "P29_003": "16013", "P29_004": "西方寺認定こども園", "P29_005": "熊本県水俣市葛渡23", "P29_006": "4", "P29_007": "0", "P29_008": "00", "P29_009": null }, "geometry": { "type": "Point", "coordinates": [ 130.460959163189727, 32.173885607498569 ] } },
{ "type": "Feature", "properties": { "P29_001": "43205", "P29_002": "A243310000767", "P29_003": "16013", "P29_004": "はつの・あそびの森こども園", "P29_005": "熊本県水俣市初野字宮前230", "P29_006": "4", "P29_007": "0", "P29_008": "00", "P29_009": null }, "geometry": { "type": "Point", "coordinates": [ 130.430859074120775, 32.20905781193305 ] } },
{ "type": "Feature", "properties": { "P29_001": "43210", "P29_002": "A243310000776", "P29_003": "16013", "P29_004": "菊池みゆきこども園", "P29_005": "熊本県菊池市北宮308-1", "P29_006": "4", "P29_007": "0", "P29_008": "00", "P29_009": null }, "geometry": { "type": "Point", "coordinates": [ 130.811144344599398, 32.974115841297909 ] } },
{ "type": "Feature", "properties": { "P29_001": "43212", "P29_002": "A243310000785", "P29_003": "16013", "P29_004": "ひまわりメソドこども園", "P29_005": "熊本県上天草市大矢野町登立12541-2", "P29_006": "4", "P29_007": "0", "P29_008": "00", "P29_009": null }, "geometry": { "type": "Point", "coordinates": [ 130.450199329631147, 32.588557245826379 ] } },
{ "type": "Feature", "properties": { "P29_001": "43214", "P29_002": "A243310000794", "P29_003": "16013", "P29_004": "古城保育園", "P29_005": "熊本県阿蘇市一の宮町手野1030", "P29_006": "4", "P29_007": "0", "P29_008": "00", "P29_009": null }, "geometry": { "type": "Point", "coordinates": [ 131.130502047290975, 32.970862091631588 ] } },
{ "type": "Feature", "properties": { "P29_001": "43501", "P29_002": "A243310000801", "P29_003": "16013", "P29_004": "錦こども園", "P29_005": "熊本県球磨郡錦町大字西3604-7", "P29_006": "4", "P29_007": "0", "P29_008": "00", "P29_009": null }, "geometry": { "type": "Point", "coordinates": [ 130.829315872077132, 32.198249182296671 ] } },
{ "type": "Feature", "properties": { "P29_001": "43501", "P29_002": "A243310000810", "P29_003": "16013", "P29_004": "一武こども園", "P29_005": "熊本県球磨郡錦町大字一武2210-173", "P29_006": "4", "P29_007": "0", "P29_008": "00", "P29_009": null }, "geometry": { "type": "Point", "coordinates": [ 130.855236997250273, 32.201949003069281 ] } },
{ "type": "Feature", "properties": { "P29_001": "43512", "P29_002": "A243310000829", "P29_003": "16013", "P29_004": "山江保育園", "P29_005": "熊本県球磨郡山江村山田丁189", "P29_006": "4", "P29_007": "0", "P29_008": "00", "P29_009": null }, "geometry": { "type": "Point", "coordinates": [ 130.770637706411804, 32.25251072978201 ] } },
{ "type": "Feature", "properties": { "P29_001": "43514", "P29_002": "A243310000838", "P29_003": "16013", "P29_004": "あさぎりこども園", "P29_005": "熊本県球磨郡あさぎり町免田西2591", "P29_006": "4", "P29_007": "0", "P29_008": "00", "P29_009": null }, "geometry": { "type": "Point", "coordinates": [ 130.872422169992177, 32.224259796944004 ] } },
{ "type": "Feature", "properties": { "P29_001": "43206", "P29_002": "A243310000847", "P29_003": "16013", "P29_004": "小天保育園", "P29_005": "熊本県玉名市天水町小天6638", "P29_006": "4", "P29_007": "0", "P29_008": "00", "P29_009": null }, "geometry": { "type": "Point", "coordinates": [ 130.58984099713129, 32.858776002956276 ] } },
{ "type": "Feature", "properties": { "P29_001": "43216", "P29_002": "A243310000856", "P29_003": "16013", "P29_004": "幼保連携型認定こども園六華こども園", "P29_005": "熊本県合志市野々島5099-2", "P29_006": "4", "P29_007": "0", "P29_008": "00", "P29_009": null }, "geometry": { "type": "Point", "coordinates": [ 130.735966629491287, 32.904108411212789 ] } },
{ "type": "Feature", "properties": { "P29_001": "43368", "P29_002": "A243310000865", "P29_003": "16013", "P29_004": "長洲しおかぜこども園", "P29_005": "熊本県玉名郡長洲町長洲607", "P29_006": "4", "P29_007": "0", "P29_008": "00", "P29_009": null }, "geometry": { "type": "Point", "coordinates": [ 130.443061391302763, 32.937146948984655 ] } },
{ "type": "Feature", "properties": { "P29_001": "43403", "P29_002": "A243310000874", "P29_003": "16013", "P29_004": "幼保連携型認定こども園大津音楽幼稚園", "P29_005": "熊本県菊池郡大津町大津1604-3", "P29_006": "4", "P29_007": "0", "P29_008": "00", "P29_009": null }, "geometry": { "type": "Point", "coordinates": [ 130.883262492011511, 32.882433292888898 ] } },
{ "type": "Feature", "properties": { "P29_001": "43101", "P29_002": "A243310000883", "P29_003": "16013", "P29_004": "きよめ子どもの家", "P29_005": "熊本県熊本市中央区神水1-19-9", "P29_006": "4", "P29_007": "0", "P29_008": "00", "P29_009": null }, "geometry": { "type": "Point", "coordinates": [ 130.7442146868772, 32.785197481244495 ] } },
{ "type": "Feature", "properties": { "P29_001": "43104", "P29_002": "A243310000892", "P29_003": "16013", "P29_004": "出仲間こども園", "P29_005": "熊本県熊本市南区出仲間3-1-11", "P29_006": "4", "P29_007": "0", "P29_008": "00", "P29_009": null }, "geometry": { "type": "Point", "coordinates": [ 130.711421409565986, 32.771160157942944 ] } },
{ "type": "Feature", "properties": { "P29_001": "43102", "P29_002": "A243310000909", "P29_003": "16013", "P29_004": "おぜきこども園", "P29_005": "熊本県熊本市東区下南部2-2-123", "P29_006": "4", "P29_007": "0", "P29_008": "00", "P29_009": null }, "geometry": { "type": "Point", "coordinates": [ 130.756762835097732, 32.824554400625793 ] } },
{ "type": "Feature", "properties": { "P29_001": "43104", "P29_002": "A243310000918", "P29_003": "16013", "P29_004": "かわしりこども園", "P29_005": "熊本県熊本市南区川尻5-4-24", "P29_006": "4", "P29_007": "0", "P29_008": "00", "P29_009": null }, "geometry": { "type": "Point", "coordinates": [ 130.685372997186931, 32.736749999970783 ] } },
{ "type": "Feature", "properties": { "P29_001": "43105", "P29_002": "A243310000927", "P29_003": "16013", "P29_004": "くすの実こども園", "P29_005": "熊本県熊本市北区楠4-3-15", "P29_006": "4", "P29_007": "0", "P29_008": "00", "P29_009": null }, "geometry": { "type": "Point", "coordinates": [ 130.758470861744229, 32.849526206369099 ] } },
{ "type": "Feature", "properties": { "P29_001": "43105", "P29_002": "A243310000936", "P29_003": "16013", "P29_004": "清水ヶ丘こども園", "P29_005": "熊本県熊本市北区兎谷1-3-82", "P29_006": "4", "P29_007": "0", "P29_008": "00", "P29_009": null }, "geometry": { "type": "Point", "coordinates": [ 130.731951954298978, 32.838334829953624 ] } },
{ "type": "Feature", "properties": { "P29_001": "43103", "P29_002": "A243310000945", "P29_003": "16013", "P29_004": "幼保連携型認定こども園城高保育園", "P29_005": "熊本県熊本市西区城山大塘2-1-24", "P29_006": "4", "P29_007": "0", "P29_008": "00", "P29_009": null }, "geometry": { "type": "Point", "coordinates": [ 130.656125722682447, 32.783431209561172 ] } },
{ "type": "Feature", "properties": { "P29_001": "43104", "P29_002": "A243310000954", "P29_003": "16013", "P29_004": "済生会しらふじ子ども園", "P29_005": "熊本県熊本市南区白藤3-2-70", "P29_006": "4", "P29_007": "0", "P29_008": "00", "P29_009": null }, "geometry": { "type": "Point", "coordinates": [ 130.677765218191041, 32.749238786368544 ] } },
{ "type": "Feature", "properties": { "P29_001": "43105", "P29_002": "A243310000963", "P29_003": "16013", "P29_004": "幼保連携型認定こども園たつだ保育園", "P29_005": "熊本県熊本市北区龍田弓削2-7-100", "P29_006": "4", "P29_007": "0", "P29_008": "00", "P29_009": null }, "geometry": { "type": "Point", "coordinates": [ 130.771196872362566, 32.847000408969976 ] } },
{ "type": "Feature", "properties": { "P29_001": "43105", "P29_002": "A243310000972", "P29_003": "16013", "P29_004": "幼保連携型認定こども園ひでみ保育園", "P29_005": "熊本県熊本市北区鶴羽田3-1-78", "P29_006": "4", "P29_007": "0", "P29_008": "00", "P29_009": null }, "geometry": { "type": "Point", "coordinates": [ 130.726777421913084, 32.858244731519996 ] } },
{ "type": "Feature", "properties": { "P29_001": "43102", "P29_002": "A243310000981", "P29_003": "16013", "P29_004": "幼保連携型認定こども園わらべ", "P29_005": "熊本県熊本市東区新南部2-2-50", "P29_006": "4", "P29_007": "0", "P29_008": "00", "P29_009": null }, "geometry": { "type": "Point", "coordinates": [ 130.745967121192223, 32.816742488950595 ] } },
{ "type": "Feature", "properties": { "P29_001": "43101", "P29_002": "A243310000990", "P29_003": "16013", "P29_004": "幼保連携型認定こども園第二桜ヶ丘こども園", "P29_005": "熊本県熊本市中央区世安3-10-7", "P29_006": "4", "P29_007": "0", "P29_008": "00", "P29_009": null }, "geometry": { "type": "Point", "coordinates": [ 130.694363210228829, 32.78198076705845 ] } },
{ "type": "Feature", "properties": { "P29_001": "43102", "P29_002": "A243310001007", "P29_003": "16013", "P29_004": "幼保連携型認定こども園二岡保育園", "P29_005": "熊本県熊本市東区戸島3-11-62", "P29_006": "4", "P29_007": "0", "P29_008": "00", "P29_009": null }, "geometry": { "type": "Point", "coordinates": [ 130.79520630191152, 32.822796524468217 ] } },
{ "type": "Feature", "properties": { "P29_001": "43103", "P29_002": "A243310001016", "P29_003": "16013", "P29_004": "幼保連携型認定こども園本妙寺こども園", "P29_005": "熊本県熊本市西区花園4-3-23", "P29_006": "4", "P29_007": "0", "P29_008": "00", "P29_009": null }, "geometry": { "type": "Point", "coordinates": [ 130.690089897291159, 32.816516952040068 ] } },
{ "type": "Feature", "properties": { "P29_001": "43104", "P29_002": "A243310001025", "P29_003": "16013", "P29_004": "愛保育園", "P29_005": "熊本県熊本市南区近見3-13-30", "P29_006": "4", "P29_007": "0", "P29_008": "00", "P29_009": null }, "geometry": { "type": "Point", "coordinates": [ 130.696248999936699, 32.768441996544084 ] } },
{ "type": "Feature", "properties": { "P29_001": "43105", "P29_002": "A243310001034", "P29_003": "16013", "P29_004": "幼保連携型認定こども園桜ヶ丘こども園", "P29_005": "熊本県熊本市北区植木町滴水245-1", "P29_006": "4", "P29_007": "0", "P29_008": "00", "P29_009": null }, "geometry": { "type": "Point", "coordinates": [ 130.686705223266273, 32.89158936905212 ] } },
{ "type": "Feature", "properties": { "P29_001": "43104", "P29_002": "A243310001043", "P29_003": "16013", "P29_004": "幼保連携型認定こども園小木こども園", "P29_005": "熊本県熊本市南区城南町塚原994-19", "P29_006": "4", "P29_007": "0", "P29_008": "00", "P29_009": null }, "geometry": { "type": "Point", "coordinates": [ 130.745575473711057, 32.685029093082022 ] } },
{ "type": "Feature", "properties": { "P29_001": "43104", "P29_002": "A243310001052", "P29_003": "16013", "P29_004": "幼保連携型認定こども園たから子ども園", "P29_005": "熊本県熊本市南区富合町小岩瀬686", "P29_006": "4", "P29_007": "0", "P29_008": "00", "P29_009": null }, "geometry": { "type": "Point", "coordinates": [ 130.661852986960753, 32.724301717276177 ] } },
{ "type": "Feature", "properties": { "P29_001": "43215", "P29_002": "A243310001061", "P29_003": "16013", "P29_004": "もぐし海のこども園", "P29_005": "熊本県天草市牛深町1212-2", "P29_006": "4", "P29_007": "0", "P29_008": "00", "P29_009": null }, "geometry": { "type": "Point", "coordinates": [ 130.010214309641668, 32.211915743246927 ] } },
{ "type": "Feature", "properties": { "P29_001": "43215", "P29_002": "A243310001070", "P29_003": "16013", "P29_004": "小宮地保育園", "P29_005": "熊本県天草市新和町小宮地763-11", "P29_006": "4", "P29_007": "0", "P29_008": "00", "P29_009": null }, "geometry": { "type": "Point", "coordinates": [ 130.18435093764279, 32.370779450148412 ] } },
{ "type": "Feature", "properties": { "P29_001": "43102", "P29_002": "A243310001089", "P29_003": "16013", "P29_004": "幼保連携型認定こども園ながみねこども園", "P29_005": "熊本県熊本市東区長嶺東5-1-17", "P29_006": "4", "P29_007": "0", "P29_008": "00", "P29_009": null }, "geometry": { "type": "Point", "coordinates": [ 130.780549624198528, 32.820156963566262 ] } },
{ "type": "Feature", "properties": { "P29_001": "43101", "P29_002": "A243310001098", "P29_003": "16013", "P29_004": "幼保連携型認定こども園千草保育園", "P29_005": "熊本県熊本市中央区平成3-2-12", "P29_006": "4", "P29_007": "0", "P29_008": "00", "P29_009": null }, "geometry": { "type": "Point", "coordinates": [ 130.706022377088061, 32.78197552051796 ] } },
{ "type": "Feature", "properties": { "P29_001": "43104", "P29_002": "A243310001105", "P29_003": "16013", "P29_004": "幼保連携型認定こども園青いほしこども園", "P29_005": "熊本県熊本市南区近見7-12-33", "P29_006": "4", "P29_007": "0", "P29_008": "00", "P29_009": null }, "geometry": { "type": "Point", "coordinates": [ 130.692311130177302, 32.75540315274894 ] } },
{ "type": "Feature", "properties": { "P29_001": "43203", "P29_002": "A243310001114", "P29_003": "16013", "P29_004": "人吉乳児保育園", "P29_005": "熊本県人吉市田町34-1", "P29_006": "4", "P29_007": "0", "P29_008": "00", "P29_009": null }, "geometry": { "type": "Point", "coordinates": [ 130.764874937731321, 32.206848193268677 ] } },
{ "type": "Feature", "properties": { "P29_001": "43212", "P29_002": "A243310001123", "P29_003": "16013", "P29_004": "みつる保育園", "P29_005": "熊本県上天草市大矢野町上3148-163", "P29_006": "4", "P29_007": "0", "P29_008": "00", "P29_009": null }, "geometry": { "type": "Point", "coordinates": [ 130.423709454465296, 32.601724855469101 ] } },
{ "type": "Feature", "properties": { "P29_001": "43212", "P29_002": "A243310001132", "P29_003": "16013", "P29_004": "大矢野あゆみこども園", "P29_005": "熊本県上天草市大矢野町上7555", "P29_006": "4", "P29_007": "0", "P29_008": "00", "P29_009": null }, "geometry": { "type": "Point", "coordinates": [ 130.398936873386504, 32.584143832290032 ] } },
{ "type": "Feature", "properties": { "P29_001": "43447", "P29_002": "A243310001141", "P29_003": "16013", "P29_004": "さくらんぼ愛園", "P29_005": "熊本県上益城郡山都町長田393", "P29_006": "4", "P29_007": "0", "P29_008": "00", "P29_009": null }, "geometry": { "type": "Point", "coordinates": [ 130.977509890256016, 32.686818297943866 ] } },
{ "type": "Feature", "properties": { "P29_001": "43482", "P29_002": "A243310001150", "P29_003": "16013", "P29_004": "あしきた・まちのこども園", "P29_005": "熊本県葦北郡芦北町芦北2039", "P29_006": "4", "P29_007": "0", "P29_008": "00", "P29_009": null }, "geometry": { "type": "Point", "coordinates": [ 130.491486121891427, 32.299471701474587 ] } },
{ "type": "Feature", "properties": { "P29_001": "43368", "P29_002": "A243310001169", "P29_003": "16013", "P29_004": "長洲ひまわり幼稚園", "P29_005": "熊本県玉名郡長洲町宮野1000-1", "P29_006": "4", "P29_007": "0", "P29_008": "00", "P29_009": null }, "geometry": { "type": "Point", "coordinates": [ 130.478807177758881, 32.932523163649222 ] } },
{ "type": "Feature", "properties": { "P29_001": "43442", "P29_002": "A243310001178", "P29_003": "16013", "P29_004": "かしま幼稚園", "P29_005": "熊本県上益城郡嘉島町上島846", "P29_006": "4", "P29_007": "0", "P29_008": "00", "P29_009": null }, "geometry": { "type": "Point", "coordinates": [ 130.756833476424646, 32.7429496655297 ] } },
{ "type": "Feature", "properties": { "P29_001": "43101", "P29_002": "A243310001187", "P29_003": "16013", "P29_004": "鳳鳴こども園", "P29_005": "熊本県熊本市中央区世安町393-2", "P29_006": "4", "P29_007": "0", "P29_008": "00", "P29_009": null }, "geometry": { "type": "Point", "coordinates": [ 130.695383798168194, 32.786894365981368 ] } },
{ "type": "Feature", "properties": { "P29_001": "43101", "P29_002": "A243310001196", "P29_003": "16013", "P29_004": "幼保連携型認定こども園出水みなみこども園", "P29_005": "熊本県熊本市中央区出水8-43-5", "P29_006": "4", "P29_007": "0", "P29_008": "00", "P29_009": null }, "geometry": { "type": "Point", "coordinates": [ 130.730334996187452, 32.771954449466229 ] } },
{ "type": "Feature", "properties": { "P29_001": "43102", "P29_002": "A243310001203", "P29_003": "16013", "P29_004": "幼保連携型認定こども園えのみこども園", "P29_005": "熊本県熊本市東区榎町3-10", "P29_006": "4", "P29_007": "0", "P29_008": "00", "P29_009": null }, "geometry": { "type": "Point", "coordinates": [ 130.769973375342914, 32.7918902286535 ] } },
{ "type": "Feature", "properties": { "P29_001": "43102", "P29_002": "A243310001212", "P29_003": "16013", "P29_004": "幼保連携型認定こども園よつば保育園", "P29_005": "熊本県熊本市東区小山5-27-40", "P29_006": "4", "P29_007": "0", "P29_008": "00", "P29_009": null }, "geometry": { "type": "Point", "coordinates": [ 130.795494270259667, 32.828592627496548 ] } },
{ "type": "Feature", "properties": { "P29_001": "43104", "P29_002": "A243310001221", "P29_003": "16013", "P29_004": "幼保連携型認定こども園御幸こばと保育園", "P29_005": "熊本県熊本市南区御幸笛田7-15-30", "P29_006": "4", "P29_007": "0", "P29_008": "00", "P29_009": null }, "geometry": { "type": "Point", "coordinates": [ 130.715081936500184, 32.754440430900708 ] } },
{ "type": "Feature", "properties": { "P29_001": "43105", "P29_002": "A243310001230", "P29_003": "16013", "P29_004": "幼保連携型認定こども園まんごく保育園", "P29_005": "熊本県熊本市北区清水万石4-5-5", "P29_006": "4", "P29_007": "0", "P29_008": "00", "P29_009": null }, "geometry": { "type": "Point", "coordinates": [ 130.728414238799644, 32.833363203863478 ] } },
{ "type": "Feature", "properties": { "P29_001": "43204", "P29_002": "A243310001249", "P29_003": "16013", "P29_004": "なかよし保育園", "P29_005": "熊本県荒尾市日の出町11-24", "P29_006": "4", "P29_007": "0", "P29_008": "00", "P29_009": null }, "geometry": { "type": "Point", "coordinates": [ 130.433097914201937, 32.999557436639883 ] } },
{ "type": "Feature", "properties": { "P29_001": "43104", "P29_002": "A243310001258", "P29_003": "16013", "P29_004": "なないろこども園", "P29_005": "熊本県熊本市南区荒尾1-17-15", "P29_006": "4", "P29_007": "0", "P29_008": "00", "P29_009": null }, "geometry": { "type": "Point", "coordinates": [ 130.670564056205478, 32.763805936903722 ] } },
{ "type": "Feature", "properties": { "P29_001": "43102", "P29_002": "A243310001267", "P29_003": "16013", "P29_004": "ひむきこどもえん", "P29_005": "熊本県熊本市東区戸島7-9-48", "P29_006": "4", "P29_007": "0", "P29_008": "00", "P29_009": null }, "geometry": { "type": "Point", "coordinates": [ 130.803492806151212, 32.815861797200334 ] } },
{ "type": "Feature", "properties": { "P29_001": "43101", "P29_002": "A243310001276", "P29_003": "16013", "P29_004": "さくらまちこども園", "P29_005": "熊本県熊本市中央区新市街13-19", "P29_006": "4", "P29_007": "0", "P29_008": "00", "P29_009": null }, "geometry": { "type": "Point", "coordinates": [ 130.70662903607564, 32.7975815065451 ] } },
{ "type": "Feature", "properties": { "P29_001": "43203", "P29_002": "A243310001285", "P29_003": "16013", "P29_004": "アヴニール・おこばこども園", "P29_005": "熊本県人吉市上漆田町3453", "P29_006": "4", "P29_007": "0", "P29_008": "00", "P29_009": null }, "geometry": { "type": "Point", "coordinates": [ 130.801256670398828, 32.174046079460339 ] } },
{ "type": "Feature", "properties": { "P29_001": "43208", "P29_002": "A243310001294", "P29_003": "16013", "P29_004": "山鹿こども園", "P29_005": "熊本県山鹿市山鹿1080-3", "P29_006": "4", "P29_007": "0", "P29_008": "00", "P29_009": null }, "geometry": { "type": "Point", "coordinates": [ 130.688339350941334, 33.01903020320222 ] } },
{ "type": "Feature", "properties": { "P29_001": "43403", "P29_002": "A243310001301", "P29_003": "16013", "P29_004": "白川幼稚園", "P29_005": "熊本県菊池郡大津町森54-1", "P29_006": "4", "P29_007": "0", "P29_008": "00", "P29_009": null }, "geometry": { "type": "Point", "coordinates": [ 130.890341896875242, 32.863994114322068 ] } },
{ "type": "Feature", "properties": { "P29_001": "43404", "P29_002": "A243310001310", "P29_003": "16013", "P29_004": "白鈴こども園", "P29_005": "熊本県菊池郡菊陽町新山1-2-32", "P29_006": "4", "P29_007": "0", "P29_008": "00", "P29_009": null }, "geometry": { "type": "Point", "coordinates": [ 130.789063284677297, 32.864672417601163 ] } },
{ "type": "Feature", "properties": { "P29_001": "43102", "P29_002": "A243310001329", "P29_003": "16013", "P29_004": "認定こども園えずほいくえん", "P29_005": "熊本県熊本市東区下江津2-2-1", "P29_006": "4", "P29_007": "0", "P29_008": "00", "P29_009": null }, "geometry": { "type": "Point", "coordinates": [ 130.736920425982078, 32.771322206283202 ] } },
{ "type": "Feature", "properties": { "P29_001": "43102", "P29_002": "A243310001338", "P29_003": "16013", "P29_004": "せきれいこども園", "P29_005": "熊本県熊本市東区健軍5-1-11", "P29_006": "4", "P29_007": "0", "P29_008": "00", "P29_009": null }, "geometry": { "type": "Point", "coordinates": [ 130.750158251102334, 32.778168780497005 ] } },
{ "type": "Feature", "properties": { "P29_001": "43103", "P29_002": "A243310001347", "P29_003": "16013", "P29_004": "からたちこどもえん", "P29_005": "熊本県熊本市西区河内町河内2946", "P29_006": "4", "P29_007": "0", "P29_008": "00", "P29_009": null }, "geometry": { "type": "Point", "coordinates": [ 130.596874413523949, 32.826073778478985 ] } },
{ "type": "Feature", "properties": { "P29_001": "43202", "P29_002": "A243310001356", "P29_003": "16013", "P29_004": "認定こども園聖愛幼稚園", "P29_005": "熊本県八代市袋町5-1", "P29_006": "4", "P29_007": "0", "P29_008": "00", "P29_009": null }, "geometry": { "type": "Point", "coordinates": [ 130.605751859363835, 32.50627336600482 ] } },
{ "type": "Feature", "properties": { "P29_001": "43348", "P29_002": "A243310001365", "P29_003": "16013", "P29_004": "幼保連携型認定こども園青空保育園", "P29_005": "熊本県下益城郡美里町小筵671", "P29_006": "4", "P29_007": "0", "P29_008": "00", "P29_009": null }, "geometry": { "type": "Point", "coordinates": [ 130.811678720423316, 32.624343445992068 ] } }
]
}
