{
"type": "FeatureCollection",
"name": "geo_43_特定福祉用具販売",
"crs": { "type": "name", "properties": { "name": "urn:ogc:def:crs:OGC:1.3:CRS84" } },
"features": [
{ "type": "Feature", "properties": { "内容": "有限会社　須賀　タル【特定福祉用具販売】熊本県熊本市中央区国府4丁目１０－８３", "url": "https://www.kaigokensaku.mhlw.go.jp/43/index.php?action_kouhyou_detail_004_kani=true&JigyosyoCd=4370103584-00&ServiceCd=410&Type=search", "url2": null }, "geometry": { "type": "Point", "coordinates": [ 130.725159699999949, 32.7846163 ] } },
{ "type": "Feature", "properties": { "内容": "椿レンタルケア【特定福祉用具販売】熊本市本山3丁目５－１５", "url": "https://www.kaigokensaku.mhlw.go.jp/43/index.php?action_kouhyou_detail_004_kani=true&JigyosyoCd=4370107288-00&ServiceCd=410&Type=search", "url2": null }, "geometry": { "type": "Point", "coordinates": [ 130.694598300000052, 32.7883568 ] } },
{ "type": "Feature", "properties": { "内容": "椿レンタルケア【特定福祉用具販売】熊本県熊本市中央区本山３丁目５－１５有料老人ホーム　つばき園", "url": "https://www.kaigokensaku.mhlw.go.jp/43/index.php?action_kouhyou_detail_004_kani=true&JigyosyoCd=4370113633-00&ServiceCd=410&Type=search", "url2": null }, "geometry": { "type": "Point", "coordinates": [ 130.694637599999965, 32.7882721 ] } },
{ "type": "Feature", "properties": { "内容": "ニチイケアセンタ－熊本【特定福祉用具販売】熊本市中央区水前寺6-27-20神水恵比須ビル1Ｆ", "url": "https://www.kaigokensaku.mhlw.go.jp/43/index.php?action_kouhyou_detail_004_kani=true&JigyosyoCd=4370101323-00&ServiceCd=410&Type=search", "url2": "http://www.nichiigakkan.co.jp" }, "geometry": { "type": "Point", "coordinates": [ 130.743535599999973, 32.788024 ] } },
{ "type": "Feature", "properties": { "内容": "セントケア熊本福祉用具【特定福祉用具販売】熊本県熊本市中央区十禅寺1丁目3番1号", "url": "https://www.kaigokensaku.mhlw.go.jp/43/index.php?action_kouhyou_detail_004_kani=true&JigyosyoCd=4370106116-00&ServiceCd=410&Type=search", "url2": "http://www.saint-care.com/" }, "geometry": { "type": "Point", "coordinates": [ 130.695595700000013, 32.7801493 ] } },
{ "type": "Feature", "properties": { "内容": "椿レンタルケア【特定福祉用具販売】熊本県熊本市中央区本山3-5-15有料老人ホーム　つばき園", "url": "https://www.kaigokensaku.mhlw.go.jp/43/index.php?action_kouhyou_detail_004_kani=true&JigyosyoCd=4370114078-00&ServiceCd=410&Type=search", "url2": null }, "geometry": { "type": "Point", "coordinates": [ 130.6946376, 32.7882721 ] } },
{ "type": "Feature", "properties": { "内容": "セントケアりまいん熊本【特定福祉用具販売】十禅寺一丁目3番1号", "url": "https://www.kaigokensaku.mhlw.go.jp/43/index.php?action_kouhyou_detail_004_kani=true&JigyosyoCd=4370115638-00&ServiceCd=410&Type=search", "url2": "http://www.saint-care.com/" }, "geometry": { "type": "Point", "coordinates": [ 130.6955945, 32.7801362 ] } },
{ "type": "Feature", "properties": { "内容": "福祉用具貸与事業所ひまわり【特定福祉用具販売】熊本県熊本市中央区神水1-21-16", "url": "https://www.kaigokensaku.mhlw.go.jp/43/index.php?action_kouhyou_detail_004_kani=true&JigyosyoCd=4370111959-00&ServiceCd=410&Type=search", "url2": null }, "geometry": { "type": "Point", "coordinates": [ 130.7423172, 32.7846802 ] } },
{ "type": "Feature", "properties": { "内容": "株式会社フロンティア　熊本営業所【特定福祉用具販売】熊本県熊本市流通団地2-20-1センコービル2階", "url": "https://www.kaigokensaku.mhlw.go.jp/43/index.php?action_kouhyou_detail_004_kani=true&JigyosyoCd=4370109417-00&ServiceCd=410&Type=search", "url2": "http://www.frontier-ph.com/homecare/index.html" }, "geometry": { "type": "Point", "coordinates": [ 130.703175900000019, 32.7685561 ] } },
{ "type": "Feature", "properties": { "内容": "株式会社　熊本診療協力社【特定福祉用具販売】熊本県熊本市中央区九品寺5丁目9-2", "url": "https://www.kaigokensaku.mhlw.go.jp/43/index.php?action_kouhyou_detail_004_kani=true&JigyosyoCd=4370106371-00&ServiceCd=410&Type=search", "url2": null }, "geometry": { "type": "Point", "coordinates": [ 130.715365799999972, 32.7916405 ] } },
{ "type": "Feature", "properties": { "内容": "ユーズフルライフ【特定福祉用具販売】本荘町727番地2", "url": "https://www.kaigokensaku.mhlw.go.jp/43/index.php?action_kouhyou_detail_004_kani=true&JigyosyoCd=4370116750-00&ServiceCd=410&Type=search", "url2": null }, "geometry": { "type": "Point", "coordinates": [ 130.703244874343909, 32.784671843689985 ] } },
{ "type": "Feature", "properties": { "内容": "株式会社野田市電子ヘルスケア事業部【特定福祉用具販売】熊本県熊本市中央区世安二丁目１番１６号", "url": "https://www.kaigokensaku.mhlw.go.jp/43/index.php?action_kouhyou_detail_004_kani=true&JigyosyoCd=4370112148-00&ServiceCd=410&Type=search", "url2": "http://www.nodaichig.jp" }, "geometry": { "type": "Point", "coordinates": [ 130.69825089999992, 32.784696199999985 ] } },
{ "type": "Feature", "properties": { "内容": "株式会社ハヤシコンフォート【特定福祉用具販売】熊本市琴平2丁目4番3号", "url": "https://www.kaigokensaku.mhlw.go.jp/43/index.php?action_kouhyou_detail_004_kani=true&JigyosyoCd=4370106876-00&ServiceCd=410&Type=search", "url2": null }, "geometry": { "type": "Point", "coordinates": [ 130.70769150000001, 32.7894655 ] } },
{ "type": "Feature", "properties": { "内容": "YOU8【特定福祉用具販売】上水前寺2丁目2‐23　マツフジビル", "url": "https://www.kaigokensaku.mhlw.go.jp/43/index.php?action_kouhyou_detail_004_kani=true&JigyosyoCd=4370114748-00&ServiceCd=410&Type=search", "url2": null }, "geometry": { "type": "Point", "coordinates": [ 130.7449626, 32.797002 ] } },
{ "type": "Feature", "properties": { "内容": "スマイルケア　しょうぶ苑【特定福祉用具販売】画図町所島1039江津しょうぶ苑", "url": "https://www.kaigokensaku.mhlw.go.jp/43/index.php?action_kouhyou_detail_004_kani=true&JigyosyoCd=4370111454-00&ServiceCd=410&Type=search", "url2": "http://www.shoubuen.com/" }, "geometry": { "type": "Point", "coordinates": [ 130.734040100000016, 32.7718258 ] } },
{ "type": "Feature", "properties": { "内容": "ＱＣＣ熊本【特定福祉用具販売】熊本市東区長嶺南３丁目２番８６号", "url": "https://www.kaigokensaku.mhlw.go.jp/43/index.php?action_kouhyou_detail_004_kani=true&JigyosyoCd=4370104335-00&ServiceCd=410&Type=search", "url2": "http://www.qcc-kumamoto.com/" }, "geometry": { "type": "Point", "coordinates": [ 130.771073800000067, 32.813028 ] } },
{ "type": "Feature", "properties": { "内容": "タカヒロ福祉用具【特定福祉用具販売】熊本県熊本市東区尾ノ上1丁目14番25号", "url": "https://www.kaigokensaku.mhlw.go.jp/43/index.php?action_kouhyou_detail_004_kani=true&JigyosyoCd=4370114250-00&ServiceCd=410&Type=search", "url2": null }, "geometry": { "type": "Point", "coordinates": [ 130.751413, 32.7899692 ] } },
{ "type": "Feature", "properties": { "内容": "アグニール熊本　福祉用具事業所【特定福祉用具販売】熊本県熊本市東区花立2丁目8-21-102", "url": "https://www.kaigokensaku.mhlw.go.jp/43/index.php?action_kouhyou_detail_004_kani=true&JigyosyoCd=4370116214-00&ServiceCd=410&Type=search", "url2": null }, "geometry": { "type": "Point", "coordinates": [ 130.776204299999989, 32.7816156 ] } },
{ "type": "Feature", "properties": { "内容": "QCC熊本【特定福祉用具販売】熊本県熊本市東区長嶺南3丁目2-86", "url": "https://www.kaigokensaku.mhlw.go.jp/43/index.php?action_kouhyou_detail_004_kani=true&JigyosyoCd=4370113732-00&ServiceCd=410&Type=search", "url2": "http://qccg.jp" }, "geometry": { "type": "Point", "coordinates": [ 130.771056899999934, 32.8130125 ] } },
{ "type": "Feature", "properties": { "内容": "アステ【特定福祉用具販売】熊本県熊本市東区月出2丁目2番51号　1F-2サンセール月出", "url": "https://www.kaigokensaku.mhlw.go.jp/43/index.php?action_kouhyou_detail_004_kani=true&JigyosyoCd=4370115380-00&ServiceCd=410&Type=search", "url2": null }, "geometry": { "type": "Point", "coordinates": [ 130.76062, 32.8030753 ] } },
{ "type": "Feature", "properties": { "内容": "アメックス熊本株式会社【特定福祉用具販売】熊本県熊本市尾ノ上1丁目3番9号", "url": "https://www.kaigokensaku.mhlw.go.jp/43/index.php?action_kouhyou_detail_004_kani=true&JigyosyoCd=4370100960-00&ServiceCd=410&Type=search", "url2": "http://amex-k.jp" }, "geometry": { "type": "Point", "coordinates": [ 130.749380699999961, 32.7891993 ] } },
{ "type": "Feature", "properties": { "内容": "介臨丸　熊本営業所【特定福祉用具販売】熊本県熊本市東区小山2丁目11番17号", "url": "https://www.kaigokensaku.mhlw.go.jp/43/index.php?action_kouhyou_detail_004_kani=true&JigyosyoCd=4370110829-00&ServiceCd=410&Type=search", "url2": null }, "geometry": { "type": "Point", "coordinates": [ 130.787077899999986, 32.8280349 ] } },
{ "type": "Feature", "properties": { "内容": "有限会社　T3【特定福祉用具販売】渡鹿8-1-84-103", "url": "https://www.kaigokensaku.mhlw.go.jp/43/index.php?action_kouhyou_detail_004_kani=true&JigyosyoCd=4370114318-00&ServiceCd=410&Type=search", "url2": "t3mkzy.com" }, "geometry": { "type": "Point", "coordinates": [ 130.741150977528548, 32.808551783084283 ] } },
{ "type": "Feature", "properties": { "内容": "太陽シルバーサービス株式会社　熊本営業所【特定福祉用具販売】熊本県熊本市東区画図町大字下無田1432-22", "url": "https://www.kaigokensaku.mhlw.go.jp/43/index.php?action_kouhyou_detail_004_kani=true&JigyosyoCd=4370106207-00&ServiceCd=410&Type=search", "url2": "http://www.taiyoss.co.jp" }, "geometry": { "type": "Point", "coordinates": [ 130.768949099999986, 32.7755867 ] } },
{ "type": "Feature", "properties": { "内容": "ケアプラス福祉住環境サポート【特定福祉用具販売】熊本県熊本市東区尾ノ上2丁目3-3-1", "url": "https://www.kaigokensaku.mhlw.go.jp/43/index.php?action_kouhyou_detail_004_kani=true&JigyosyoCd=4370114672-00&ServiceCd=410&Type=search", "url2": "https://www.care-plus.jp/" }, "geometry": { "type": "Point", "coordinates": [ 130.7532536, 32.7948147 ] } },
{ "type": "Feature", "properties": { "内容": "有限会社　熊本託麻義肢【特定福祉用具販売】熊本県熊本市東区八反田2丁目1-49", "url": "https://www.kaigokensaku.mhlw.go.jp/43/index.php?action_kouhyou_detail_004_kani=true&JigyosyoCd=4370101315-00&ServiceCd=410&Type=search", "url2": null }, "geometry": { "type": "Point", "coordinates": [ 130.7600218, 32.8163136 ] } },
{ "type": "Feature", "properties": { "内容": "福祉用具貸与事業所　江津湖ケアサービス【特定福祉用具販売】熊本県熊本市東区画図町大字重富735番地51", "url": "https://www.kaigokensaku.mhlw.go.jp/43/index.php?action_kouhyou_detail_004_kani=true&JigyosyoCd=4370115133-00&ServiceCd=410&Type=search", "url2": null }, "geometry": { "type": "Point", "coordinates": [ 130.730164889925987, 32.757883297289474 ] } },
{ "type": "Feature", "properties": { "内容": "サプリホーム【特定福祉用具販売】熊本県熊本市東区湖東3-7-21", "url": "https://www.kaigokensaku.mhlw.go.jp/43/index.php?action_kouhyou_detail_004_kani=true&JigyosyoCd=4372801698-00&ServiceCd=410&Type=search", "url2": "http://supprehome.jp/" }, "geometry": { "type": "Point", "coordinates": [ 130.743674084041459, 32.778359192222851 ] } },
{ "type": "Feature", "properties": { "内容": "ゆうしん福祉用具事業所【特定福祉用具販売】熊本県熊本市東区錦ヶ丘26-11", "url": "https://www.kaigokensaku.mhlw.go.jp/43/index.php?action_kouhyou_detail_004_kani=true&JigyosyoCd=4370115083-00&ServiceCd=410&Type=search", "url2": "熊本市東区錦ヶ丘26-11" }, "geometry": { "type": "Point", "coordinates": [ 130.758751100000012, 32.7915073 ] } },
{ "type": "Feature", "properties": { "内容": "株式会社ホワシ【特定福祉用具販売】熊本県熊本市東区小山5丁目19番55号", "url": "https://www.kaigokensaku.mhlw.go.jp/43/index.php?action_kouhyou_detail_004_kani=true&JigyosyoCd=4370110951-00&ServiceCd=410&Type=search", "url2": "www.howashi.jp" }, "geometry": { "type": "Point", "coordinates": [ 130.792998925131172, 32.830909262091318 ] } },
{ "type": "Feature", "properties": { "内容": "合同会社アンド・クリエイト【特定福祉用具販売】熊本県熊本市東区御領３丁目６－５０倉庫付事務所（N)１０２", "url": "https://www.kaigokensaku.mhlw.go.jp/43/index.php?action_kouhyou_detail_004_kani=true&JigyosyoCd=4370115661-00&ServiceCd=410&Type=search", "url2": null }, "geometry": { "type": "Point", "coordinates": [ 130.769539, 32.8236382 ] } },
{ "type": "Feature", "properties": { "内容": "すまいる熊本【特定福祉用具販売】熊本県熊本市東区神園1丁目9番3号", "url": "https://www.kaigokensaku.mhlw.go.jp/43/index.php?action_kouhyou_detail_004_kani=true&JigyosyoCd=4370116768-00&ServiceCd=410&Type=search", "url2": "http://fukuen.co.jp/" }, "geometry": { "type": "Point", "coordinates": [ 130.7811802, 32.8370281 ] } },
{ "type": "Feature", "properties": { "内容": "地域生活応援館【特定福祉用具販売】熊本県熊本市東区上南部２丁目1-67", "url": "https://www.kaigokensaku.mhlw.go.jp/43/index.php?action_kouhyou_detail_004_kani=true&JigyosyoCd=4370111066-00&ServiceCd=410&Type=search", "url2": "http://www.kumasuma.co.jp" }, "geometry": { "type": "Point", "coordinates": [ 130.7657573, 32.8287925 ] } },
{ "type": "Feature", "properties": { "内容": "まるもり　東【特定福祉用具販売】東区錦ケ丘9-13田島コーポ103", "url": "https://www.kaigokensaku.mhlw.go.jp/43/index.php?action_kouhyou_detail_004_kani=true&JigyosyoCd=4370115737-00&ServiceCd=410&Type=search", "url2": null }, "geometry": { "type": "Point", "coordinates": [ 130.7547513, 32.7909167 ] } },
{ "type": "Feature", "properties": { "内容": "株式会社いずみ【特定福祉用具販売】熊本県熊本市東区月出5丁目3-31", "url": "https://www.kaigokensaku.mhlw.go.jp/43/index.php?action_kouhyou_detail_004_kani=true&JigyosyoCd=4370116727-00&ServiceCd=410&Type=search", "url2": null }, "geometry": { "type": "Point", "coordinates": [ 130.7727341, 32.8033264 ] } },
{ "type": "Feature", "properties": { "内容": "福祉用具貸与事業所クローバー【特定福祉用具販売】保田窪４丁目８－７", "url": "https://www.kaigokensaku.mhlw.go.jp/43/index.php?action_kouhyou_detail_004_kani=true&JigyosyoCd=4370116859-00&ServiceCd=410&Type=search", "url2": "http://qol4.com" }, "geometry": { "type": "Point", "coordinates": [ 130.7530352, 32.8087405 ] } },
{ "type": "Feature", "properties": { "内容": "有限会社ベストライフ福祉用具サービス【特定福祉用具販売】熊本県熊本市西区春日7丁目16番12号", "url": "https://www.kaigokensaku.mhlw.go.jp/43/index.php?action_kouhyou_detail_004_kani=true&JigyosyoCd=4370111744-00&ServiceCd=410&Type=search", "url2": "https://bestlife1165.com/" }, "geometry": { "type": "Point", "coordinates": [ 130.680955, 32.7862914 ] } },
{ "type": "Feature", "properties": { "内容": "パナソニックエイジフリーショップ上熊本【特定福祉用具販売】熊本県熊本市西区花園1丁目4番2号", "url": "https://www.kaigokensaku.mhlw.go.jp/43/index.php?action_kouhyou_detail_004_kani=true&JigyosyoCd=4370113062-00&ServiceCd=410&Type=search", "url2": "http://sumai.panasonic.jp/agefree/map/detail.php?id=319" }, "geometry": { "type": "Point", "coordinates": [ 130.697830900000014, 32.8128769 ] } },
{ "type": "Feature", "properties": { "内容": "レンタルサービスひゅうが熊本【特定福祉用具販売】春日1丁目6－3URBANGRACE703号室", "url": "https://www.kaigokensaku.mhlw.go.jp/43/index.php?action_kouhyou_detail_004_kani=true&JigyosyoCd=4370116669-00&ServiceCd=410&Type=search", "url2": "https://www.hyuga-primary.care" }, "geometry": { "type": "Point", "coordinates": [ 139.7464421, 35.7074403 ] } },
{ "type": "Feature", "properties": { "内容": "有限会社　グッドヘルス【特定福祉用具販売】熊本市西区島崎2丁目22－15", "url": "https://www.kaigokensaku.mhlw.go.jp/43/index.php?action_kouhyou_detail_004_kani=true&JigyosyoCd=4370100937-00&ServiceCd=410&Type=search", "url2": null }, "geometry": { "type": "Point", "coordinates": [ 130.690442699999949, 32.808068800000022 ] } },
{ "type": "Feature", "properties": { "内容": "有限会社　徳　工　房【特定福祉用具販売】熊本県熊本市南区富合町国町235-2番地", "url": "https://www.kaigokensaku.mhlw.go.jp/43/index.php?action_kouhyou_detail_004_kani=true&JigyosyoCd=4370107114-00&ServiceCd=410&Type=search", "url2": "tokukoubou0705@kzc.biglobe.ne.jp" }, "geometry": { "type": "Point", "coordinates": [ 130.667571054106133, 32.720380575921325 ] } },
{ "type": "Feature", "properties": { "内容": "福祉用具販売事業所　パニコム【特定福祉用具販売】熊本市南区海路口町４９９－２", "url": "https://www.kaigokensaku.mhlw.go.jp/43/index.php?action_kouhyou_detail_004_kani=true&JigyosyoCd=4370102776-00&ServiceCd=410&Type=search", "url2": "http://www.morise-kaigo.com/" }, "geometry": { "type": "Point", "coordinates": [ 130.617244300000038, 32.7389823 ] } },
{ "type": "Feature", "properties": { "内容": "トータル　マスター【特定福祉用具販売】熊本県熊本市南区出仲間8丁目1-11", "url": "https://www.kaigokensaku.mhlw.go.jp/43/index.php?action_kouhyou_detail_004_kani=true&JigyosyoCd=4370111249-00&ServiceCd=410&Type=search", "url2": "chihiro-fukushi.jp" }, "geometry": { "type": "Point", "coordinates": [ 130.718264590554497, 32.768593898923683 ] } },
{ "type": "Feature", "properties": { "内容": "熊本ヤマハ株式会社【特定福祉用具販売】熊本市南区南高江３丁目２番１号", "url": "https://www.kaigokensaku.mhlw.go.jp/43/index.php?action_kouhyou_detail_004_kani=true&JigyosyoCd=4370102586-00&ServiceCd=410&Type=search", "url2": "http://www.ky-kaigo.com/" }, "geometry": { "type": "Point", "coordinates": [ 130.688677899999988, 32.7579388 ] } },
{ "type": "Feature", "properties": { "内容": "福祉用具販売事業所　楽心【特定福祉用具販売】熊本市南区会富町1120番地", "url": "https://www.kaigokensaku.mhlw.go.jp/43/index.php?action_kouhyou_detail_004_kani=true&JigyosyoCd=4370101299-00&ServiceCd=410&Type=search", "url2": "http://www.akita-hospital.or.jp" }, "geometry": { "type": "Point", "coordinates": [ 130.6536484, 32.7526808 ] } },
{ "type": "Feature", "properties": { "内容": "株式会社　ファーマダイワ【特定福祉用具販売】熊本県熊本市南区流通団地1-56", "url": "https://www.kaigokensaku.mhlw.go.jp/43/index.php?action_kouhyou_detail_004_kani=true&JigyosyoCd=4370113005-00&ServiceCd=410&Type=search", "url2": null }, "geometry": { "type": "Point", "coordinates": [ 130.707005327508568, 32.766306523994416 ] } },
{ "type": "Feature", "properties": { "内容": "ケアパーク川尻店【特定福祉用具販売】熊本県熊本市南区八幡5丁目3-31", "url": "https://www.kaigokensaku.mhlw.go.jp/43/index.php?action_kouhyou_detail_004_kani=true&JigyosyoCd=4370116180-00&ServiceCd=410&Type=search", "url2": "https://www.care-park.com/" }, "geometry": { "type": "Point", "coordinates": [ 130.680973874205023, 32.747787014022684 ] } },
{ "type": "Feature", "properties": { "内容": "株式会社　荒木マリーン【特定福祉用具販売】熊本市南区近見9丁目9番5号", "url": "https://www.kaigokensaku.mhlw.go.jp/43/index.php?action_kouhyou_detail_004_kani=true&JigyosyoCd=4370104947-00&ServiceCd=410&Type=search", "url2": "https://arakimari-n.com/" }, "geometry": { "type": "Point", "coordinates": [ 130.697882260257671, 32.761959487464523 ] } },
{ "type": "Feature", "properties": { "内容": "千広【特定福祉用具販売】熊本市南区近見1ｰ8ｰ5", "url": "https://www.kaigokensaku.mhlw.go.jp/43/index.php?action_kouhyou_detail_004_kani=true&JigyosyoCd=4370103287-00&ServiceCd=410&Type=search", "url2": "https://chihiro-fukushi.jp/" }, "geometry": { "type": "Point", "coordinates": [ 130.690867487434019, 32.76600829775721 ] } },
{ "type": "Feature", "properties": { "内容": "てとて【特定福祉用具販売】熊本市南区良町1丁目20-15", "url": "https://www.kaigokensaku.mhlw.go.jp/43/index.php?action_kouhyou_detail_004_kani=true&JigyosyoCd=4370115992-00&ServiceCd=410&Type=search", "url2": null }, "geometry": { "type": "Point", "coordinates": [ 130.726048752778667, 32.76109622236396 ] } },
{ "type": "Feature", "properties": { "内容": "有限会社カインドケア【特定福祉用具販売】熊本県熊本市南区城南町六田546番地5", "url": "https://www.kaigokensaku.mhlw.go.jp/43/index.php?action_kouhyou_detail_004_kani=true&JigyosyoCd=4370102917-00&ServiceCd=410&Type=search", "url2": null }, "geometry": { "type": "Point", "coordinates": [ 130.7170969, 32.7062427 ] } },
{ "type": "Feature", "properties": { "内容": "ベストケア熊本【特定福祉用具販売】熊本市南区近見6丁目16番18号", "url": "https://www.kaigokensaku.mhlw.go.jp/43/index.php?action_kouhyou_detail_004_kani=true&JigyosyoCd=4370108955-00&ServiceCd=410&Type=search", "url2": "https://evahlife.jp/" }, "geometry": { "type": "Point", "coordinates": [ 130.695507300000031, 32.7637146 ] } },
{ "type": "Feature", "properties": { "内容": "ふくえん熊本【特定福祉用具販売】熊本市南区南高江2丁目1-28", "url": "https://www.kaigokensaku.mhlw.go.jp/43/index.php?action_kouhyou_detail_004_kani=true&JigyosyoCd=4370110050-00&ServiceCd=410&Type=search", "url2": "http://fukuen.co.jp/" }, "geometry": { "type": "Point", "coordinates": [ 130.685834352198214, 32.751561165498671 ] } },
{ "type": "Feature", "properties": { "内容": "フランスベッド株式会社メディカル熊本営業所【特定福祉用具販売】熊本市南区流通団地1丁目60番地", "url": "https://www.kaigokensaku.mhlw.go.jp/43/index.php?action_kouhyou_detail_004_kani=true&JigyosyoCd=4370106561-00&ServiceCd=410&Type=search", "url2": "http://www.francebed.co.jp/" }, "geometry": { "type": "Point", "coordinates": [ 130.7060424, 32.7665703 ] } },
{ "type": "Feature", "properties": { "内容": "株式会社　介助　南熊本営業所【特定福祉用具販売】熊本県熊本市南区田井島1丁目9-19", "url": "https://www.kaigokensaku.mhlw.go.jp/43/index.php?action_kouhyou_detail_004_kani=true&JigyosyoCd=4370109771-00&ServiceCd=410&Type=search", "url2": "https://kaisuke.co.jp/" }, "geometry": { "type": "Point", "coordinates": [ 130.7242185, 32.7688205 ] } },
{ "type": "Feature", "properties": { "内容": "リブアップ【特定福祉用具販売】御幸笛田8-9-19", "url": "https://www.kaigokensaku.mhlw.go.jp/43/index.php?action_kouhyou_detail_004_kani=true&JigyosyoCd=4370116149-00&ServiceCd=410&Type=search", "url2": null }, "geometry": { "type": "Point", "coordinates": [ 130.7128567, 32.7525356 ] } },
{ "type": "Feature", "properties": { "内容": "株式会社わかふき【特定福祉用具販売】八分字町２５６０－１", "url": "https://www.kaigokensaku.mhlw.go.jp/43/index.php?action_kouhyou_detail_004_kani=true&JigyosyoCd=4370111975-00&ServiceCd=410&Type=search", "url2": null }, "geometry": { "type": "Point", "coordinates": [ 130.659519, 32.7606008 ] } },
{ "type": "Feature", "properties": { "内容": "株式会社　悠生【特定福祉用具販売】熊本県熊本市北区植木町広住461-17", "url": "https://www.kaigokensaku.mhlw.go.jp/43/index.php?action_kouhyou_detail_004_kani=true&JigyosyoCd=4372500811-00&ServiceCd=410&Type=search", "url2": null }, "geometry": { "type": "Point", "coordinates": [ 130.696291200000019, 32.9017661 ] } },
{ "type": "Feature", "properties": { "内容": "Let'sレンタ！【特定福祉用具販売】熊本県熊本市北区高平3丁目42-3", "url": "https://www.kaigokensaku.mhlw.go.jp/43/index.php?action_kouhyou_detail_004_kani=true&JigyosyoCd=4370114268-00&ServiceCd=410&Type=search", "url2": null }, "geometry": { "type": "Point", "coordinates": [ 130.719047, 32.8389783 ] } },
{ "type": "Feature", "properties": { "内容": "有限会社　サンキューハート【特定福祉用具販売】熊本市北区鹿子木町８８番地１", "url": "https://www.kaigokensaku.mhlw.go.jp/43/index.php?action_kouhyou_detail_004_kani=true&JigyosyoCd=4370103824-00&ServiceCd=410&Type=search", "url2": null }, "geometry": { "type": "Point", "coordinates": [ 130.7018438, 32.8710052 ] } },
{ "type": "Feature", "properties": { "内容": "株式会社トーカイ　熊本営業所【特定福祉用具販売】飛田4丁目9番112号", "url": "https://www.kaigokensaku.mhlw.go.jp/43/index.php?action_kouhyou_detail_004_kani=true&JigyosyoCd=4370108096-00&ServiceCd=410&Type=search", "url2": "https://www.tokai-corp.com/" }, "geometry": { "type": "Point", "coordinates": [ 130.722789799999987, 32.8545045 ] } },
{ "type": "Feature", "properties": { "内容": "アクサ【特定福祉用具販売】熊本県熊本市北区下硯川二丁目7番24号", "url": "https://www.kaigokensaku.mhlw.go.jp/43/index.php?action_kouhyou_detail_004_kani=true&JigyosyoCd=4370102644-00&ServiceCd=410&Type=search", "url2": null }, "geometry": { "type": "Point", "coordinates": [ 130.70760759999996, 32.8502544 ] } },
{ "type": "Feature", "properties": { "内容": "熊本医療ガス　株式会社【特定福祉用具販売】熊本県熊本市北区下硯川町２２０５番地", "url": "https://www.kaigokensaku.mhlw.go.jp/43/index.php?action_kouhyou_detail_004_kani=true&JigyosyoCd=4370103527-00&ServiceCd=410&Type=search", "url2": "www.kumamoto-iryou-gas.co.jp" }, "geometry": { "type": "Point", "coordinates": [ 130.708945591401687, 32.853040309807994 ] } },
{ "type": "Feature", "properties": { "内容": "太陽シルバーサービス株式会社　熊本北営業所【特定福祉用具販売】熊本県熊本市北区鶴羽田１丁目１０番７号", "url": "https://www.kaigokensaku.mhlw.go.jp/43/index.php?action_kouhyou_detail_004_kani=true&JigyosyoCd=4370107056-00&ServiceCd=410&Type=search", "url2": "http://www.taiyoss.co.jp" }, "geometry": { "type": "Point", "coordinates": [ 130.7257952, 32.8565488 ] } },
{ "type": "Feature", "properties": { "内容": "ハイコムライフクリエート株式会社【特定福祉用具販売】熊本県熊本市北区楠8丁目18-53", "url": "https://www.kaigokensaku.mhlw.go.jp/43/index.php?action_kouhyou_detail_004_kani=true&JigyosyoCd=4370113534-00&ServiceCd=410&Type=search", "url2": "https://life.8156.jp/" }, "geometry": { "type": "Point", "coordinates": [ 130.766056700000036, 32.8491012 ] } },
{ "type": "Feature", "properties": { "内容": "株式会社　ｴｳﾞｧ・ﾗｲﾌ　ベストケア北熊本【特定福祉用具販売】熊本県熊本市北区植木町鐙田1543-3", "url": "https://www.kaigokensaku.mhlw.go.jp/43/index.php?action_kouhyou_detail_004_kani=true&JigyosyoCd=4370114151-00&ServiceCd=410&Type=search", "url2": "evahlife.jp" }, "geometry": { "type": "Point", "coordinates": [ 130.7009131, 32.8764441 ] } },
{ "type": "Feature", "properties": { "内容": "株式会社　介助　熊本営業所【特定福祉用具販売】熊本県熊本市北区下硯川2-9-11", "url": "https://www.kaigokensaku.mhlw.go.jp/43/index.php?action_kouhyou_detail_004_kani=true&JigyosyoCd=4370107882-00&ServiceCd=410&Type=search", "url2": null }, "geometry": { "type": "Point", "coordinates": [ 130.707796499999972, 32.8519515 ] } },
{ "type": "Feature", "properties": { "内容": "暖レンタルサービス【特定福祉用具販売】山室5丁目4-21", "url": "https://www.kaigokensaku.mhlw.go.jp/43/index.php?action_kouhyou_detail_004_kani=true&JigyosyoCd=4370115364-00&ServiceCd=410&Type=search", "url2": "http://dan-inc.co.jp/news/#20230214183252" }, "geometry": { "type": "Point", "coordinates": [ 130.7179363, 32.8454524 ] } },
{ "type": "Feature", "properties": { "内容": "有限会社　田中商店【特定福祉用具販売】熊本県熊本市北区植木町正清５３６", "url": "https://www.kaigokensaku.mhlw.go.jp/43/index.php?action_kouhyou_detail_004_kani=true&JigyosyoCd=4372500456-00&ServiceCd=410&Type=search", "url2": null }, "geometry": { "type": "Point", "coordinates": [ 130.717969, 32.962856 ] } },
{ "type": "Feature", "properties": { "内容": "福祉サービス熊本【特定福祉用具販売】熊本県八代市田中町573-8", "url": "https://www.kaigokensaku.mhlw.go.jp/43/index.php?action_kouhyou_detail_004_kani=true&JigyosyoCd=4370200992-00&ServiceCd=410&Type=search", "url2": null }, "geometry": { "type": "Point", "coordinates": [ 130.60663169999998, 32.5170283 ] } },
{ "type": "Feature", "properties": { "内容": "福祉用具たんぽぽ【特定福祉用具販売】熊本県八代市日置町79番地3", "url": "https://www.kaigokensaku.mhlw.go.jp/43/index.php?action_kouhyou_detail_004_kani=true&JigyosyoCd=4370202816-00&ServiceCd=410&Type=search", "url2": null }, "geometry": { "type": "Point", "coordinates": [ 130.619975299999965, 32.5125821 ] } },
{ "type": "Feature", "properties": { "内容": "介護用品まんてん【特定福祉用具販売】熊本県八代市北の丸町３－５０", "url": "https://www.kaigokensaku.mhlw.go.jp/43/index.php?action_kouhyou_detail_004_kani=true&JigyosyoCd=4370200620-00&ServiceCd=410&Type=search", "url2": "http://www.kaigocsc.co.jp/sirasagi/" }, "geometry": { "type": "Point", "coordinates": [ 130.595477, 32.5099116 ] } },
{ "type": "Feature", "properties": { "内容": "ヨシズミ【特定福祉用具販売】熊本県八代市弥生町15-10", "url": "https://www.kaigokensaku.mhlw.go.jp/43/index.php?action_kouhyou_detail_004_kani=true&JigyosyoCd=4370200919-00&ServiceCd=410&Type=search", "url2": "http://www.yoshizumi.net/" }, "geometry": { "type": "Point", "coordinates": [ 130.606582, 32.503346 ] } },
{ "type": "Feature", "properties": { "内容": "千広　八代営業所【特定福祉用具販売】熊本県八代市新町3-10", "url": "https://www.kaigokensaku.mhlw.go.jp/43/index.php?action_kouhyou_detail_004_kani=true&JigyosyoCd=4370203350-00&ServiceCd=410&Type=search", "url2": "https://home-health.chihiro-fukushi.jp/" }, "geometry": { "type": "Point", "coordinates": [ 130.6103779, 32.5068305 ] } },
{ "type": "Feature", "properties": { "内容": "ミタカトライブ株式会社【特定福祉用具販売】熊本県八代市宮地町1577番地1", "url": "https://www.kaigokensaku.mhlw.go.jp/43/index.php?action_kouhyou_detail_004_kani=true&JigyosyoCd=4370203418-00&ServiceCd=410&Type=search", "url2": "https://t-mitaka.com" }, "geometry": { "type": "Point", "coordinates": [ 130.635617200000013, 32.5013955 ] } },
{ "type": "Feature", "properties": { "内容": "ケアパーク福祉用具レンタル事業所【特定福祉用具販売】熊本県八代市上日置町4298-5", "url": "https://www.kaigokensaku.mhlw.go.jp/43/index.php?action_kouhyou_detail_004_kani=true&JigyosyoCd=4370200125-00&ServiceCd=410&Type=search", "url2": "http://www.care-park.com/" }, "geometry": { "type": "Point", "coordinates": [ 130.641174488290716, 32.521919591731631 ] } },
{ "type": "Feature", "properties": { "内容": "エニータイム【特定福祉用具販売】萩原一丁目3番地30号", "url": "https://www.kaigokensaku.mhlw.go.jp/43/index.php?action_kouhyou_detail_004_kani=true&JigyosyoCd=4370202253-00&ServiceCd=410&Type=search", "url2": "https://www.any-time.co.jp" }, "geometry": { "type": "Point", "coordinates": [ 130.747933099999955, 33.8635592 ] } },
{ "type": "Feature", "properties": { "内容": "サニーデイズ【特定福祉用具販売】熊本県八代市松江城町3番28号", "url": "https://www.kaigokensaku.mhlw.go.jp/43/index.php?action_kouhyou_detail_004_kani=true&JigyosyoCd=4370203343-00&ServiceCd=410&Type=search", "url2": null }, "geometry": { "type": "Point", "coordinates": [ 130.601090992118486, 32.505717298933895 ] } },
{ "type": "Feature", "properties": { "内容": "株式会社大夢【特定福祉用具販売】熊本県八代市古城町2568番地1", "url": "https://www.kaigokensaku.mhlw.go.jp/43/index.php?action_kouhyou_detail_004_kani=true&JigyosyoCd=4370202386-00&ServiceCd=410&Type=search", "url2": null }, "geometry": { "type": "Point", "coordinates": [ 130.5912945, 32.4941571 ] } },
{ "type": "Feature", "properties": { "内容": "栄幸株式会社【特定福祉用具販売】熊本県八代市海士江町2276番地", "url": "https://www.kaigokensaku.mhlw.go.jp/43/index.php?action_kouhyou_detail_004_kani=true&JigyosyoCd=4370202824-00&ServiceCd=410&Type=search", "url2": null }, "geometry": { "type": "Point", "coordinates": [ 130.625334889549322, 32.529240858649189 ] } },
{ "type": "Feature", "properties": { "内容": "福祉用具の店　にじいろ【特定福祉用具販売】熊本県人吉市鬼木町字芦原699番地1ヴィラヴェルデ・103", "url": "https://www.kaigokensaku.mhlw.go.jp/43/index.php?action_kouhyou_detail_004_kani=true&JigyosyoCd=4370301345-00&ServiceCd=410&Type=search", "url2": null }, "geometry": { "type": "Point", "coordinates": [ 130.764868267558199, 32.225215143872738 ] } },
{ "type": "Feature", "properties": { "内容": "株式会社　ホワシ　人吉営業所【特定福祉用具販売】熊本県熊本市人吉市寺町21番1号", "url": "https://www.kaigokensaku.mhlw.go.jp/43/index.php?action_kouhyou_detail_004_kani=true&JigyosyoCd=4370301188-00&ServiceCd=410&Type=search", "url2": "www.howashi.jp" }, "geometry": { "type": "Point", "coordinates": [ 130.76104328584438, 32.209470292993913 ] } },
{ "type": "Feature", "properties": { "内容": "株式会社ケアメイト【特定福祉用具販売】熊本県人吉市下原田町字瓜生田1109", "url": "https://www.kaigokensaku.mhlw.go.jp/43/index.php?action_kouhyou_detail_004_kani=true&JigyosyoCd=4370301360-00&ServiceCd=410&Type=search", "url2": null }, "geometry": { "type": "Point", "coordinates": [ 130.720708529916351, 32.228335434760389 ] } },
{ "type": "Feature", "properties": { "内容": "荒尾介護システム　サービス事業部【特定福祉用具販売】熊本県荒尾市原万田696番地9", "url": "https://www.kaigokensaku.mhlw.go.jp/43/index.php?action_kouhyou_detail_004_kani=true&JigyosyoCd=4370400691-00&ServiceCd=410&Type=search", "url2": null }, "geometry": { "type": "Point", "coordinates": [ 130.438471700000036, 33.0019756 ] } },
{ "type": "Feature", "properties": { "内容": "有限会社　ミムラ・ヒューマンケア【特定福祉用具販売】熊本県荒尾市川登１８６３―４１４", "url": "https://www.kaigokensaku.mhlw.go.jp/43/index.php?action_kouhyou_detail_004_kani=true&JigyosyoCd=4370400568-00&ServiceCd=410&Type=search", "url2": "http://mimura-humancare.wix.com/1234#" }, "geometry": { "type": "Point", "coordinates": [ 130.469778200000064, 32.9729347 ] } },
{ "type": "Feature", "properties": { "内容": "株式会社ホワシ　荒尾営業所【特定福祉用具販売】熊本県荒尾市金山字三ツ枝1422番地1", "url": "https://www.kaigokensaku.mhlw.go.jp/43/index.php?action_kouhyou_detail_004_kani=true&JigyosyoCd=4370401384-00&ServiceCd=410&Type=search", "url2": "http://www.howashi.jp/" }, "geometry": { "type": "Point", "coordinates": [ 130.504500524579754, 32.944149599362689 ] } },
{ "type": "Feature", "properties": { "内容": "ケアパーク水俣【特定福祉用具販売】熊本県水俣市汐見町1丁目９９-２", "url": "https://www.kaigokensaku.mhlw.go.jp/43/index.php?action_kouhyou_detail_004_kani=true&JigyosyoCd=4370500532-00&ServiceCd=410&Type=search", "url2": "http://www.care-park.com/" }, "geometry": { "type": "Point", "coordinates": [ 130.385308516107926, 32.201308419261039 ] } },
{ "type": "Feature", "properties": { "内容": "福祉用具のライフ【特定福祉用具販売】熊本県水俣市古賀町２丁目６番16号", "url": "https://www.kaigokensaku.mhlw.go.jp/43/index.php?action_kouhyou_detail_004_kani=true&JigyosyoCd=4370500995-00&ServiceCd=410&Type=search", "url2": null }, "geometry": { "type": "Point", "coordinates": [ 130.462512800000013, 33.7240602 ] } },
{ "type": "Feature", "properties": { "内容": "株式会社　サークルケア【特定福祉用具販売】熊本県玉名市伊倉北方39番地1", "url": "https://www.kaigokensaku.mhlw.go.jp/43/index.php?action_kouhyou_detail_004_kani=true&JigyosyoCd=4370601132-00&ServiceCd=410&Type=search", "url2": null }, "geometry": { "type": "Point", "coordinates": [ 130.567473800000016, 32.9066694 ] } },
{ "type": "Feature", "properties": { "内容": "ほほえみ介護サービス【特定福祉用具販売】熊本県玉名市繁根木２５９－１８", "url": "https://www.kaigokensaku.mhlw.go.jp/43/index.php?action_kouhyou_detail_004_kani=true&JigyosyoCd=4370600993-00&ServiceCd=410&Type=search", "url2": null }, "geometry": { "type": "Point", "coordinates": [ 130.558173399999987, 32.928229 ] } },
{ "type": "Feature", "properties": { "内容": "アイアル・ケア【特定福祉用具販売】熊本県山鹿市久原3981-2", "url": "https://www.kaigokensaku.mhlw.go.jp/43/index.php?action_kouhyou_detail_004_kani=true&JigyosyoCd=4370800510-00&ServiceCd=410&Type=search", "url2": null }, "geometry": { "type": "Point", "coordinates": [ 130.7131789, 33.019506 ] } },
{ "type": "Feature", "properties": { "内容": "有限会社　三栄商会（サンエイメディカル）【特定福祉用具販売】熊本県山鹿市中央通４０６", "url": "https://www.kaigokensaku.mhlw.go.jp/43/index.php?action_kouhyou_detail_004_kani=true&JigyosyoCd=4370800346-00&ServiceCd=410&Type=search", "url2": "http://www.sanei-medical.co.jp" }, "geometry": { "type": "Point", "coordinates": [ 130.684356799999932, 33.0155946 ] } },
{ "type": "Feature", "properties": { "内容": "プラスケア　山鹿【特定福祉用具販売】熊本県山鹿市方保田３６７４－１", "url": "https://www.kaigokensaku.mhlw.go.jp/43/index.php?action_kouhyou_detail_004_kani=true&JigyosyoCd=4370800957-00&ServiceCd=410&Type=search", "url2": "pluscare2002.co.jp" }, "geometry": { "type": "Point", "coordinates": [ 130.719447953858889, 33.004914553544396 ] } },
{ "type": "Feature", "properties": { "内容": "ベストケア山鹿【特定福祉用具販売】熊本県山鹿市古閑1282-1", "url": "https://www.kaigokensaku.mhlw.go.jp/43/index.php?action_kouhyou_detail_004_kani=true&JigyosyoCd=4370107817-00&ServiceCd=410&Type=search", "url2": "http://evahlife.jp" }, "geometry": { "type": "Point", "coordinates": [ 130.709765599999969, 33.0086125 ] } },
{ "type": "Feature", "properties": { "内容": "株式会社タートル【特定福祉用具販売】熊本県菊池市隈府279", "url": "https://www.kaigokensaku.mhlw.go.jp/43/index.php?action_kouhyou_detail_004_kani=true&JigyosyoCd=4371000599-00&ServiceCd=410&Type=search", "url2": "http://www3.ocn.ne.jp/~turtle" }, "geometry": { "type": "Point", "coordinates": [ 130.808636, 32.9813661 ] } },
{ "type": "Feature", "properties": { "内容": "株式会社ライフ【特定福祉用具販売】熊本県宇土市立岡町541番地3", "url": "https://www.kaigokensaku.mhlw.go.jp/43/index.php?action_kouhyou_detail_004_kani=true&JigyosyoCd=4371100944-00&ServiceCd=410&Type=search", "url2": null }, "geometry": { "type": "Point", "coordinates": [ 130.686031100000037, 32.675639 ] } },
{ "type": "Feature", "properties": { "内容": "ケアパーク熊本南店【特定福祉用具販売】熊本県宇土市松山町937番地1", "url": "https://www.kaigokensaku.mhlw.go.jp/43/index.php?action_kouhyou_detail_004_kani=true&JigyosyoCd=4371100902-00&ServiceCd=410&Type=search", "url2": "http：//www.care-park.com/" }, "geometry": { "type": "Point", "coordinates": [ 130.66952660000004, 32.6732309 ] } },
{ "type": "Feature", "properties": { "内容": "有限会社　さかがわ【特定福祉用具販売】熊本県上天草市龍ヶ岳町１２３７－１５番地", "url": "https://www.kaigokensaku.mhlw.go.jp/43/index.php?action_kouhyou_detail_004_kani=true&JigyosyoCd=4373200684-00&ServiceCd=410&Type=search", "url2": "http://sakagawa.kataranna.com/" }, "geometry": { "type": "Point", "coordinates": [ 130.389594, 32.3935355 ] } },
{ "type": "Feature", "properties": { "内容": "株式会社こころ【特定福祉用具販売】熊本県上天草市松島町合津3433-70", "url": "https://www.kaigokensaku.mhlw.go.jp/43/index.php?action_kouhyou_detail_004_kani=true&JigyosyoCd=4371200298-00&ServiceCd=410&Type=search", "url2": null }, "geometry": { "type": "Point", "coordinates": [ 130.427465399999988, 32.5083875 ] } },
{ "type": "Feature", "properties": { "内容": "有限会社ひまわり【特定福祉用具販売】熊本県宇城市松橋町東松崎602番地", "url": "https://www.kaigokensaku.mhlw.go.jp/43/index.php?action_kouhyou_detail_004_kani=true&JigyosyoCd=4372300915-00&ServiceCd=410&Type=search", "url2": null }, "geometry": { "type": "Point", "coordinates": [ 130.671308, 32.6438165 ] } },
{ "type": "Feature", "properties": { "内容": "ケアーズ・イン【特定福祉用具販売】熊本県阿蘇市狩尾240番地2", "url": "https://www.kaigokensaku.mhlw.go.jp/43/index.php?action_kouhyou_detail_004_kani=true&JigyosyoCd=4372701104-00&ServiceCd=410&Type=search", "url2": null }, "geometry": { "type": "Point", "coordinates": [ 131.030415799999986, 32.9549488 ] } },
{ "type": "Feature", "properties": { "内容": "有限会社　福吉商会【特定福祉用具販売】熊本県天草市中央新町６－６", "url": "https://www.kaigokensaku.mhlw.go.jp/43/index.php?action_kouhyou_detail_004_kani=true&JigyosyoCd=4370700538-00&ServiceCd=410&Type=search", "url2": null }, "geometry": { "type": "Point", "coordinates": [ 130.190568900000017, 32.4566488 ] } },
{ "type": "Feature", "properties": { "内容": "ダスキンヘルスレント天草ステーション【特定福祉用具販売】熊本県天草市北原町1番19号", "url": "https://www.kaigokensaku.mhlw.go.jp/43/index.php?action_kouhyou_detail_004_kani=true&JigyosyoCd=4370700652-00&ServiceCd=410&Type=search", "url2": "http://healthrent.duskin.jp/" }, "geometry": { "type": "Point", "coordinates": [ 130.188554699999941, 32.4651452 ] } },
{ "type": "Feature", "properties": { "内容": "株式会社　優愛らいふ・ケア【特定福祉用具販売】熊本県天草市亀場町亀川１４２－１０", "url": "https://www.kaigokensaku.mhlw.go.jp/43/index.php?action_kouhyou_detail_004_kani=true&JigyosyoCd=4371500309-00&ServiceCd=410&Type=search", "url2": null }, "geometry": { "type": "Point", "coordinates": [ 130.200799299999971, 32.4450776 ] } },
{ "type": "Feature", "properties": { "内容": "株式会社シルバーレスキュー【特定福祉用具販売】熊本県天草市本渡町本渡2576-1", "url": "https://www.kaigokensaku.mhlw.go.jp/43/index.php?action_kouhyou_detail_004_kani=true&JigyosyoCd=4371501067-00&ServiceCd=410&Type=search", "url2": "https://silver-rescue.com/about/" }, "geometry": { "type": "Point", "coordinates": [ 130.179636842362584, 32.456790436690056 ] } },
{ "type": "Feature", "properties": { "内容": "ＱＣＣ天草【特定福祉用具販売】熊本県天草市今釜新町3559", "url": "https://www.kaigokensaku.mhlw.go.jp/43/index.php?action_kouhyou_detail_004_kani=true&JigyosyoCd=4371501000-00&ServiceCd=410&Type=search", "url2": null }, "geometry": { "type": "Point", "coordinates": [ 130.196942900000067, 32.4598729 ] } },
{ "type": "Feature", "properties": { "内容": "株式会社ミタカ　天草営業所【特定福祉用具販売】熊本県天草市楠浦町字新田10263-4", "url": "https://www.kaigokensaku.mhlw.go.jp/43/index.php?action_kouhyou_detail_004_kani=true&JigyosyoCd=4370700322-00&ServiceCd=410&Type=search", "url2": "http://www.t-mitaka.com" }, "geometry": { "type": "Point", "coordinates": [ 130.203593912774494, 32.433703448152016 ] } },
{ "type": "Feature", "properties": { "内容": "天草介護【特定福祉用具販売】熊本県天草市有明町上津浦1370番地1", "url": "https://www.kaigokensaku.mhlw.go.jp/43/index.php?action_kouhyou_detail_004_kani=true&JigyosyoCd=4371500853-00&ServiceCd=410&Type=search", "url2": null }, "geometry": { "type": "Point", "coordinates": [ 130.294396446557613, 32.495850641050431 ] } },
{ "type": "Feature", "properties": { "内容": "株式会社　熊本介護【特定福祉用具販売】豊岡２０００番地１８７", "url": "https://www.kaigokensaku.mhlw.go.jp/43/index.php?action_kouhyou_detail_004_kani=true&JigyosyoCd=4371600190-00&ServiceCd=410&Type=search", "url2": null }, "geometry": { "type": "Point", "coordinates": [ 130.762989699999906, 32.8774441 ] } },
{ "type": "Feature", "properties": { "内容": "合同会社メディケアライフ【特定福祉用具販売】熊本県合志市須屋345番地12", "url": "https://www.kaigokensaku.mhlw.go.jp/43/index.php?action_kouhyou_detail_004_kani=true&JigyosyoCd=4371600851-00&ServiceCd=410&Type=search", "url2": null }, "geometry": { "type": "Point", "coordinates": [ 130.7411998, 32.867238 ] } },
{ "type": "Feature", "properties": { "内容": "有限会社三協車椅子製作所【特定福祉用具販売】合志市須屋2126-5", "url": "https://www.kaigokensaku.mhlw.go.jp/43/index.php?action_kouhyou_detail_004_kani=true&JigyosyoCd=4370101174-00&ServiceCd=410&Type=search", "url2": "http://sankyo-wheelchair.jp" }, "geometry": { "type": "Point", "coordinates": [ 130.733875200000057, 32.870217 ] } },
{ "type": "Feature", "properties": { "内容": "有限会社クリエイト【特定福祉用具販売】熊本県玉名郡和水町江田６９番地１", "url": "https://www.kaigokensaku.mhlw.go.jp/43/index.php?action_kouhyou_detail_004_kani=true&JigyosyoCd=4372401713-00&ServiceCd=410&Type=search", "url2": null }, "geometry": { "type": "Point", "coordinates": [ 130.604678, 32.9754393 ] } },
{ "type": "Feature", "properties": { "内容": "スペースケア熊本営業所【特定福祉用具販売】熊本県菊池郡大津町大字室2077-3", "url": "https://www.kaigokensaku.mhlw.go.jp/43/index.php?action_kouhyou_detail_004_kani=true&JigyosyoCd=4372601940-00&ServiceCd=410&Type=search", "url2": null }, "geometry": { "type": "Point", "coordinates": [ 130.8640815, 32.8848697 ] } },
{ "type": "Feature", "properties": { "内容": "株式会社　リニエルサプライ【特定福祉用具販売】熊本県菊池郡大津町大津1438-9", "url": "https://www.kaigokensaku.mhlw.go.jp/43/index.php?action_kouhyou_detail_004_kani=true&JigyosyoCd=4372600579-00&ServiceCd=410&Type=search", "url2": "http://www.linaire-supply.com" }, "geometry": { "type": "Point", "coordinates": [ 130.871219926844788, 32.879643496446803 ] } },
{ "type": "Feature", "properties": { "内容": "株式会社　愛夢【特定福祉用具販売】熊本県菊池郡菊陽町大字津久礼１７３番地１２タウンハウスシンフォニー１０２号", "url": "https://www.kaigokensaku.mhlw.go.jp/43/index.php?action_kouhyou_detail_004_kani=true&JigyosyoCd=4372601817-00&ServiceCd=410&Type=search", "url2": null }, "geometry": { "type": "Point", "coordinates": [ 130.8248069, 32.8618261 ] } },
{ "type": "Feature", "properties": { "内容": "介護の太助　熊本店【特定福祉用具販売】熊本県菊池郡菊陽町津久礼8-5un・deux201号", "url": "https://www.kaigokensaku.mhlw.go.jp/43/index.php?action_kouhyou_detail_004_kani=true&JigyosyoCd=4372602187-00&ServiceCd=410&Type=search", "url2": "https://kaigo-tasuke.co.jp/" }, "geometry": { "type": "Point", "coordinates": [ 130.8150235, 32.8613929 ] } },
{ "type": "Feature", "properties": { "内容": "有限会社ベストライフ福祉用具サービス【特定福祉用具販売】熊本県菊池郡菊陽町花立1丁目5番30号", "url": "https://www.kaigokensaku.mhlw.go.jp/43/index.php?action_kouhyou_detail_004_kani=true&JigyosyoCd=4372602328-00&ServiceCd=410&Type=search", "url2": "https://bestlife1165.com/facility/kikuyou/" }, "geometry": { "type": "Point", "coordinates": [ 130.755998299999987, 32.8602822 ] } },
{ "type": "Feature", "properties": { "内容": "株式会社宮崎ヒューマンサービス熊本営業所【特定福祉用具販売】熊本県阿蘇郡高森町高森2164-4", "url": "https://www.kaigokensaku.mhlw.go.jp/43/index.php?action_kouhyou_detail_004_kani=true&JigyosyoCd=4372701518-00&ServiceCd=410&Type=search", "url2": "http://www.miyazaki-human.co.jp/" }, "geometry": { "type": "Point", "coordinates": [ 131.122274299999958, 32.8261212 ] } },
{ "type": "Feature", "properties": { "内容": "ダスキンヘルスレント熊本南ステーション【特定福祉用具販売】熊本県上益城郡御船町大字豊秋字田代畑588番地", "url": "https://www.kaigokensaku.mhlw.go.jp/43/index.php?action_kouhyou_detail_004_kani=true&JigyosyoCd=4372802225-00&ServiceCd=410&Type=search", "url2": "https://healthrent.duskin.jp/" }, "geometry": { "type": "Point", "coordinates": [ 130.7690641, 32.7269533 ] } },
{ "type": "Feature", "properties": { "内容": "株式会社　ミタカ【特定福祉用具販売】熊本県上益城郡嘉島町上仲間850番地2", "url": "https://www.kaigokensaku.mhlw.go.jp/43/index.php?action_kouhyou_detail_004_kani=true&JigyosyoCd=4372800328-00&ServiceCd=410&Type=search", "url2": "http://www.t-mitaka.com" }, "geometry": { "type": "Point", "coordinates": [ 130.736319, 32.7427757 ] } },
{ "type": "Feature", "properties": { "内容": "ダスキンヘルスレント熊本ステーション【特定福祉用具販売】上益城郡益城町惣領1861-3", "url": "https://www.kaigokensaku.mhlw.go.jp/43/index.php?action_kouhyou_detail_004_kani=true&JigyosyoCd=4370106439-00&ServiceCd=410&Type=search", "url2": "http://healthrent.duskin.jp/" }, "geometry": { "type": "Point", "coordinates": [ 130.7983527, 32.7961161 ] } },
{ "type": "Feature", "properties": { "内容": "福祉用具事業所アンド【特定福祉用具販売】熊本県上益城郡益城町惣領1458番地5", "url": "https://www.kaigokensaku.mhlw.go.jp/43/index.php?action_kouhyou_detail_004_kani=true&JigyosyoCd=4372802126-00&ServiceCd=410&Type=search", "url2": null }, "geometry": { "type": "Point", "coordinates": [ 130.8029165, 32.7863264 ] } },
{ "type": "Feature", "properties": { "内容": "有限会社　コーセイ商事【特定福祉用具販売】熊本県上益城郡甲佐町岩下123-3", "url": "https://www.kaigokensaku.mhlw.go.jp/43/index.php?action_kouhyou_detail_004_kani=true&JigyosyoCd=4372800476-00&ServiceCd=410&Type=search", "url2": "cosei-pharmacy.com" }, "geometry": { "type": "Point", "coordinates": [ 130.809718500000031, 32.6508883 ] } },
{ "type": "Feature", "properties": { "内容": "山都介護ｻｰﾋﾞｽ【特定福祉用具販売】馬見原794番地8号", "url": "https://www.kaigokensaku.mhlw.go.jp/43/index.php?action_kouhyou_detail_004_kani=true&JigyosyoCd=4372801490-00&ServiceCd=410&Type=search", "url2": null }, "geometry": { "type": "Point", "coordinates": [ 131.160623900000019, 32.6825835 ] } },
{ "type": "Feature", "properties": { "内容": "有限会社大福屋【特定福祉用具販売】熊本県葦北郡芦北町大字芦北2313番地4", "url": "https://www.kaigokensaku.mhlw.go.jp/43/index.php?action_kouhyou_detail_004_kani=true&JigyosyoCd=4373000571-00&ServiceCd=410&Type=search", "url2": null }, "geometry": { "type": "Point", "coordinates": [ 130.493850299999963, 32.291594800000034 ] } },
{ "type": "Feature", "properties": { "内容": "ハートケア熊本【特定福祉用具販売】大字花岡1661-1", "url": "https://www.kaigokensaku.mhlw.go.jp/43/index.php?action_kouhyou_detail_004_kani=true&JigyosyoCd=4373000753-00&ServiceCd=410&Type=search", "url2": "https://nansyu-m.co.jp/" }, "geometry": { "type": "Point", "coordinates": [ 130.495313399999986, 32.3025355 ] } },
{ "type": "Feature", "properties": { "内容": "株式会社　心優【特定福祉用具販売】熊本県球磨郡多良木町大字久米1215番地", "url": "https://www.kaigokensaku.mhlw.go.jp/43/index.php?action_kouhyou_detail_004_kani=true&JigyosyoCd=4373101189-00&ServiceCd=410&Type=search", "url2": "http://k-shinyu.jimdo.com" }, "geometry": { "type": "Point", "coordinates": [ 130.959115399999973, 32.2510909 ] } },
{ "type": "Feature", "properties": { "内容": "池田メディカル【特定福祉用具販売】熊本県球磨郡多良木町黒肥地１６６１－３", "url": "https://www.kaigokensaku.mhlw.go.jp/43/index.php?action_kouhyou_detail_004_kani=true&JigyosyoCd=4373100991-00&ServiceCd=410&Type=search", "url2": null }, "geometry": { "type": "Point", "coordinates": [ 130.941755100000023, 32.2760159 ] } },
{ "type": "Feature", "properties": { "内容": "福祉用具寿楽【特定福祉用具販売】熊本県球磨郡多良木町多良木1388-2ヤマダビル", "url": "https://www.kaigokensaku.mhlw.go.jp/43/index.php?action_kouhyou_detail_004_kani=true&JigyosyoCd=4373101569-00&ServiceCd=410&Type=search", "url2": "https://www.juraku4jp.com/" }, "geometry": { "type": "Point", "coordinates": [ 130.933297, 32.2601424 ] } },
{ "type": "Feature", "properties": { "内容": "有限会社久保田自動車【特定福祉用具販売】121番地１", "url": "https://www.kaigokensaku.mhlw.go.jp/43/index.php?action_kouhyou_detail_004_kani=true&JigyosyoCd=4373101288-00&ServiceCd=410&Type=search", "url2": null }, "geometry": { "type": "Point", "coordinates": [ 131.008913223409991, 32.314103495629922 ] } },
{ "type": "Feature", "properties": { "内容": "株式会社　西金物店　「泰西」【特定福祉用具販売】熊本県球磨郡あさぎり町免田東5040-1", "url": "https://www.kaigokensaku.mhlw.go.jp/43/index.php?action_kouhyou_detail_004_kani=true&JigyosyoCd=4373100827-00&ServiceCd=410&Type=search", "url2": "http://nisi-kanamono.com/" }, "geometry": { "type": "Point", "coordinates": [ 130.918445046290998, 32.250970319772762 ] } },
{ "type": "Feature", "properties": { "内容": "清風ハートピア【特定福祉用具販売】熊本県球磨郡あさぎり町免田西2664-16", "url": "https://www.kaigokensaku.mhlw.go.jp/43/index.php?action_kouhyou_detail_004_kani=true&JigyosyoCd=4373100611-00&ServiceCd=410&Type=search", "url2": "http://www.seifu.co.jp" }, "geometry": { "type": "Point", "coordinates": [ 130.870475245256983, 32.223423448624061 ] } },
{ "type": "Feature", "properties": { "内容": "有限会社　シー・エス商会【特定福祉用具販売】熊本県天草郡苓北町志岐702番地1", "url": "https://www.kaigokensaku.mhlw.go.jp/43/index.php?action_kouhyou_detail_004_kani=true&JigyosyoCd=4373201104-00&ServiceCd=410&Type=search", "url2": "http://www.care-support.com/" }, "geometry": { "type": "Point", "coordinates": [ 130.050240499999973, 32.5126064 ] } }
]
}
