{
"type": "FeatureCollection",
"name": "geo_43_短期大学",
"crs": { "type": "name", "properties": { "name": "urn:ogc:def:crs:EPSG::6668" } },
"features": [
{ "type": "Feature", "properties": { "P29_001": "43101", "P29_002": "F243310111389", "P29_003": "16006", "P29_004": "尚絅大学短期大学部", "P29_005": "熊本県熊本市中央区九品寺2-6-78", "P29_006": "4", "P29_007": "0", "P29_008": "01", "P29_009": "九品寺キャンパス" }, "geometry": { "type": "Point", "coordinates": [ 130.717473058598586, 32.797166538404198 ] } },
{ "type": "Feature", "properties": { "P29_001": "43202", "P29_002": "F243310111398", "P29_003": "16006", "P29_004": "中九州短期大学", "P29_005": "熊本県八代市平山新町4438", "P29_006": "4", "P29_007": "0", "P29_008": "00", "P29_009": null }, "geometry": { "type": "Point", "coordinates": [ 130.608334814675715, 32.47722306322305 ] } },
{ "type": "Feature", "properties": { "P29_001": "43404", "P29_002": "F243310111389", "P29_003": "16006", "P29_004": "尚絅大学短期大学部", "P29_005": "熊本県菊池郡菊陽町武蔵ヶ丘北2-8-1", "P29_006": "4", "P29_007": "0", "P29_008": "02", "P29_009": "武蔵ヶ丘キャンパス" }, "geometry": { "type": "Point", "coordinates": [ 130.763595135985611, 32.857510566047004 ] } }
]
}
