{
"type": "FeatureCollection",
"name": "geo_43_高等専門学校",
"crs": { "type": "name", "properties": { "name": "urn:ogc:def:crs:EPSG::6668" } },
"features": [
{ "type": "Feature", "properties": { "P29_001": "43202", "P29_002": "G143110111408", "P29_003": "16005", "P29_004": "熊本高等専門学校", "P29_005": "熊本県八代市平山新町2627", "P29_006": "1", "P29_007": "0", "P29_008": "01", "P29_009": "八代キャンパス" }, "geometry": { "type": "Point", "coordinates": [ 130.607336872677507, 32.476256932406606 ] } },
{ "type": "Feature", "properties": { "P29_001": "43216", "P29_002": "G143110111408", "P29_003": "16005", "P29_004": "熊本高等専門学校", "P29_005": "熊本県合志市須屋2659-2", "P29_006": "1", "P29_007": "0", "P29_008": "02", "P29_009": "熊本キャンパス" }, "geometry": { "type": "Point", "coordinates": [ 130.747935121600364, 32.876793188436658 ] } }
]
}
