{
"type": "FeatureCollection",
"name": "geo_43_短期入所療養介護(療養病床を有する病院等）",
"crs": { "type": "name", "properties": { "name": "urn:ogc:def:crs:OGC:1.3:CRS84" } },
"features": [
{ "type": "Feature", "properties": { "内容": "いりょうしせつ【短期入所療養介護(療養病床を有する病院等）】熊本県熊本市中央区帯山4丁目5番18号", "url": "https://www.kaigokensaku.mhlw.go.jp/43/index.php?action_kouhyou_detail_004_kani=true&JigyosyoCd=4310123478-00&ServiceCd=&Type=search", "url2": "http://www.obiyama-ct.com/" }, "geometry": { "type": "Point", "coordinates": [ 130.749491799999987, 32.8001538 ] } },
{ "type": "Feature", "properties": { "内容": "医療法人社団仁風会　比企病院【短期入所療養介護(療養病床を有する病院等）】熊本県熊本市東区尾ノ上３丁目１－３４", "url": "https://www.kaigokensaku.mhlw.go.jp/43/index.php?action_kouhyou_detail_004_kani=true&JigyosyoCd=4310120656-00&ServiceCd=&Type=search", "url2": null }, "geometry": { "type": "Point", "coordinates": [ 130.75397769999995, 32.795762600000018 ] } },
{ "type": "Feature", "properties": { "内容": "末次内科【短期入所療養介護(療養病床を有する病院等）】熊本県熊本市西区上高橋２丁目１３番６号", "url": "https://www.kaigokensaku.mhlw.go.jp/43/index.php?action_kouhyou_detail_004_kani=true&JigyosyoCd=4310118726-00&ServiceCd=&Type=search", "url2": "suetsugunaikaiinn@gmail.com" }, "geometry": { "type": "Point", "coordinates": [ 130.6564962, 32.7861319 ] } },
{ "type": "Feature", "properties": { "内容": "医療法人金澤会　青磁野リハビリテーション病院【短期入所療養介護(療養病床を有する病院等）】熊本市島崎２丁目２２番１５号", "url": "https://www.kaigokensaku.mhlw.go.jp/43/index.php?action_kouhyou_detail_004_kani=true&JigyosyoCd=4310117108-00&ServiceCd=&Type=search", "url2": "https://www.seijino.or.jp/" }, "geometry": { "type": "Point", "coordinates": [ 130.691387, 32.807905 ] } },
{ "type": "Feature", "properties": { "内容": "北部病院【短期入所療養介護(療養病床を有する病院等）】熊本市北区四方寄町1281-3", "url": "https://www.kaigokensaku.mhlw.go.jp/43/index.php?action_kouhyou_detail_004_kani=true&JigyosyoCd=4310121522-00&ServiceCd=&Type=search", "url2": "http://www.hkb.or.jp/hkb/" }, "geometry": { "type": "Point", "coordinates": [ 130.708449, 32.8645393 ] } },
{ "type": "Feature", "properties": { "内容": "八景水谷クリニック【短期入所療養介護(療養病床を有する病院等）】熊本市北区八景水谷１－３１－１６", "url": "https://www.kaigokensaku.mhlw.go.jp/43/index.php?action_kouhyou_detail_004_kani=true&JigyosyoCd=4310121621-00&ServiceCd=&Type=search", "url2": "http://www.hakemiya.com" }, "geometry": { "type": "Point", "coordinates": [ 130.724592499999972, 32.8505326 ] } },
{ "type": "Feature", "properties": { "内容": "北部病院【短期入所療養介護(療養病床を有する病院等）】熊本県熊本市北区四方寄町１２８１－３", "url": "https://www.kaigokensaku.mhlw.go.jp/43/index.php?action_kouhyou_detail_004_kani=true&JigyosyoCd=4370110928-00&ServiceCd=&Type=search", "url2": "http://www.hkb.or.jp/hkb/" }, "geometry": { "type": "Point", "coordinates": [ 130.708449, 32.8645393 ] } },
{ "type": "Feature", "properties": { "内容": "菊南病院　ショートステイ【短期入所療養介護(療養病床を有する病院等）】熊本市北区鶴羽田3丁目1-53菊南病院", "url": "https://www.kaigokensaku.mhlw.go.jp/43/index.php?action_kouhyou_detail_004_kani=true&JigyosyoCd=4370109987-00&ServiceCd=&Type=search", "url2": "http://www.kikunan-hospital.com" }, "geometry": { "type": "Point", "coordinates": [ 130.727120099999979, 32.8588041 ] } },
{ "type": "Feature", "properties": { "内容": "武内医院【短期入所療養介護(療養病床を有する病院等）】鹿本町来民693", "url": "https://www.kaigokensaku.mhlw.go.jp/43/index.php?action_kouhyou_detail_004_kani=true&JigyosyoCd=4311310421-00&ServiceCd=&Type=search", "url2": "http://www.kamoto-med.or.jp/map/link_29/index.html" }, "geometry": { "type": "Point", "coordinates": [ 130.741071799999986, 33.0014413 ] } },
{ "type": "Feature", "properties": { "内容": "うちだ内科医院【短期入所療養介護(療養病床を有する病院等）】熊本県山鹿市山鹿343番地", "url": "https://www.kaigokensaku.mhlw.go.jp/43/index.php?action_kouhyou_detail_004_kani=true&JigyosyoCd=4311310157-00&ServiceCd=&Type=search", "url2": "http://uchidanaika.jimdo.com/" }, "geometry": { "type": "Point", "coordinates": [ 130.6919312, 33.0158641 ] } },
{ "type": "Feature", "properties": { "内容": "竹本医院【短期入所療養介護(療養病床を有する病院等）】熊本県葦北郡芦北町大字湯浦２１８番地３", "url": "https://www.kaigokensaku.mhlw.go.jp/43/index.php?action_kouhyou_detail_004_kani=true&JigyosyoCd=4373000712-00&ServiceCd=&Type=search", "url2": null }, "geometry": { "type": "Point", "coordinates": [ 130.50025260000001, 32.2736432 ] } }
]
}
