{
"type": "FeatureCollection",
"name": "geo_43_4",
"crs": { "type": "name", "properties": { "name": "urn:ogc:def:crs:OGC:1.3:CRS84" } },
"features": [
{ "type": "Feature", "properties": { "ID": 434443330001, "正式名称": "石崎助産所", "機関区分": 4, "都道府県コード": 43, "市区町村コード": 105, "所在地": "熊本県熊本市北区龍田町上立田６６９", "緯度": 32.836404, "経度": 130.753867, "url": "https://www.iryou.teikyouseido.mhlw.go.jp/znk-web/juminkanja/S2430/initialize?prefCd=43&kikanCd=443330001&kikanKbn=4", "url2": null, "内容": "石崎助産所【4:助産院】熊本県熊本市北区龍田町上立田６６９" }, "geometry": { "type": "Point", "coordinates": [ 130.753867, 32.836404 ] } },
{ "type": "Feature", "properties": { "ID": 434443330002, "正式名称": "田﨑助産院", "機関区分": 4, "都道府県コード": 43, "市区町村コード": 105, "所在地": "熊本県熊本市北区麻生田５－４－１１", "緯度": 32.852918, "経度": 130.745197, "url": "https://www.iryou.teikyouseido.mhlw.go.jp/znk-web/juminkanja/S2430/initialize?prefCd=43&kikanCd=443330002&kikanKbn=4", "url2": null, "内容": "田﨑助産院【4:助産院】熊本県熊本市北区麻生田５－４－１１" }, "geometry": { "type": "Point", "coordinates": [ 130.745197, 32.852918 ] } },
{ "type": "Feature", "properties": { "ID": 434443330003, "正式名称": "関永助産所", "機関区分": 4, "都道府県コード": 43, "市区町村コード": 102, "所在地": "熊本県熊本市東区保田窪本町７７６－２", "緯度": 32.809655, "経度": 130.745633, "url": "https://www.iryou.teikyouseido.mhlw.go.jp/znk-web/juminkanja/S2430/initialize?prefCd=43&kikanCd=443330003&kikanKbn=4", "url2": null, "内容": "関永助産所【4:助産院】熊本県熊本市東区保田窪本町７７６－２" }, "geometry": { "type": "Point", "coordinates": [ 130.745633, 32.809655 ] } },
{ "type": "Feature", "properties": { "ID": 434443330004, "正式名称": "マザーズクラブ（佐藤助産所）", "機関区分": 4, "都道府県コード": 43, "市区町村コード": 102, "所在地": "熊本県熊本市東区沼山津１－１６－２", "緯度": 32.775999, "経度": 130.770548, "url": "https://www.iryou.teikyouseido.mhlw.go.jp/znk-web/juminkanja/S2430/initialize?prefCd=43&kikanCd=443330004&kikanKbn=4", "url2": null, "内容": "マザーズクラブ（佐藤助産所）【4:助産院】熊本県熊本市東区沼山津１－１６－２" }, "geometry": { "type": "Point", "coordinates": [ 130.770548, 32.775999 ] } },
{ "type": "Feature", "properties": { "ID": 434443330005, "正式名称": "母乳育児相談室　八木助産院", "機関区分": 4, "都道府県コード": 43, "市区町村コード": 101, "所在地": "熊本県熊本市中央区新町３－２－２８", "緯度": 32.804422, "経度": 130.696442, "url": "https://www.iryou.teikyouseido.mhlw.go.jp/znk-web/juminkanja/S2430/initialize?prefCd=43&kikanCd=443330005&kikanKbn=4", "url2": "http://wwwyagi-jyosanin.com", "内容": "母乳育児相談室　八木助産院【4:助産院】熊本県熊本市中央区新町３－２－２８" }, "geometry": { "type": "Point", "coordinates": [ 130.696442, 32.804422 ] } },
{ "type": "Feature", "properties": { "ID": 434443330007, "正式名称": "田邊助産所", "機関区分": 4, "都道府県コード": 43, "市区町村コード": 104, "所在地": "熊本県熊本市南区島町２－７－２２", "緯度": 32.7661, "経度": 130.68157, "url": "https://www.iryou.teikyouseido.mhlw.go.jp/znk-web/juminkanja/S2430/initialize?prefCd=43&kikanCd=443330007&kikanKbn=4", "url2": null, "内容": "田邊助産所【4:助産院】熊本県熊本市南区島町２－７－２２" }, "geometry": { "type": "Point", "coordinates": [ 130.68157, 32.7661 ] } },
{ "type": "Feature", "properties": { "ID": 434443330008, "正式名称": "助産婦みやざき", "機関区分": 4, "都道府県コード": 43, "市区町村コード": 105, "所在地": "熊本県熊本市北区武蔵ケ丘２－２２－１８", "緯度": 32.853982, "経度": 130.764057, "url": "https://www.iryou.teikyouseido.mhlw.go.jp/znk-web/juminkanja/S2430/initialize?prefCd=43&kikanCd=443330008&kikanKbn=4", "url2": null, "内容": "助産婦みやざき【4:助産院】熊本県熊本市北区武蔵ケ丘２－２２－１８" }, "geometry": { "type": "Point", "coordinates": [ 130.764057, 32.853982 ] } },
{ "type": "Feature", "properties": { "ID": 434443330009, "正式名称": "松村助産所　すずらん", "機関区分": 4, "都道府県コード": 43, "市区町村コード": 102, "所在地": "熊本県熊本市東区山ノ神２－９－２５", "緯度": 32.797824, "経度": 130.778593, "url": "https://www.iryou.teikyouseido.mhlw.go.jp/znk-web/juminkanja/S2430/initialize?prefCd=43&kikanCd=443330009&kikanKbn=4", "url2": null, "内容": "松村助産所　すずらん【4:助産院】熊本県熊本市東区山ノ神２－９－２５" }, "geometry": { "type": "Point", "coordinates": [ 130.778593, 32.797824 ] } },
{ "type": "Feature", "properties": { "ID": 434443330010, "正式名称": "加世田助産所", "機関区分": 4, "都道府県コード": 43, "市区町村コード": 105, "所在地": "熊本県熊本市北区武蔵ケ丘１－５－２", "緯度": 32.850574, "経度": 130.767484, "url": "https://www.iryou.teikyouseido.mhlw.go.jp/znk-web/juminkanja/S2430/initialize?prefCd=43&kikanCd=443330010&kikanKbn=4", "url2": null, "内容": "加世田助産所【4:助産院】熊本県熊本市北区武蔵ケ丘１－５－２" }, "geometry": { "type": "Point", "coordinates": [ 130.767484, 32.850574 ] } },
{ "type": "Feature", "properties": { "ID": 434443330011, "正式名称": "鶴助産院", "機関区分": 4, "都道府県コード": 43, "市区町村コード": 103, "所在地": "熊本県熊本市西区上熊本３－１－２３－７０８", "緯度": 32.818236, "経度": 130.700856, "url": "https://www.iryou.teikyouseido.mhlw.go.jp/znk-web/juminkanja/S2430/initialize?prefCd=43&kikanCd=443330011&kikanKbn=4", "url2": null, "内容": "鶴助産院【4:助産院】熊本県熊本市西区上熊本３－１－２３－７０８" }, "geometry": { "type": "Point", "coordinates": [ 130.700856, 32.818236 ] } },
{ "type": "Feature", "properties": { "ID": 434443330012, "正式名称": "かな助産所", "機関区分": 4, "都道府県コード": 43, "市区町村コード": 105, "所在地": "熊本県熊本市北区鶴羽田町１０４１－５２", "緯度": 32.86702, "経度": 130.72534, "url": "https://www.iryou.teikyouseido.mhlw.go.jp/znk-web/juminkanja/S2430/initialize?prefCd=43&kikanCd=443330012&kikanKbn=4", "url2": null, "内容": "かな助産所【4:助産院】熊本県熊本市北区鶴羽田町１０４１－５２" }, "geometry": { "type": "Point", "coordinates": [ 130.72534, 32.86702 ] } },
{ "type": "Feature", "properties": { "ID": 434443330013, "正式名称": "あゆみ助産所", "機関区分": 4, "都道府県コード": 43, "市区町村コード": 102, "所在地": "熊本県熊本市東区長嶺南７－５－１９", "緯度": 32.815628, "経度": 130.775093, "url": "https://www.iryou.teikyouseido.mhlw.go.jp/znk-web/juminkanja/S2430/initialize?prefCd=43&kikanCd=443330013&kikanKbn=4", "url2": null, "内容": "あゆみ助産所【4:助産院】熊本県熊本市東区長嶺南７－５－１９" }, "geometry": { "type": "Point", "coordinates": [ 130.775093, 32.815628 ] } },
{ "type": "Feature", "properties": { "ID": 434443330015, "正式名称": "マタニティハウス", "機関区分": 4, "都道府県コード": 43, "市区町村コード": 105, "所在地": "熊本県熊本市北区黒髪７丁目６７９－７", "緯度": 32.820679, "経度": 130.740531, "url": "https://www.iryou.teikyouseido.mhlw.go.jp/znk-web/juminkanja/S2430/initialize?prefCd=43&kikanCd=443330015&kikanKbn=4", "url2": null, "内容": "マタニティハウス【4:助産院】熊本県熊本市北区黒髪７丁目６７９－７" }, "geometry": { "type": "Point", "coordinates": [ 130.740531, 32.820679 ] } },
{ "type": "Feature", "properties": { "ID": 434443330016, "正式名称": "竹永助産院", "機関区分": 4, "都道府県コード": 43, "市区町村コード": 104, "所在地": "熊本県熊本市南区白藤４－２１－１８", "緯度": 32.750468, "経度": 130.671499, "url": "https://www.iryou.teikyouseido.mhlw.go.jp/znk-web/juminkanja/S2430/initialize?prefCd=43&kikanCd=443330016&kikanKbn=4", "url2": null, "内容": "竹永助産院【4:助産院】熊本県熊本市南区白藤４－２１－１８" }, "geometry": { "type": "Point", "coordinates": [ 130.671499, 32.750468 ] } },
{ "type": "Feature", "properties": { "ID": 434443330017, "正式名称": "すみれ助産院", "機関区分": 4, "都道府県コード": 43, "市区町村コード": 101, "所在地": "熊本県熊本市中央区大江５－２－１５－６０２", "緯度": 32.798539, "経度": 130.720672, "url": "https://www.iryou.teikyouseido.mhlw.go.jp/znk-web/juminkanja/S2430/initialize?prefCd=43&kikanCd=443330017&kikanKbn=4", "url2": null, "内容": "すみれ助産院【4:助産院】熊本県熊本市中央区大江５－２－１５－６０２" }, "geometry": { "type": "Point", "coordinates": [ 130.720672, 32.798539 ] } },
{ "type": "Feature", "properties": { "ID": 434443330018, "正式名称": "ＮＩＣＯ", "機関区分": 4, "都道府県コード": 43, "市区町村コード": 101, "所在地": "熊本県熊本市中央区帯山６－７－１０８ファミリール帯山Ａ－２０１", "緯度": 32.802118, "経度": 130.756678, "url": "https://www.iryou.teikyouseido.mhlw.go.jp/znk-web/juminkanja/S2430/initialize?prefCd=43&kikanCd=443330018&kikanKbn=4", "url2": null, "内容": "ＮＩＣＯ【4:助産院】熊本県熊本市中央区帯山６－７－１０８ファミリール帯山Ａ－２０１" }, "geometry": { "type": "Point", "coordinates": [ 130.756678, 32.802118 ] } },
{ "type": "Feature", "properties": { "ID": 434443330019, "正式名称": "白根助産所", "機関区分": 4, "都道府県コード": 43, "市区町村コード": 102, "所在地": "熊本県熊本市東区江津１－１－１３", "緯度": 32.782705, "経度": 130.73407, "url": "https://www.iryou.teikyouseido.mhlw.go.jp/znk-web/juminkanja/S2430/initialize?prefCd=43&kikanCd=443330019&kikanKbn=4", "url2": null, "内容": "白根助産所【4:助産院】熊本県熊本市東区江津１－１－１３" }, "geometry": { "type": "Point", "coordinates": [ 130.73407, 32.782705 ] } },
{ "type": "Feature", "properties": { "ID": 434443330020, "正式名称": "石松助産所", "機関区分": 4, "都道府県コード": 43, "市区町村コード": 101, "所在地": "熊本県熊本市中央区出水６－２９－２８", "緯度": 32.783653, "経度": 130.723746, "url": "https://www.iryou.teikyouseido.mhlw.go.jp/znk-web/juminkanja/S2430/initialize?prefCd=43&kikanCd=443330020&kikanKbn=4", "url2": null, "内容": "石松助産所【4:助産院】熊本県熊本市中央区出水６－２９－２８" }, "geometry": { "type": "Point", "coordinates": [ 130.723746, 32.783653 ] } },
{ "type": "Feature", "properties": { "ID": 434443330021, "正式名称": "よしなが助産院　母乳育児相談室", "機関区分": 4, "都道府県コード": 43, "市区町村コード": 102, "所在地": "熊本県熊本市東区御領２－２８－４３", "緯度": 32.822746, "経度": 130.762097, "url": "https://www.iryou.teikyouseido.mhlw.go.jp/znk-web/juminkanja/S2430/initialize?prefCd=43&kikanCd=443330021&kikanKbn=4", "url2": "http://rinamarioyako.wixsite.com/yoshinaga", "内容": "よしなが助産院　母乳育児相談室【4:助産院】熊本県熊本市東区御領２－２８－４３" }, "geometry": { "type": "Point", "coordinates": [ 130.762097, 32.822746 ] } },
{ "type": "Feature", "properties": { "ID": 434443330022, "正式名称": "すぎやま助産院母乳育児相談室", "機関区分": 4, "都道府県コード": 43, "市区町村コード": 102, "所在地": "熊本県熊本市東区錦ケ丘２９－１", "緯度": 32.790185, "経度": 130.758596, "url": "https://www.iryou.teikyouseido.mhlw.go.jp/znk-web/juminkanja/S2430/initialize?prefCd=43&kikanCd=443330022&kikanKbn=4", "url2": null, "内容": "すぎやま助産院母乳育児相談室【4:助産院】熊本県熊本市東区錦ケ丘２９－１" }, "geometry": { "type": "Point", "coordinates": [ 130.758596, 32.790185 ] } },
{ "type": "Feature", "properties": { "ID": 434443330023, "正式名称": "斐助産院", "機関区分": 4, "都道府県コード": 43, "市区町村コード": 102, "所在地": "熊本県熊本市東区広木町１５－２６", "緯度": 32.77318, "経度": 130.755211, "url": "https://www.iryou.teikyouseido.mhlw.go.jp/znk-web/juminkanja/S2430/initialize?prefCd=43&kikanCd=443330023&kikanKbn=4", "url2": null, "内容": "斐助産院【4:助産院】熊本県熊本市東区広木町１５－２６" }, "geometry": { "type": "Point", "coordinates": [ 130.755211, 32.77318 ] } },
{ "type": "Feature", "properties": { "ID": 434443330025, "正式名称": "髙群助産院", "機関区分": 4, "都道府県コード": 43, "市区町村コード": 101, "所在地": "熊本県熊本市中央区京町２－７－４５－７０２", "緯度": 32.814766, "経度": 130.705121, "url": "https://www.iryou.teikyouseido.mhlw.go.jp/znk-web/juminkanja/S2430/initialize?prefCd=43&kikanCd=443330025&kikanKbn=4", "url2": null, "内容": "髙群助産院【4:助産院】熊本県熊本市中央区京町２－７－４５－７０２" }, "geometry": { "type": "Point", "coordinates": [ 130.705121, 32.814766 ] } },
{ "type": "Feature", "properties": { "ID": 434443330026, "正式名称": "ひまわり助産所", "機関区分": 4, "都道府県コード": 43, "市区町村コード": 101, "所在地": "熊本県熊本市中央区江津２－９－１９", "緯度": 32.778631, "経度": 130.732657, "url": "https://www.iryou.teikyouseido.mhlw.go.jp/znk-web/juminkanja/S2430/initialize?prefCd=43&kikanCd=443330026&kikanKbn=4", "url2": null, "内容": "ひまわり助産所【4:助産院】熊本県熊本市中央区江津２－９－１９" }, "geometry": { "type": "Point", "coordinates": [ 130.732657, 32.778631 ] } },
{ "type": "Feature", "properties": { "ID": 434443330027, "正式名称": "木村眞里子", "機関区分": 4, "都道府県コード": 43, "市区町村コード": 104, "所在地": "熊本県熊本市南区八分字町２２１７", "緯度": 32.757769, "経度": 130.659969, "url": "https://www.iryou.teikyouseido.mhlw.go.jp/znk-web/juminkanja/S2430/initialize?prefCd=43&kikanCd=443330027&kikanKbn=4", "url2": null, "内容": "木村眞里子【4:助産院】熊本県熊本市南区八分字町２２１７" }, "geometry": { "type": "Point", "coordinates": [ 130.659969, 32.757769 ] } },
{ "type": "Feature", "properties": { "ID": 434443330028, "正式名称": "マタニティサロンチアフル", "機関区分": 4, "都道府県コード": 43, "市区町村コード": 101, "所在地": "熊本県熊本市中央区新大江３－７－３０", "緯度": 32.802141, "経度": 130.736551, "url": "https://www.iryou.teikyouseido.mhlw.go.jp/znk-web/juminkanja/S2430/initialize?prefCd=43&kikanCd=443330028&kikanKbn=4", "url2": "http://salon-cheerful.com", "内容": "マタニティサロンチアフル【4:助産院】熊本県熊本市中央区新大江３－７－３０" }, "geometry": { "type": "Point", "coordinates": [ 130.736551, 32.802141 ] } },
{ "type": "Feature", "properties": { "ID": 434443330029, "正式名称": "きたむら助産院", "機関区分": 4, "都道府県コード": 43, "市区町村コード": 101, "所在地": "熊本県熊本市中央区水前寺公園３－３０－５０１", "緯度": 32.790604, "経度": 130.732057, "url": "https://www.iryou.teikyouseido.mhlw.go.jp/znk-web/juminkanja/S2430/initialize?prefCd=43&kikanCd=443330029&kikanKbn=4", "url2": null, "内容": "きたむら助産院【4:助産院】熊本県熊本市中央区水前寺公園３－３０－５０１" }, "geometry": { "type": "Point", "coordinates": [ 130.732057, 32.790604 ] } },
{ "type": "Feature", "properties": { "ID": 434443330030, "正式名称": "なおえ助産院", "機関区分": 4, "都道府県コード": 43, "市区町村コード": 104, "所在地": "熊本県熊本市南区出仲間６－６－６５", "緯度": 32.773533, "経度": 130.715837, "url": "https://www.iryou.teikyouseido.mhlw.go.jp/znk-web/juminkanja/S2430/initialize?prefCd=43&kikanCd=443330030&kikanKbn=4", "url2": "https://anaoe0920.wixsite.com", "内容": "なおえ助産院【4:助産院】熊本県熊本市南区出仲間６－６－６５" }, "geometry": { "type": "Point", "coordinates": [ 130.715837, 32.773533 ] } },
{ "type": "Feature", "properties": { "ID": 434443330031, "正式名称": "まつもと助産所", "機関区分": 4, "都道府県コード": 43, "市区町村コード": 102, "所在地": "熊本県熊本市東区月出７－３－９７", "緯度": 32.80664, "経度": 130.76984, "url": "https://www.iryou.teikyouseido.mhlw.go.jp/znk-web/juminkanja/S2430/initialize?prefCd=43&kikanCd=443330031&kikanKbn=4", "url2": null, "内容": "まつもと助産所【4:助産院】熊本県熊本市東区月出７－３－９７" }, "geometry": { "type": "Point", "coordinates": [ 130.76984, 32.80664 ] } },
{ "type": "Feature", "properties": { "ID": 434443330032, "正式名称": "熊本母と子の相談室", "機関区分": 4, "都道府県コード": 43, "市区町村コード": 101, "所在地": "熊本県熊本市中央区島崎１－２１－３１　－１", "緯度": 32.804926, "経度": 130.690803, "url": "https://www.iryou.teikyouseido.mhlw.go.jp/znk-web/juminkanja/S2430/initialize?prefCd=43&kikanCd=443330032&kikanKbn=4", "url2": "http://www.kumamoto-hanako.com", "内容": "熊本母と子の相談室【4:助産院】熊本県熊本市中央区島崎１－２１－３１　－１" }, "geometry": { "type": "Point", "coordinates": [ 130.690803, 32.804926 ] } },
{ "type": "Feature", "properties": { "ID": 434443330033, "正式名称": "松本助産院", "機関区分": 4, "都道府県コード": 43, "市区町村コード": 103, "所在地": "熊本県熊本市西区花園５－４５－２５", "緯度": 32.821602, "経度": 130.693454, "url": "https://www.iryou.teikyouseido.mhlw.go.jp/znk-web/juminkanja/S2430/initialize?prefCd=43&kikanCd=443330033&kikanKbn=4", "url2": null, "内容": "松本助産院【4:助産院】熊本県熊本市西区花園５－４５－２５" }, "geometry": { "type": "Point", "coordinates": [ 130.693454, 32.821602 ] } },
{ "type": "Feature", "properties": { "ID": 434443330034, "正式名称": "古庄真奈美助産院", "機関区分": 4, "都道府県コード": 43, "市区町村コード": 104, "所在地": "熊本県熊本市南区良町１－１０－２８", "緯度": 32.762344, "経度": 130.722053, "url": "https://www.iryou.teikyouseido.mhlw.go.jp/znk-web/juminkanja/S2430/initialize?prefCd=43&kikanCd=443330034&kikanKbn=4", "url2": null, "内容": "古庄真奈美助産院【4:助産院】熊本県熊本市南区良町１－１０－２８" }, "geometry": { "type": "Point", "coordinates": [ 130.722053, 32.762344 ] } },
{ "type": "Feature", "properties": { "ID": 434443330035, "正式名称": "みづき助産院", "機関区分": 4, "都道府県コード": 43, "市区町村コード": 101, "所在地": "熊本県熊本市中央区大江", "緯度": 32.79874, "経度": 130.72443, "url": "https://www.iryou.teikyouseido.mhlw.go.jp/znk-web/juminkanja/S2430/initialize?prefCd=43&kikanCd=443330035&kikanKbn=4", "url2": null, "内容": "みづき助産院【4:助産院】熊本県熊本市中央区大江" }, "geometry": { "type": "Point", "coordinates": [ 130.72443, 32.79874 ] } },
{ "type": "Feature", "properties": { "ID": 434443330036, "正式名称": "助産院メルティングタッチ", "機関区分": 4, "都道府県コード": 43, "市区町村コード": 101, "所在地": "熊本県熊本市中央区水前寺公園４－２すいぜんじ夢参道３０１", "緯度": 32.791027, "経度": 130.732548, "url": "https://www.iryou.teikyouseido.mhlw.go.jp/znk-web/juminkanja/S2430/initialize?prefCd=43&kikanCd=443330036&kikanKbn=4", "url2": null, "内容": "助産院メルティングタッチ【4:助産院】熊本県熊本市中央区水前寺公園４－２すいぜんじ夢参道３０１" }, "geometry": { "type": "Point", "coordinates": [ 130.732548, 32.791027 ] } },
{ "type": "Feature", "properties": { "ID": 434443330037, "正式名称": "うらさき檸檬助産院", "機関区分": 4, "都道府県コード": 43, "市区町村コード": 102, "所在地": "熊本県熊本市東区江津１－１２－８", "緯度": 32.778172, "経度": 130.735576, "url": "https://www.iryou.teikyouseido.mhlw.go.jp/znk-web/juminkanja/S2430/initialize?prefCd=43&kikanCd=443330037&kikanKbn=4", "url2": "https://sites.google.com/view/urasakilemon", "内容": "うらさき檸檬助産院【4:助産院】熊本県熊本市東区江津１－１２－８" }, "geometry": { "type": "Point", "coordinates": [ 130.735576, 32.778172 ] } },
{ "type": "Feature", "properties": { "ID": 434443330039, "正式名称": "助産庵さくら", "機関区分": 4, "都道府県コード": 43, "市区町村コード": 105, "所在地": "熊本県熊本市北区池田３－１４－５８", "緯度": 32.818204, "経度": 130.700822, "url": "https://www.iryou.teikyouseido.mhlw.go.jp/znk-web/juminkanja/S2430/initialize?prefCd=43&kikanCd=443330039&kikanKbn=4", "url2": null, "内容": "助産庵さくら【4:助産院】熊本県熊本市北区池田３－１４－５８" }, "geometry": { "type": "Point", "coordinates": [ 130.700822, 32.818204 ] } },
{ "type": "Feature", "properties": { "ID": 434443330040, "正式名称": "ちはら助産院", "機関区分": 4, "都道府県コード": 43, "市区町村コード": 103, "所在地": "熊本県熊本市西区島崎４－８－４８", "緯度": 32.808491, "経度": 130.683263, "url": "https://www.iryou.teikyouseido.mhlw.go.jp/znk-web/juminkanja/S2430/initialize?prefCd=43&kikanCd=443330040&kikanKbn=4", "url2": null, "内容": "ちはら助産院【4:助産院】熊本県熊本市西区島崎４－８－４８" }, "geometry": { "type": "Point", "coordinates": [ 130.683263, 32.808491 ] } },
{ "type": "Feature", "properties": { "ID": 434443330041, "正式名称": "髙田助産院", "機関区分": 4, "都道府県コード": 43, "市区町村コード": 103, "所在地": "熊本県熊本市西区稗田町３－２４", "緯度": 32.821181, "経度": 130.706732, "url": "https://www.iryou.teikyouseido.mhlw.go.jp/znk-web/juminkanja/S2430/initialize?prefCd=43&kikanCd=443330041&kikanKbn=4", "url2": null, "内容": "髙田助産院【4:助産院】熊本県熊本市西区稗田町３－２４" }, "geometry": { "type": "Point", "coordinates": [ 130.706732, 32.821181 ] } },
{ "type": "Feature", "properties": { "ID": 434443330042, "正式名称": "たなか助産院", "機関区分": 4, "都道府県コード": 43, "市区町村コード": 103, "所在地": "熊本県熊本市西区上熊本", "緯度": 32.813183, "経度": 130.70094, "url": "https://www.iryou.teikyouseido.mhlw.go.jp/znk-web/juminkanja/S2430/initialize?prefCd=43&kikanCd=443330042&kikanKbn=4", "url2": "https://sites.google.com/view/tanakajosanin", "内容": "たなか助産院【4:助産院】熊本県熊本市西区上熊本" }, "geometry": { "type": "Point", "coordinates": [ 130.70094, 32.813183 ] } },
{ "type": "Feature", "properties": { "ID": 434443330043, "正式名称": "ままけあ", "機関区分": 4, "都道府県コード": 43, "市区町村コード": 102, "所在地": "熊本県熊本市東区八反田１－７－３３", "緯度": 32.81461, "経度": 130.756972, "url": "https://www.iryou.teikyouseido.mhlw.go.jp/znk-web/juminkanja/S2430/initialize?prefCd=43&kikanCd=443330043&kikanKbn=4", "url2": null, "内容": "ままけあ【4:助産院】熊本県熊本市東区八反田１－７－３３" }, "geometry": { "type": "Point", "coordinates": [ 130.756972, 32.81461 ] } },
{ "type": "Feature", "properties": { "ID": 434443330044, "正式名称": "ほしぞら助産院", "機関区分": 4, "都道府県コード": 43, "市区町村コード": 101, "所在地": "熊本県熊本市中央区出水", "緯度": 32.786903, "経度": 130.73265, "url": "https://www.iryou.teikyouseido.mhlw.go.jp/znk-web/juminkanja/S2430/initialize?prefCd=43&kikanCd=443330044&kikanKbn=4", "url2": "https://hoshizora11429.wixsite.com/my-site-73", "内容": "ほしぞら助産院【4:助産院】熊本県熊本市中央区出水" }, "geometry": { "type": "Point", "coordinates": [ 130.73265, 32.786903 ] } },
{ "type": "Feature", "properties": { "ID": 434443330045, "正式名称": "檀助産院", "機関区分": 4, "都道府県コード": 43, "市区町村コード": 101, "所在地": "熊本県熊本市中央区南坪井町５－２０", "緯度": 32.807764, "経度": 130.713104, "url": "https://www.iryou.teikyouseido.mhlw.go.jp/znk-web/juminkanja/S2430/initialize?prefCd=43&kikanCd=443330045&kikanKbn=4", "url2": null, "内容": "檀助産院【4:助産院】熊本県熊本市中央区南坪井町５－２０" }, "geometry": { "type": "Point", "coordinates": [ 130.713104, 32.807764 ] } },
{ "type": "Feature", "properties": { "ID": 434443330046, "正式名称": "しおり助産院", "機関区分": 4, "都道府県コード": 43, "市区町村コード": 104, "所在地": "熊本県熊本市南区平田１－７－４アイリステラモトⅠ２０２", "緯度": 32.773632, "経度": 130.692597, "url": "https://www.iryou.teikyouseido.mhlw.go.jp/znk-web/juminkanja/S2430/initialize?prefCd=43&kikanCd=443330046&kikanKbn=4", "url2": null, "内容": "しおり助産院【4:助産院】熊本県熊本市南区平田１－７－４アイリステラモトⅠ２０２" }, "geometry": { "type": "Point", "coordinates": [ 130.692597, 32.773632 ] } },
{ "type": "Feature", "properties": { "ID": 434443330047, "正式名称": "伊藤助産所", "機関区分": 4, "都道府県コード": 43, "市区町村コード": 102, "所在地": "熊本県熊本市東区山ノ内３－５－５", "緯度": 32.795432, "経度": 130.768252, "url": "https://www.iryou.teikyouseido.mhlw.go.jp/znk-web/juminkanja/S2430/initialize?prefCd=43&kikanCd=443330047&kikanKbn=4", "url2": null, "内容": "伊藤助産所【4:助産院】熊本県熊本市東区山ノ内３－５－５" }, "geometry": { "type": "Point", "coordinates": [ 130.768252, 32.795432 ] } },
{ "type": "Feature", "properties": { "ID": 434443330048, "正式名称": "ｆａｍｉｌｙ　ｍｉｄｗｉｆｅ　あいとわ", "機関区分": 4, "都道府県コード": 43, "市区町村コード": 102, "所在地": "熊本県熊本市東区戸島１－１５－３３", "緯度": 32.816434, "経度": 130.798508, "url": "https://www.iryou.teikyouseido.mhlw.go.jp/znk-web/juminkanja/S2430/initialize?prefCd=43&kikanCd=443330048&kikanKbn=4", "url2": null, "内容": "ｆａｍｉｌｙ　ｍｉｄｗｉｆｅ　あいとわ【4:助産院】熊本県熊本市東区戸島１－１５－３３" }, "geometry": { "type": "Point", "coordinates": [ 130.798508, 32.816434 ] } },
{ "type": "Feature", "properties": { "ID": 434443330049, "正式名称": "まりあ助産院", "機関区分": 4, "都道府県コード": 43, "市区町村コード": 102, "所在地": "熊本県熊本市東区山ノ内", "緯度": 32.795013, "経度": 130.76875, "url": "https://www.iryou.teikyouseido.mhlw.go.jp/znk-web/juminkanja/S2430/initialize?prefCd=43&kikanCd=443330049&kikanKbn=4", "url2": "https://www.maria-mw.com", "内容": "まりあ助産院【4:助産院】熊本県熊本市東区山ノ内" }, "geometry": { "type": "Point", "coordinates": [ 130.76875, 32.795013 ] } },
{ "type": "Feature", "properties": { "ID": 434443330050, "正式名称": "お結び助産院", "機関区分": 4, "都道府県コード": 43, "市区町村コード": 104, "所在地": "熊本県熊本市南区島町４－１１－１２ガーデンスクエアＥ１０１", "緯度": 32.762697, "経度": 130.677539, "url": "https://www.iryou.teikyouseido.mhlw.go.jp/znk-web/juminkanja/S2430/initialize?prefCd=43&kikanCd=443330050&kikanKbn=4", "url2": null, "内容": "お結び助産院【4:助産院】熊本県熊本市南区島町４－１１－１２ガーデンスクエアＥ１０１" }, "geometry": { "type": "Point", "coordinates": [ 130.677539, 32.762697 ] } },
{ "type": "Feature", "properties": { "ID": 434443330051, "正式名称": "おいとま助産院", "機関区分": 4, "都道府県コード": 43, "市区町村コード": 105, "所在地": "熊本県熊本市北区池田３－１－４０", "緯度": 32.831114, "経度": 130.710328, "url": "https://www.iryou.teikyouseido.mhlw.go.jp/znk-web/juminkanja/S2430/initialize?prefCd=43&kikanCd=443330051&kikanKbn=4", "url2": null, "内容": "おいとま助産院【4:助産院】熊本県熊本市北区池田３－１－４０" }, "geometry": { "type": "Point", "coordinates": [ 130.710328, 32.831114 ] } },
{ "type": "Feature", "properties": { "ID": 434443330052, "正式名称": "助産院　ｆｕｒａｈａ", "機関区分": 4, "都道府県コード": 43, "市区町村コード": 104, "所在地": "熊本県熊本市南区八分字町９０５－２", "緯度": 32.759786, "経度": 130.664411, "url": "https://www.iryou.teikyouseido.mhlw.go.jp/znk-web/juminkanja/S2430/initialize?prefCd=43&kikanCd=443330052&kikanKbn=4", "url2": null, "内容": "助産院　ｆｕｒａｈａ【4:助産院】熊本県熊本市南区八分字町９０５－２" }, "geometry": { "type": "Point", "coordinates": [ 130.664411, 32.759786 ] } },
{ "type": "Feature", "properties": { "ID": 434443540001, "正式名称": "桶谷式たなか母乳育児相談室　助産院「おっぱい相談所」", "機関区分": 4, "都道府県コード": 43, "市区町村コード": 208, "所在地": "熊本県山鹿市方保田５４１－１", "緯度": 32.993624, "経度": 130.723995, "url": "https://www.iryou.teikyouseido.mhlw.go.jp/znk-web/juminkanja/S2430/initialize?prefCd=43&kikanCd=443540001&kikanKbn=4", "url2": "tanaka-bonyuu.com", "内容": "桶谷式たなか母乳育児相談室　助産院「おっぱい相談所」【4:助産院】熊本県山鹿市方保田５４１－１" }, "geometry": { "type": "Point", "coordinates": [ 130.723995, 32.993624 ] } },
{ "type": "Feature", "properties": { "ID": 434443550001, "正式名称": "高宗助産所", "機関区分": 4, "都道府県コード": 43, "市区町村コード": 210, "所在地": "熊本県菊池市西迫間３０４", "緯度": 32.996322, "経度": 130.813143, "url": "https://www.iryou.teikyouseido.mhlw.go.jp/znk-web/juminkanja/S2430/initialize?prefCd=43&kikanCd=443550001&kikanKbn=4", "url2": null, "内容": "高宗助産所【4:助産院】熊本県菊池市西迫間３０４" }, "geometry": { "type": "Point", "coordinates": [ 130.813143, 32.996322 ] } },
{ "type": "Feature", "properties": { "ID": 434443550002, "正式名称": "母乳育児相談にしむら", "機関区分": 4, "都道府県コード": 43, "市区町村コード": 216, "所在地": "熊本県合志市須屋３５７－５", "緯度": 32.857065, "経度": 130.737498, "url": "https://www.iryou.teikyouseido.mhlw.go.jp/znk-web/juminkanja/S2430/initialize?prefCd=43&kikanCd=443550002&kikanKbn=4", "url2": null, "内容": "母乳育児相談にしむら【4:助産院】熊本県合志市須屋３５７－５" }, "geometry": { "type": "Point", "coordinates": [ 130.737498, 32.857065 ] } },
{ "type": "Feature", "properties": { "ID": 434443550003, "正式名称": "母乳相談まま～ず", "機関区分": 4, "都道府県コード": 43, "市区町村コード": 216, "所在地": "熊本県合志市須屋１６３５－１３７", "緯度": 32.862453, "経度": 130.746603, "url": "https://www.iryou.teikyouseido.mhlw.go.jp/znk-web/juminkanja/S2430/initialize?prefCd=43&kikanCd=443550003&kikanKbn=4", "url2": null, "内容": "母乳相談まま～ず【4:助産院】熊本県合志市須屋１６３５－１３７" }, "geometry": { "type": "Point", "coordinates": [ 130.746603, 32.862453 ] } },
{ "type": "Feature", "properties": { "ID": 434443550004, "正式名称": "母子整体・保健相談所七つのパン", "機関区分": 4, "都道府県コード": 43, "市区町村コード": 216, "所在地": "熊本県合志市幾久富１７５８－３７９", "緯度": 32.865681, "経度": 130.779877, "url": "https://www.iryou.teikyouseido.mhlw.go.jp/znk-web/juminkanja/S2430/initialize?prefCd=43&kikanCd=443550004&kikanKbn=4", "url2": null, "内容": "母子整体・保健相談所七つのパン【4:助産院】熊本県合志市幾久富１７５８－３７９" }, "geometry": { "type": "Point", "coordinates": [ 130.779877, 32.865681 ] } },
{ "type": "Feature", "properties": { "ID": 434443550005, "正式名称": "桐原良子助産所", "機関区分": 4, "都道府県コード": 43, "市区町村コード": 403, "所在地": "熊本県菊池郡大津町杉水２７１７", "緯度": 32.916123, "経度": 130.852183, "url": "https://www.iryou.teikyouseido.mhlw.go.jp/znk-web/juminkanja/S2430/initialize?prefCd=43&kikanCd=443550005&kikanKbn=4", "url2": "https://mam-mam.jp", "内容": "桐原良子助産所【4:助産院】熊本県菊池郡大津町杉水２７１７" }, "geometry": { "type": "Point", "coordinates": [ 130.852183, 32.916123 ] } },
{ "type": "Feature", "properties": { "ID": 434443550006, "正式名称": "ママ＆ベビーサポートえとう", "機関区分": 4, "都道府県コード": 43, "市区町村コード": 403, "所在地": "熊本県菊池郡大津町陣内１４８０", "緯度": 32.861939, "経度": 130.873534, "url": "https://www.iryou.teikyouseido.mhlw.go.jp/znk-web/juminkanja/S2430/initialize?prefCd=43&kikanCd=443550006&kikanKbn=4", "url2": null, "内容": "ママ＆ベビーサポートえとう【4:助産院】熊本県菊池郡大津町陣内１４８０" }, "geometry": { "type": "Point", "coordinates": [ 130.873534, 32.861939 ] } },
{ "type": "Feature", "properties": { "ID": 434443550007, "正式名称": "助産院マミーズＭＯＲＩ", "機関区分": 4, "都道府県コード": 43, "市区町村コード": 404, "所在地": "熊本県菊池郡菊陽町光の森１－８－７", "緯度": 32.858146, "経度": 130.777195, "url": "https://www.iryou.teikyouseido.mhlw.go.jp/znk-web/juminkanja/S2430/initialize?prefCd=43&kikanCd=443550007&kikanKbn=4", "url2": null, "内容": "助産院マミーズＭＯＲＩ【4:助産院】熊本県菊池郡菊陽町光の森１－８－７" }, "geometry": { "type": "Point", "coordinates": [ 130.777195, 32.858146 ] } },
{ "type": "Feature", "properties": { "ID": 434443550008, "正式名称": "未来助産院", "機関区分": 4, "都道府県コード": 43, "市区町村コード": 210, "所在地": "熊本県菊池市泗水町吉富２６８４", "緯度": 32.931423, "経度": 130.771299, "url": "https://www.iryou.teikyouseido.mhlw.go.jp/znk-web/juminkanja/S2430/initialize?prefCd=43&kikanCd=443550008&kikanKbn=4", "url2": "https://www.midwifemap.com/mysite/kurumirai/", "内容": "未来助産院【4:助産院】熊本県菊池市泗水町吉富２６８４" }, "geometry": { "type": "Point", "coordinates": [ 130.771299, 32.931423 ] } },
{ "type": "Feature", "properties": { "ID": 434443550009, "正式名称": "Ｍａｈｉｒｏ助産院", "機関区分": 4, "都道府県コード": 43, "市区町村コード": 216, "所在地": "熊本県合志市豊岡２１４６－８４", "緯度": 32.874039, "経度": 130.771418, "url": "https://www.iryou.teikyouseido.mhlw.go.jp/znk-web/juminkanja/S2430/initialize?prefCd=43&kikanCd=443550009&kikanKbn=4", "url2": null, "内容": "Ｍａｈｉｒｏ助産院【4:助産院】熊本県合志市豊岡２１４６－８４" }, "geometry": { "type": "Point", "coordinates": [ 130.771418, 32.874039 ] } },
{ "type": "Feature", "properties": { "ID": 434443550010, "正式名称": "くまさんの助産所", "機関区分": 4, "都道府県コード": 43, "市区町村コード": 216, "所在地": "熊本県合志市幾久富１６５６－２９ＰＥＡＣＥＦＵＬｆｉｒｓｔ　Ｂ", "緯度": 32.888493, "経度": 130.78947, "url": "https://www.iryou.teikyouseido.mhlw.go.jp/znk-web/juminkanja/S2430/initialize?prefCd=43&kikanCd=443550010&kikanKbn=4", "url2": null, "内容": "くまさんの助産所【4:助産院】熊本県合志市幾久富１６５６－２９ＰＥＡＣＥＦＵＬｆｉｒｓｔ　Ｂ" }, "geometry": { "type": "Point", "coordinates": [ 130.78947, 32.888493 ] } },
{ "type": "Feature", "properties": { "ID": 434443560001, "正式名称": "助産院陽", "機関区分": 4, "都道府県コード": 43, "市区町村コード": 214, "所在地": "熊本県阿蘇市一の宮町宮地６１５４－１０　仙酔峡ハイツＥ－１", "緯度": 32.875074, "経度": 131.002114, "url": "https://www.iryou.teikyouseido.mhlw.go.jp/znk-web/juminkanja/S2430/initialize?prefCd=43&kikanCd=443560001&kikanKbn=4", "url2": "https://jyosanin-hinata-aso.studio.site/", "内容": "助産院陽【4:助産院】熊本県阿蘇市一の宮町宮地６１５４－１０　仙酔峡ハイツＥ－１" }, "geometry": { "type": "Point", "coordinates": [ 131.002114, 32.875074 ] } },
{ "type": "Feature", "properties": { "ID": 434443560002, "正式名称": "助産院　ｓｉｓｔｅｒ＆ｃｏ", "機関区分": 4, "都道府県コード": 43, "市区町村コード": 432, "所在地": "熊本県阿蘇郡西原村布田１９７０－２", "緯度": 32.831779, "経度": 130.902725, "url": "https://www.iryou.teikyouseido.mhlw.go.jp/znk-web/juminkanja/S2430/initialize?prefCd=43&kikanCd=443560002&kikanKbn=4", "url2": null, "内容": "助産院　ｓｉｓｔｅｒ＆ｃｏ【4:助産院】熊本県阿蘇郡西原村布田１９７０－２" }, "geometry": { "type": "Point", "coordinates": [ 130.902725, 32.831779 ] } },
{ "type": "Feature", "properties": { "ID": 434443570001, "正式名称": "いずみ助産所", "機関区分": 4, "都道府県コード": 43, "市区町村コード": 443, "所在地": "熊本県上益城郡益城町広崎８０２－２０", "緯度": 32.781427, "経度": 130.786887, "url": "https://www.iryou.teikyouseido.mhlw.go.jp/znk-web/juminkanja/S2430/initialize?prefCd=43&kikanCd=443570001&kikanKbn=4", "url2": null, "内容": "いずみ助産所【4:助産院】熊本県上益城郡益城町広崎８０２－２０" }, "geometry": { "type": "Point", "coordinates": [ 130.786887, 32.781427 ] } },
{ "type": "Feature", "properties": { "ID": 434443570002, "正式名称": "ＢＡＢＹ　ＳＭＩＬＥ", "機関区分": 4, "都道府県コード": 43, "市区町村コード": 443, "所在地": "熊本県上益城郡益城町広崎９２５番地７", "緯度": 32.782278, "経度": 130.790089, "url": "https://www.iryou.teikyouseido.mhlw.go.jp/znk-web/juminkanja/S2430/initialize?prefCd=43&kikanCd=443570002&kikanKbn=4", "url2": null, "内容": "ＢＡＢＹ　ＳＭＩＬＥ【4:助産院】熊本県上益城郡益城町広崎９２５番地７" }, "geometry": { "type": "Point", "coordinates": [ 130.790089, 32.782278 ] } },
{ "type": "Feature", "properties": { "ID": 434443600002, "正式名称": "ますだ母乳育児相談室助産院", "機関区分": 4, "都道府県コード": 43, "市区町村コード": 202, "所在地": "熊本県八代市豊原下町３４２６", "緯度": 32.487711, "経度": 130.620454, "url": "https://www.iryou.teikyouseido.mhlw.go.jp/znk-web/juminkanja/S2430/initialize?prefCd=43&kikanCd=443600002&kikanKbn=4", "url2": null, "内容": "ますだ母乳育児相談室助産院【4:助産院】熊本県八代市豊原下町３４２６" }, "geometry": { "type": "Point", "coordinates": [ 130.620454, 32.487711 ] } },
{ "type": "Feature", "properties": { "ID": 434443600003, "正式名称": "ＡＲＩＫＡ（アリカ）助産所", "機関区分": 4, "都道府県コード": 43, "市区町村コード": 202, "所在地": "熊本県八代市千丁町新牟田１８２", "緯度": 32.533002, "経度": 130.644889, "url": "https://www.iryou.teikyouseido.mhlw.go.jp/znk-web/juminkanja/S2430/initialize?prefCd=43&kikanCd=443600003&kikanKbn=4", "url2": null, "内容": "ＡＲＩＫＡ（アリカ）助産所【4:助産院】熊本県八代市千丁町新牟田１８２" }, "geometry": { "type": "Point", "coordinates": [ 130.644889, 32.533002 ] } },
{ "type": "Feature", "properties": { "ID": 434443600004, "正式名称": "さとみ助産院", "機関区分": 4, "都道府県コード": 43, "市区町村コード": 202, "所在地": "熊本県八代市千丁町新牟田１４０９－１２", "緯度": 32.533389, "経度": 130.637223, "url": "https://www.iryou.teikyouseido.mhlw.go.jp/znk-web/juminkanja/S2430/initialize?prefCd=43&kikanCd=443600004&kikanKbn=4", "url2": null, "内容": "さとみ助産院【4:助産院】熊本県八代市千丁町新牟田１４０９－１２" }, "geometry": { "type": "Point", "coordinates": [ 130.637223, 32.533389 ] } },
{ "type": "Feature", "properties": { "ID": 434443600005, "正式名称": "ヒロ助産院", "機関区分": 4, "都道府県コード": 43, "市区町村コード": 202, "所在地": "熊本県八代市上日置町２３００－５", "緯度": 32.510676, "経度": 130.625502, "url": "https://www.iryou.teikyouseido.mhlw.go.jp/znk-web/juminkanja/S2430/initialize?prefCd=43&kikanCd=443600005&kikanKbn=4", "url2": "kumaon.kumamoto.jp/product/hiro-josanin", "内容": "ヒロ助産院【4:助産院】熊本県八代市上日置町２３００－５" }, "geometry": { "type": "Point", "coordinates": [ 130.625502, 32.510676 ] } },
{ "type": "Feature", "properties": { "ID": 434443600006, "正式名称": "月助産院", "機関区分": 4, "都道府県コード": 43, "市区町村コード": 202, "所在地": "熊本県八代市古城町２２７６－３－１０３", "緯度": 32.496523, "経度": 130.592415, "url": "https://www.iryou.teikyouseido.mhlw.go.jp/znk-web/juminkanja/S2430/initialize?prefCd=43&kikanCd=443600006&kikanKbn=4", "url2": null, "内容": "月助産院【4:助産院】熊本県八代市古城町２２７６－３－１０３" }, "geometry": { "type": "Point", "coordinates": [ 130.592415, 32.496523 ] } },
{ "type": "Feature", "properties": { "ID": 434443620001, "正式名称": "母乳と育児相談室「はな」", "機関区分": 4, "都道府県コード": 43, "市区町村コード": 205, "所在地": "熊本県水俣市古城２－５－１０", "緯度": 32.204607, "経度": 130.417067, "url": "https://www.iryou.teikyouseido.mhlw.go.jp/znk-web/juminkanja/S2430/initialize?prefCd=43&kikanCd=443620001&kikanKbn=4", "url2": null, "内容": "母乳と育児相談室「はな」【4:助産院】熊本県水俣市古城２－５－１０" }, "geometry": { "type": "Point", "coordinates": [ 130.417067, 32.204607 ] } },
{ "type": "Feature", "properties": { "ID": 434443620002, "正式名称": "助産院ＣＯＣＯＲＯ", "機関区分": 4, "都道府県コード": 43, "市区町村コード": 203, "所在地": "熊本県人吉市西間下町字一本杉１６６－６", "緯度": 32.200578, "経度": 130.755133, "url": "https://www.iryou.teikyouseido.mhlw.go.jp/znk-web/juminkanja/S2430/initialize?prefCd=43&kikanCd=443620002&kikanKbn=4", "url2": null, "内容": "助産院ＣＯＣＯＲＯ【4:助産院】熊本県人吉市西間下町字一本杉１６６－６" }, "geometry": { "type": "Point", "coordinates": [ 130.755133, 32.200578 ] } },
{ "type": "Feature", "properties": { "ID": 434443650001, "正式名称": "ありあけ助産院", "機関区分": 4, "都道府県コード": 43, "市区町村コード": 368, "所在地": "熊本県玉名郡長洲町腹赤１００３－２", "緯度": 32.921605, "経度": 130.475798, "url": "https://www.iryou.teikyouseido.mhlw.go.jp/znk-web/juminkanja/S2430/initialize?prefCd=43&kikanCd=443650001&kikanKbn=4", "url2": null, "内容": "ありあけ助産院【4:助産院】熊本県玉名郡長洲町腹赤１００３－２" }, "geometry": { "type": "Point", "coordinates": [ 130.475798, 32.921605 ] } },
{ "type": "Feature", "properties": { "ID": 434443650002, "正式名称": "あずさ助産院", "機関区分": 4, "都道府県コード": 43, "市区町村コード": 206, "所在地": "熊本県玉名市高瀬２２４－１２アイソス１０２", "緯度": 32.9291, "経度": 130.563189, "url": "https://www.iryou.teikyouseido.mhlw.go.jp/znk-web/juminkanja/S2430/initialize?prefCd=43&kikanCd=443650002&kikanKbn=4", "url2": null, "内容": "あずさ助産院【4:助産院】熊本県玉名市高瀬２２４－１２アイソス１０２" }, "geometry": { "type": "Point", "coordinates": [ 130.563189, 32.9291 ] } },
{ "type": "Feature", "properties": { "ID": 434443650003, "正式名称": "白ゆり母乳専門相談室　村上助産院", "機関区分": 4, "都道府県コード": 43, "市区町村コード": 204, "所在地": "熊本県荒尾市荒尾７７１", "緯度": 32.985438, "経度": 130.431596, "url": "https://www.iryou.teikyouseido.mhlw.go.jp/znk-web/juminkanja/S2430/initialize?prefCd=43&kikanCd=443650003&kikanKbn=4", "url2": null, "内容": "白ゆり母乳専門相談室　村上助産院【4:助産院】熊本県荒尾市荒尾７７１" }, "geometry": { "type": "Point", "coordinates": [ 130.431596, 32.985438 ] } },
{ "type": "Feature", "properties": { "ID": 434443650004, "正式名称": "まちの助産院", "機関区分": 4, "都道府県コード": 43, "市区町村コード": 368, "所在地": "熊本県玉名郡長洲町腹赤９７１－１", "緯度": 32.919411, "経度": 130.478363, "url": "https://www.iryou.teikyouseido.mhlw.go.jp/znk-web/juminkanja/S2430/initialize?prefCd=43&kikanCd=443650004&kikanKbn=4", "url2": null, "内容": "まちの助産院【4:助産院】熊本県玉名郡長洲町腹赤９７１－１" }, "geometry": { "type": "Point", "coordinates": [ 130.478363, 32.919411 ] } },
{ "type": "Feature", "properties": { "ID": 434443650005, "正式名称": "はるのひかり助産院", "機関区分": 4, "都道府県コード": 43, "市区町村コード": 204, "所在地": "熊本県荒尾市蔵満３９２－１パーチェプレイスＢ２０２", "緯度": 32.959542, "経度": 130.436293, "url": "https://www.iryou.teikyouseido.mhlw.go.jp/znk-web/juminkanja/S2430/initialize?prefCd=43&kikanCd=443650005&kikanKbn=4", "url2": null, "内容": "はるのひかり助産院【4:助産院】熊本県荒尾市蔵満３９２－１パーチェプレイスＢ２０２" }, "geometry": { "type": "Point", "coordinates": [ 130.436293, 32.959542 ] } },
{ "type": "Feature", "properties": { "ID": 434443660001, "正式名称": "太田黒助産師", "機関区分": 4, "都道府県コード": 43, "市区町村コード": 211, "所在地": "熊本県宇土市笹原町１５０２", "緯度": 32.703035, "経度": 130.611854, "url": "https://www.iryou.teikyouseido.mhlw.go.jp/znk-web/juminkanja/S2430/initialize?prefCd=43&kikanCd=443660001&kikanKbn=4", "url2": null, "内容": "太田黒助産師【4:助産院】熊本県宇土市笹原町１５０２" }, "geometry": { "type": "Point", "coordinates": [ 130.611854, 32.703035 ] } },
{ "type": "Feature", "properties": { "ID": 434443660002, "正式名称": "たけ助産院", "機関区分": 4, "都道府県コード": 43, "市区町村コード": 213, "所在地": "熊本県宇城市松橋町松橋１４２８－１", "緯度": 32.652665, "経度": 130.67909, "url": "https://www.iryou.teikyouseido.mhlw.go.jp/znk-web/juminkanja/S2430/initialize?prefCd=43&kikanCd=443660002&kikanKbn=4", "url2": null, "内容": "たけ助産院【4:助産院】熊本県宇城市松橋町松橋１４２８－１" }, "geometry": { "type": "Point", "coordinates": [ 130.67909, 32.652665 ] } },
{ "type": "Feature", "properties": { "ID": 434443660003, "正式名称": "キヌ助産院ー母乳育児相談ー", "機関区分": 4, "都道府県コード": 43, "市区町村コード": 213, "所在地": "熊本県宇城市松橋町松橋８１１－７", "緯度": 32.654741, "経度": 130.679144, "url": "https://www.iryou.teikyouseido.mhlw.go.jp/znk-web/juminkanja/S2430/initialize?prefCd=43&kikanCd=443660003&kikanKbn=4", "url2": "https://oketani-kinu-2.jimdosite.com/", "内容": "キヌ助産院ー母乳育児相談ー【4:助産院】熊本県宇城市松橋町松橋８１１－７" }, "geometry": { "type": "Point", "coordinates": [ 130.679144, 32.654741 ] } },
{ "type": "Feature", "properties": { "ID": 434443670001, "正式名称": "天草さくら助産院", "機関区分": 4, "都道府県コード": 43, "市区町村コード": 215, "所在地": "熊本県天草市川原新町６９", "緯度": 32.452742, "経度": 130.183035, "url": "https://www.iryou.teikyouseido.mhlw.go.jp/znk-web/juminkanja/S2430/initialize?prefCd=43&kikanCd=443670001&kikanKbn=4", "url2": null, "内容": "天草さくら助産院【4:助産院】熊本県天草市川原新町６９" }, "geometry": { "type": "Point", "coordinates": [ 130.183035, 32.452742 ] } },
{ "type": "Feature", "properties": { "ID": 434443670002, "正式名称": "喫茶子助産院", "機関区分": 4, "都道府県コード": 43, "市区町村コード": 215, "所在地": "熊本県天草市亀場町亀川１８１６－５", "緯度": 32.445922, "経度": 130.198541, "url": "https://www.iryou.teikyouseido.mhlw.go.jp/znk-web/juminkanja/S2430/initialize?prefCd=43&kikanCd=443670002&kikanKbn=4", "url2": null, "内容": "喫茶子助産院【4:助産院】熊本県天草市亀場町亀川１８１６－５" }, "geometry": { "type": "Point", "coordinates": [ 130.198541, 32.445922 ] } },
{ "type": "Feature", "properties": { "ID": 434443670003, "正式名称": "くるみの里助産院", "機関区分": 4, "都道府県コード": 43, "市区町村コード": 215, "所在地": "熊本県天草市天草町福連木２２６１－１－８４", "緯度": 32.418498, "経度": 130.068436, "url": "https://www.iryou.teikyouseido.mhlw.go.jp/znk-web/juminkanja/S2430/initialize?prefCd=43&kikanCd=443670003&kikanKbn=4", "url2": null, "内容": "くるみの里助産院【4:助産院】熊本県天草市天草町福連木２２６１－１－８４" }, "geometry": { "type": "Point", "coordinates": [ 130.068436, 32.418498 ] } },
{ "type": "Feature", "properties": { "ID": 434443670005, "正式名称": "ツバメ助産院", "機関区分": 4, "都道府県コード": 43, "市区町村コード": 215, "所在地": "熊本県天草市", "緯度": 32.456074, "経度": 130.18912, "url": "https://www.iryou.teikyouseido.mhlw.go.jp/znk-web/juminkanja/S2430/initialize?prefCd=43&kikanCd=443670005&kikanKbn=4", "url2": null, "内容": "ツバメ助産院【4:助産院】熊本県天草市" }, "geometry": { "type": "Point", "coordinates": [ 130.18912, 32.456074 ] } }
]
}
