{
"type": "FeatureCollection",
"name": "geo_43_特定施設入居者生活介護（有料老人ホーム）",
"crs": { "type": "name", "properties": { "name": "urn:ogc:def:crs:OGC:1.3:CRS84" } },
"features": [
{ "type": "Feature", "properties": { "内容": "黒髪しょうぶ苑介護付き有料老人ホーム【特定施設入居者生活介護（有料老人ホーム）】熊本県熊本市中央区黒髪5丁目4番30号黒髪しょうぶ苑", "url": "https://www.kaigokensaku.mhlw.go.jp/43/index.php?action_kouhyou_detail_004_kani=true&JigyosyoCd=4370112106-00&ServiceCd=331&Type=search", "url2": "http://www.syoubuen.com" }, "geometry": { "type": "Point", "coordinates": [ 130.730142300000011, 32.8153802 ] } },
{ "type": "Feature", "properties": { "内容": "水前寺有料老人ホーム【特定施設入居者生活介護（有料老人ホーム）】熊本県熊本市中央区国府1－3－15", "url": "https://www.kaigokensaku.mhlw.go.jp/43/index.php?action_kouhyou_detail_004_kani=true&JigyosyoCd=4370107759-00&ServiceCd=331&Type=search", "url2": "http://www.kikunan-hospital.com/" }, "geometry": { "type": "Point", "coordinates": [ 130.726670499999955, 32.7924268 ] } },
{ "type": "Feature", "properties": { "内容": "介護付有料老人ホーム　ヴィラ・九品寺【特定施設入居者生活介護（有料老人ホーム）】熊本県熊本市中央区九品寺３丁目９番５号", "url": "https://www.kaigokensaku.mhlw.go.jp/43/index.php?action_kouhyou_detail_004_kani=true&JigyosyoCd=4370110308-00&ServiceCd=331&Type=search", "url2": "http://vira.or.jp" }, "geometry": { "type": "Point", "coordinates": [ 130.718090399999937, 32.7962624 ] } },
{ "type": "Feature", "properties": { "内容": "有料老人ホーム　江南の杜【特定施設入居者生活介護（有料老人ホーム）】熊本市中央区本山１丁目５番２０号", "url": "https://www.kaigokensaku.mhlw.go.jp/43/index.php?action_kouhyou_detail_004_kani=true&JigyosyoCd=4370107973-00&ServiceCd=331&Type=search", "url2": "https://kounan-no-mori.com/" }, "geometry": { "type": "Point", "coordinates": [ 130.6994922, 32.791017900000035 ] } },
{ "type": "Feature", "properties": { "内容": "グランガーデン熊本【特定施設入居者生活介護（有料老人ホーム）】熊本市中央区城東町4番7号", "url": "https://www.kaigokensaku.mhlw.go.jp/43/index.php?action_kouhyou_detail_004_kani=true&JigyosyoCd=4370104376-00&ServiceCd=331&Type=search", "url2": "https://www.kyuden-glk.co.jp/" }, "geometry": { "type": "Point", "coordinates": [ 130.710082599999964, 32.8055335 ] } },
{ "type": "Feature", "properties": { "内容": "介護付有料老人ホーム　きずな【特定施設入居者生活介護（有料老人ホーム）】東区新南部5丁目2番1号", "url": "https://www.kaigokensaku.mhlw.go.jp/43/index.php?action_kouhyou_detail_004_kani=true&JigyosyoCd=4370107007-00&ServiceCd=331&Type=search", "url2": "http://www.keijinkai.org" }, "geometry": { "type": "Point", "coordinates": [ 130.748116799999906, 32.8187272 ] } },
{ "type": "Feature", "properties": { "内容": "介護付有料老人ホーム令寿【特定施設入居者生活介護（有料老人ホーム）】長嶺東2丁目28-80", "url": "https://www.kaigokensaku.mhlw.go.jp/43/index.php?action_kouhyou_detail_004_kani=true&JigyosyoCd=4370114573-00&ServiceCd=331&Type=search", "url2": "https://www.takumakai.or.jp/reijyu" }, "geometry": { "type": "Point", "coordinates": [ 130.773654099999959, 32.821786604608697 ] } },
{ "type": "Feature", "properties": { "内容": "シニアマンションユートピア熊本【特定施設入居者生活介護（有料老人ホーム）】熊本市東区秋津１丁目１－８", "url": "https://www.kaigokensaku.mhlw.go.jp/43/index.php?action_kouhyou_detail_004_kani=true&JigyosyoCd=4370102289-00&ServiceCd=331&Type=search", "url2": "http://www.utopiakumamoto.jp" }, "geometry": { "type": "Point", "coordinates": [ 130.766018700000018, 32.7723175 ] } },
{ "type": "Feature", "properties": { "内容": "有料老人ホーム赤とんぼ長嶺【特定施設入居者生活介護（有料老人ホーム）】熊本県熊本市東区長嶺南6丁目25番97号", "url": "https://www.kaigokensaku.mhlw.go.jp/43/index.php?action_kouhyou_detail_004_kani=true&JigyosyoCd=4370112072-00&ServiceCd=331&Type=search", "url2": "https://www.jinseikai.or.jp" }, "geometry": { "type": "Point", "coordinates": [ 130.779406733729502, 32.810791409470148 ] } },
{ "type": "Feature", "properties": { "内容": "特定施設入居者生活介護　すずめ【特定施設入居者生活介護（有料老人ホーム）】熊本市東区画図東１丁目８番４８号", "url": "https://www.kaigokensaku.mhlw.go.jp/43/index.php?action_kouhyou_detail_004_kani=true&JigyosyoCd=4370103501-00&ServiceCd=331&Type=search", "url2": "http://suzume.life.coocan.jp/" }, "geometry": { "type": "Point", "coordinates": [ 130.7485226, 32.768215 ] } },
{ "type": "Feature", "properties": { "内容": "特定施設　きらら【特定施設入居者生活介護（有料老人ホーム）】熊本県熊本市東区新南部3丁目7番76－2号", "url": "https://www.kaigokensaku.mhlw.go.jp/43/index.php?action_kouhyou_detail_004_kani=true&JigyosyoCd=4370107106-00&ServiceCd=331&Type=search", "url2": "http://www.keijinkai.org" }, "geometry": { "type": "Point", "coordinates": [ 130.746666799999957, 32.8155358 ] } },
{ "type": "Feature", "properties": { "内容": "老人ホームふくし大夢【特定施設入居者生活介護（有料老人ホーム）】熊本県熊本市東区山ノ神1丁目４－１３", "url": "https://www.kaigokensaku.mhlw.go.jp/43/index.php?action_kouhyou_detail_004_kani=true&JigyosyoCd=4370104178-00&ServiceCd=331&Type=search", "url2": "http://fkstime.web.fc2.com" }, "geometry": { "type": "Point", "coordinates": [ 130.772221100000024, 32.7956324 ] } },
{ "type": "Feature", "properties": { "内容": "江津しょうぶ苑介護付有料老人ホーム【特定施設入居者生活介護（有料老人ホーム）】熊本県熊本市東区画図町所島1023-1", "url": "https://www.kaigokensaku.mhlw.go.jp/43/index.php?action_kouhyou_detail_004_kani=true&JigyosyoCd=4370113872-00&ServiceCd=331&Type=search", "url2": "http://www.shoubuen.com/" }, "geometry": { "type": "Point", "coordinates": [ 130.734865200000058, 32.7650666 ] } },
{ "type": "Feature", "properties": { "内容": "江津しょうぶ苑介護付有料老人ホーム【特定施設入居者生活介護（有料老人ホーム）】熊本市東区画図町所島１０３９", "url": "https://www.kaigokensaku.mhlw.go.jp/43/index.php?action_kouhyou_detail_004_kani=true&JigyosyoCd=4370108021-00&ServiceCd=331&Type=search", "url2": "http://shoubuen.com" }, "geometry": { "type": "Point", "coordinates": [ 130.735948300000018, 32.7703315 ] } },
{ "type": "Feature", "properties": { "内容": "養護老人ホーム長寿の里【特定施設入居者生活介護（有料老人ホーム）】熊本市西区城山薬師2丁目10番10号", "url": "https://www.kaigokensaku.mhlw.go.jp/43/index.php?action_kouhyou_detail_004_kani=true&JigyosyoCd=4370116602-00&ServiceCd=331&Type=search", "url2": "https://ksfj.jp/senior/home-chouju" }, "geometry": { "type": "Point", "coordinates": [ 130.6459463, 32.7715038 ] } },
{ "type": "Feature", "properties": { "内容": "介護付有料老人ホーム夢眠くまもとみなみ【特定施設入居者生活介護（有料老人ホーム）】熊本県熊本市南区御幸西3丁目9番36号", "url": "https://www.kaigokensaku.mhlw.go.jp/43/index.php?action_kouhyou_detail_004_kani=true&JigyosyoCd=4370115422-00&ServiceCd=331&Type=search", "url2": "http://muminhome.jp/kumamotominami/" }, "geometry": { "type": "Point", "coordinates": [ 130.701814599999977, 32.7566284 ] } },
{ "type": "Feature", "properties": { "内容": "夢眠くまもとにし3号館【特定施設入居者生活介護（有料老人ホーム）】熊本県熊本市西区城山下代三丁目1番2号", "url": "https://www.kaigokensaku.mhlw.go.jp/43/index.php?action_kouhyou_detail_004_kani=true&JigyosyoCd=4370116883-00&ServiceCd=331&Type=search", "url2": "https://muminhome.jp/kumamotonishi03" }, "geometry": { "type": "Point", "coordinates": [ 130.6560212, 32.776674 ] } },
{ "type": "Feature", "properties": { "内容": "ケアライフ春日【特定施設入居者生活介護（有料老人ホーム）】熊本県熊本市西区春日7丁目16番12号", "url": "https://www.kaigokensaku.mhlw.go.jp/43/index.php?action_kouhyou_detail_004_kani=true&JigyosyoCd=4370117014-00&ServiceCd=331&Type=search", "url2": "http://www.bestlife1165.com/" }, "geometry": { "type": "Point", "coordinates": [ 130.680963655819681, 32.786350559060871 ] } },
{ "type": "Feature", "properties": { "内容": "介護付き有料老人ホーム　小春【特定施設入居者生活介護（有料老人ホーム）】熊本県熊本市南区島町2丁目18-36", "url": "https://www.kaigokensaku.mhlw.go.jp/43/index.php?action_kouhyou_detail_004_kani=true&JigyosyoCd=4370112205-00&ServiceCd=331&Type=search", "url2": null }, "geometry": { "type": "Point", "coordinates": [ 130.678669799999966, 32.7666197 ] } },
{ "type": "Feature", "properties": { "内容": "小春ケアパークそよ風【特定施設入居者生活介護（有料老人ホーム）】熊本県熊本市南区島町２－１８－３６", "url": "https://www.kaigokensaku.mhlw.go.jp/43/index.php?action_kouhyou_detail_004_kani=true&JigyosyoCd=4370115877-00&ServiceCd=331&Type=search", "url2": "https://sykz.co.jp/shisetsu/221" }, "geometry": { "type": "Point", "coordinates": [ 130.678584853967322, 32.766551626488102 ] } },
{ "type": "Feature", "properties": { "内容": "介護付き有料老人ホーム　和らく【特定施設入居者生活介護（有料老人ホーム）】熊本県熊本市南区御幸笛田町1202番地", "url": "https://www.kaigokensaku.mhlw.go.jp/43/index.php?action_kouhyou_detail_004_kani=true&JigyosyoCd=4370115216-00&ServiceCd=331&Type=search", "url2": "http://miyukinosato.or.jp" }, "geometry": { "type": "Point", "coordinates": [ 130.709042899999986, 32.7577021 ] } },
{ "type": "Feature", "properties": { "内容": "介護付有料老人ホーム　稔の里【特定施設入居者生活介護（有料老人ホーム）】城南町六田535番地", "url": "https://www.kaigokensaku.mhlw.go.jp/43/index.php?action_kouhyou_detail_004_kani=true&JigyosyoCd=4370107361-00&ServiceCd=331&Type=search", "url2": "http://www.minori-sato.com/" }, "geometry": { "type": "Point", "coordinates": [ 130.716410900000028, 32.7065926 ] } },
{ "type": "Feature", "properties": { "内容": "介護付有料老人ホーム　ヒルサイドガーデン　山吹【特定施設入居者生活介護（有料老人ホーム）】熊本県熊本市南区城南町今吉野９８９番地", "url": "https://www.kaigokensaku.mhlw.go.jp/43/index.php?action_kouhyou_detail_004_kani=true&JigyosyoCd=4370107742-00&ServiceCd=331&Type=search", "url2": null }, "geometry": { "type": "Point", "coordinates": [ 130.733695399999988, 32.7153115 ] } },
{ "type": "Feature", "properties": { "内容": "介護付有料老人ホーム　のどか園【特定施設入居者生活介護（有料老人ホーム）】熊本県熊本市南区富合町榎津492-1", "url": "https://www.kaigokensaku.mhlw.go.jp/43/index.php?action_kouhyou_detail_004_kani=true&JigyosyoCd=4370107700-00&ServiceCd=331&Type=search", "url2": null }, "geometry": { "type": "Point", "coordinates": [ 130.685494, 32.7077638 ] } },
{ "type": "Feature", "properties": { "内容": "ニチイケアセンター熊本飽田東【特定施設入居者生活介護（有料老人ホーム）】熊本県熊本市南区八分字町50-1ニチイケアセンター熊本飽田東", "url": "https://www.kaigokensaku.mhlw.go.jp/43/index.php?action_kouhyou_detail_004_kani=true&JigyosyoCd=4370108583-00&ServiceCd=331&Type=search", "url2": null }, "geometry": { "type": "Point", "coordinates": [ 130.666012699999982, 32.7642477 ] } },
{ "type": "Feature", "properties": { "内容": "ホスピタルメントさくら東館【特定施設入居者生活介護（有料老人ホーム）】熊本県熊本市南区御幸笛田7丁目15-3ホスピタルメントさくら東館", "url": "https://www.kaigokensaku.mhlw.go.jp/43/index.php?action_kouhyou_detail_004_kani=true&JigyosyoCd=4370115893-00&ServiceCd=331&Type=search", "url2": "https://www.hospitalment.co.jp/sakurahigashi/" }, "geometry": { "type": "Point", "coordinates": [ 130.7151441, 32.754775100000025 ] } },
{ "type": "Feature", "properties": { "内容": "介護付き有料老人ホーム　ローズヴィラマツモト【特定施設入居者生活介護（有料老人ホーム）】熊本県熊本市野田２丁目３１番６号", "url": "https://www.kaigokensaku.mhlw.go.jp/43/index.php?action_kouhyou_detail_004_kani=true&JigyosyoCd=4370101943-00&ServiceCd=331&Type=search", "url2": null }, "geometry": { "type": "Point", "coordinates": [ 130.685803699999951, 32.732395 ] } },
{ "type": "Feature", "properties": { "内容": "介護付き有料老人ホーム　川尻ヒルズ【特定施設入居者生活介護（有料老人ホーム）】熊本市南区南高江7丁目3番", "url": "https://www.kaigokensaku.mhlw.go.jp/43/index.php?action_kouhyou_detail_004_kani=true&JigyosyoCd=4370109839-00&ServiceCd=331&Type=search", "url2": "http://caretown-kawashiri.jp" }, "geometry": { "type": "Point", "coordinates": [ 130.6864948, 32.7444828 ] } },
{ "type": "Feature", "properties": { "内容": "そんぽの家清水麻生田【特定施設入居者生活介護（有料老人ホーム）】北区麻生田2丁目6－10", "url": "https://www.kaigokensaku.mhlw.go.jp/43/index.php?action_kouhyou_detail_004_kani=true&JigyosyoCd=4370107890-00&ServiceCd=331&Type=search", "url2": "https://www.sompocare.com/service/home/kaigo/H000269/" }, "geometry": { "type": "Point", "coordinates": [ 130.7439306, 32.8469163 ] } },
{ "type": "Feature", "properties": { "内容": "介護付き有料老人ホームさわらびⅡ【特定施設入居者生活介護（有料老人ホーム）】熊本市北区弓削4丁目8番10号介護付き有料老人ホームさわらびⅡ", "url": "https://www.kaigokensaku.mhlw.go.jp/43/index.php?action_kouhyou_detail_004_kani=true&JigyosyoCd=4370109490-00&ServiceCd=331&Type=search", "url2": "https://kumamotkikujyukai.or.jp" }, "geometry": { "type": "Point", "coordinates": [ 130.781491685844458, 32.854784789293426 ] } },
{ "type": "Feature", "properties": { "内容": "メディケアホームヒルズ成城α室園【特定施設入居者生活介護（有料老人ホーム）】熊本県熊本市北区室園町10番14号", "url": "https://www.kaigokensaku.mhlw.go.jp/43/index.php?action_kouhyou_detail_004_kani=true&JigyosyoCd=4370113724-00&ServiceCd=331&Type=search", "url2": "www.k-seijo.or.jp" }, "geometry": { "type": "Point", "coordinates": [ 130.7237778, 32.8238141 ] } },
{ "type": "Feature", "properties": { "内容": "介護付有料老人ホームブロッサムやつしろ【特定施設入居者生活介護（有料老人ホーム）】熊本県八代市郡築四番町101-4", "url": "https://www.kaigokensaku.mhlw.go.jp/43/index.php?action_kouhyou_detail_004_kani=true&JigyosyoCd=4370201123-00&ServiceCd=331&Type=search", "url2": "http://hcb-y.com" }, "geometry": { "type": "Point", "coordinates": [ 130.562791100000027, 32.5295787 ] } },
{ "type": "Feature", "properties": { "内容": "すずらん流荘【特定施設入居者生活介護（有料老人ホーム）】熊本県八代市豊原下町4115番地", "url": "https://www.kaigokensaku.mhlw.go.jp/43/index.php?action_kouhyou_detail_004_kani=true&JigyosyoCd=4370203442-00&ServiceCd=331&Type=search", "url2": "http://www.tenryuukai.jp/" }, "geometry": { "type": "Point", "coordinates": [ 130.609509, 32.4799319 ] } },
{ "type": "Feature", "properties": { "内容": "介護付有料老人ホームつどいの杜【特定施設入居者生活介護（有料老人ホーム）】熊本県菊池市泗水町豊水3727-1", "url": "https://www.kaigokensaku.mhlw.go.jp/43/index.php?action_kouhyou_detail_004_kani=true&JigyosyoCd=4371000862-00&ServiceCd=331&Type=search", "url2": "http://tudoinomori.com/" }, "geometry": { "type": "Point", "coordinates": [ 130.773142079762238, 32.920701045697363 ] } },
{ "type": "Feature", "properties": { "内容": "うとノイエ【特定施設入居者生活介護（有料老人ホーム）】熊本県宇土市松山町4168-1", "url": "https://www.kaigokensaku.mhlw.go.jp/43/index.php?action_kouhyou_detail_004_kani=true&JigyosyoCd=4371100654-00&ServiceCd=331&Type=search", "url2": null }, "geometry": { "type": "Point", "coordinates": [ 130.671446118134526, 32.667573287407542 ] } },
{ "type": "Feature", "properties": { "内容": "くまもと長寿苑そよ風【特定施設入居者生活介護（有料老人ホーム）】熊本県阿蘇郡西原村大字布田1087番地", "url": "https://www.kaigokensaku.mhlw.go.jp/43/index.php?action_kouhyou_detail_004_kani=true&JigyosyoCd=4372701138-00&ServiceCd=331&Type=search", "url2": "http://www.sykz.co.jp" }, "geometry": { "type": "Point", "coordinates": [ 130.884595, 32.8346025 ] } },
{ "type": "Feature", "properties": { "内容": "シエスタ御船【特定施設入居者生活介護（有料老人ホーム）】熊本県上益城郡御船町滝川46", "url": "https://www.kaigokensaku.mhlw.go.jp/43/index.php?action_kouhyou_detail_004_kani=true&JigyosyoCd=4372801953-00&ServiceCd=331&Type=search", "url2": "http://yushin-wel.jp/" }, "geometry": { "type": "Point", "coordinates": [ 130.797855600000048, 32.7137045 ] } },
{ "type": "Feature", "properties": { "内容": "コミュニティハウス悠優みふね【特定施設入居者生活介護（有料老人ホーム）】熊本県上益城郡御船町陣1999-1", "url": "https://www.kaigokensaku.mhlw.go.jp/43/index.php?action_kouhyou_detail_004_kani=true&JigyosyoCd=4372802266-00&ServiceCd=331&Type=search", "url2": "https://senjukai.jp/mifune-2.php" }, "geometry": { "type": "Point", "coordinates": [ 130.775395, 32.7185881 ] } },
{ "type": "Feature", "properties": { "内容": "コミュニティハウス悠優かしま【特定施設入居者生活介護（有料老人ホーム）】熊本県上益城郡嘉島町上仲間151-1", "url": "https://www.kaigokensaku.mhlw.go.jp/43/index.php?action_kouhyou_detail_004_kani=true&JigyosyoCd=4372801896-00&ServiceCd=331&Type=search", "url2": "https://senjukai.jp" }, "geometry": { "type": "Point", "coordinates": [ 130.735883100000024, 32.7405259 ] } },
{ "type": "Feature", "properties": { "内容": "介護付有料老人ホーム　いこいの里【特定施設入居者生活介護（有料老人ホーム）】熊本県上益城郡益城町福原1988番地１", "url": "https://www.kaigokensaku.mhlw.go.jp/43/index.php?action_kouhyou_detail_004_kani=true&JigyosyoCd=4372801938-00&ServiceCd=331&Type=search", "url2": "https://kinko-kai.jp/" }, "geometry": { "type": "Point", "coordinates": [ 130.8319672, 32.7829726 ] } },
{ "type": "Feature", "properties": { "内容": "介護付き有料老人ホームたんぽぽ【特定施設入居者生活介護（有料老人ホーム）】熊本県上益城郡山都町下馬尾２９９－１", "url": "https://www.kaigokensaku.mhlw.go.jp/43/index.php?action_kouhyou_detail_004_kani=true&JigyosyoCd=4372801870-00&ServiceCd=331&Type=search", "url2": null }, "geometry": { "type": "Point", "coordinates": [ 130.986857933729539, 32.685559359785394 ] } }
]
}
