{
"type": "FeatureCollection",
"name": "geo_43_介護老人福祉施設",
"crs": { "type": "name", "properties": { "name": "urn:ogc:def:crs:OGC:1.3:CRS84" } },
"features": [
{ "type": "Feature", "properties": { "内容": "小規模型ユニット型介護老人福祉施設　リデルホーム黒髪【介護老人福祉施設】熊本市中央区黒髪５丁目２３番１号", "url": "https://www.kaigokensaku.mhlw.go.jp/43/index.php?action_kouhyou_detail_004_kani=true&JigyosyoCd=4370100648-00&ServiceCd=510&Type=search", "url2": "http://www.riddell-wright.com/" }, "geometry": { "type": "Point", "coordinates": [ 130.73079789999997, 32.8189855 ] } },
{ "type": "Feature", "properties": { "内容": "パウラスホーム【介護老人福祉施設】熊本県熊本市中央区神水1丁目14番1号", "url": "https://www.kaigokensaku.mhlw.go.jp/43/index.php?action_kouhyou_detail_004_kani=true&JigyosyoCd=4370100580-00&ServiceCd=510&Type=search", "url2": "http://jiaien.or.jp" }, "geometry": { "type": "Point", "coordinates": [ 130.742819397622725, 32.784994037943555 ] } },
{ "type": "Feature", "properties": { "内容": "花みずき　介護老人福祉施設【介護老人福祉施設】熊本市中央区出水7丁目９０－１", "url": "https://www.kaigokensaku.mhlw.go.jp/43/index.php?action_kouhyou_detail_004_kani=true&JigyosyoCd=4370100721-00&ServiceCd=510&Type=search", "url2": "http://www.yuriekai.jp/" }, "geometry": { "type": "Point", "coordinates": [ 130.728318100000024, 32.7737757 ] } },
{ "type": "Feature", "properties": { "内容": "特別養護老人ホーム琴平本町【介護老人福祉施設】熊本県熊本市中央区琴平本町10-32", "url": "https://www.kaigokensaku.mhlw.go.jp/43/index.php?action_kouhyou_detail_004_kani=true&JigyosyoCd=4370114011-00&ServiceCd=510&Type=search", "url2": "https://www.kumamoto-houjyukai.jp/" }, "geometry": { "type": "Point", "coordinates": [ 130.7045976, 32.7870448 ] } },
{ "type": "Feature", "properties": { "内容": "特別養護老人ホームたくまの里【介護老人福祉施設】熊本市東区御領1丁目１３－２６", "url": "https://www.kaigokensaku.mhlw.go.jp/43/index.php?action_kouhyou_detail_004_kani=true&JigyosyoCd=4370105993-00&ServiceCd=510&Type=search", "url2": "http://www.takumanosato.com/" }, "geometry": { "type": "Point", "coordinates": [ 130.76161060000004, 32.8217797 ] } },
{ "type": "Feature", "properties": { "内容": "指定介護老人福祉施設　るり苑【介護老人福祉施設】熊本市東区上南部1丁目16-36", "url": "https://www.kaigokensaku.mhlw.go.jp/43/index.php?action_kouhyou_detail_004_kani=true&JigyosyoCd=4370103741-00&ServiceCd=510&Type=search", "url2": "http://www.rurien.jimusho.jp" }, "geometry": { "type": "Point", "coordinates": [ 130.7663351, 32.8354729 ] } },
{ "type": "Feature", "properties": { "内容": "特別養護老人ホームハーモニー【介護老人福祉施設】熊本市東区秋津町秋田171-3", "url": "https://www.kaigokensaku.mhlw.go.jp/43/index.php?action_kouhyou_detail_004_kani=true&JigyosyoCd=4370100739-00&ServiceCd=510&Type=search", "url2": "http://harmony-k.or.jp/" }, "geometry": { "type": "Point", "coordinates": [ 130.766274399999929, 32.7660569 ] } },
{ "type": "Feature", "properties": { "内容": "特別養護老人ホーム　ヴィラ・ながみね【介護老人福祉施設】熊本県熊本市東区長嶺南4丁目12番65号", "url": "https://www.kaigokensaku.mhlw.go.jp/43/index.php?action_kouhyou_detail_004_kani=true&JigyosyoCd=4370100705-00&ServiceCd=510&Type=search", "url2": "http://www.vira.or.jp/" }, "geometry": { "type": "Point", "coordinates": [ 130.7749126, 32.8077953 ] } },
{ "type": "Feature", "properties": { "内容": "特別養護老人ホーム　シルバーピアさくら樹【介護老人福祉施設】熊本市東区佐土原３丁目１２－２６", "url": "https://www.kaigokensaku.mhlw.go.jp/43/index.php?action_kouhyou_detail_004_kani=true&JigyosyoCd=4370105043-00&ServiceCd=510&Type=search", "url2": "http://www.108kai.com" }, "geometry": { "type": "Point", "coordinates": [ 130.782317700000021, 32.7952965 ] } },
{ "type": "Feature", "properties": { "内容": "特別養護老人ホーム　バラ苑【介護老人福祉施設】熊本県熊本市東区小山町1781番地", "url": "https://www.kaigokensaku.mhlw.go.jp/43/index.php?action_kouhyou_detail_004_kani=true&JigyosyoCd=4370100614-00&ServiceCd=510&Type=search", "url2": "https://www.k-nisseikai.jp" }, "geometry": { "type": "Point", "coordinates": [ 130.812241593254186, 32.831813630147487 ] } },
{ "type": "Feature", "properties": { "内容": "特別養護老人ホーム画図重富苑【介護老人福祉施設】画図町重富968番", "url": "https://www.kaigokensaku.mhlw.go.jp/43/index.php?action_kouhyou_detail_004_kani=true&JigyosyoCd=4370112965-00&ServiceCd=510&Type=search", "url2": "https://k-zenrinkai.or.jp/" }, "geometry": { "type": "Point", "coordinates": [ 130.733489323239894, 32.756134930581155 ] } },
{ "type": "Feature", "properties": { "内容": "特別養護老人ホーム　白川の里【介護老人福祉施設】熊本市東区小山町２４９３番地", "url": "https://www.kaigokensaku.mhlw.go.jp/43/index.php?action_kouhyou_detail_004_kani=true&JigyosyoCd=4370106801-00&ServiceCd=510&Type=search", "url2": "http://shirakawa.ed.jp/group/grouplist/shirakawanosato/" }, "geometry": { "type": "Point", "coordinates": [ 130.810450599999967, 32.834578600000015 ] } },
{ "type": "Feature", "properties": { "内容": "ユニット型特別養護老人ホーム　白川の里【介護老人福祉施設】熊本県熊本市東区小山町２４９３番地", "url": "https://www.kaigokensaku.mhlw.go.jp/43/index.php?action_kouhyou_detail_004_kani=true&JigyosyoCd=4370111504-00&ServiceCd=510&Type=search", "url2": "http://shirakawa.ed.jp/group/grouplist/shirakawanosato/" }, "geometry": { "type": "Point", "coordinates": [ 130.810595, 32.834598 ] } },
{ "type": "Feature", "properties": { "内容": "特別養護老人ホーム　聖母の丘【介護老人福祉施設】熊本市西区島崎６丁目１－２７", "url": "https://www.kaigokensaku.mhlw.go.jp/43/index.php?action_kouhyou_detail_004_kani=true&JigyosyoCd=4370100697-00&ServiceCd=510&Type=search", "url2": "seibonooka.sakura.ne.jp/" }, "geometry": { "type": "Point", "coordinates": [ 130.688853900000026, 32.8116157 ] } },
{ "type": "Feature", "properties": { "内容": "特別養護老人ホーム　リバーサイド熊本【介護老人福祉施設】熊本市西区河内町野出１９３６－１", "url": "https://www.kaigokensaku.mhlw.go.jp/43/index.php?action_kouhyou_detail_004_kani=true&JigyosyoCd=4370100671-00&ServiceCd=510&Type=search", "url2": "https://shunkokai.jp" }, "geometry": { "type": "Point", "coordinates": [ 130.627433600000018, 32.8263721 ] } },
{ "type": "Feature", "properties": { "内容": "特別養護老人ホーム　　みかんの丘【介護老人福祉施設】熊本市西区河内町白浜字堀切１４４０－２", "url": "https://www.kaigokensaku.mhlw.go.jp/43/index.php?action_kouhyou_detail_004_kani=true&JigyosyoCd=4370104624-00&ServiceCd=510&Type=search", "url2": "https://mikan-oka.com" }, "geometry": { "type": "Point", "coordinates": [ 130.601529482717069, 32.845276155956789 ] } },
{ "type": "Feature", "properties": { "内容": "特別養護老人ホーム三和荘【介護老人福祉施設】熊本県熊本市西区城山大塘4-1-15", "url": "https://www.kaigokensaku.mhlw.go.jp/43/index.php?action_kouhyou_detail_004_kani=true&JigyosyoCd=4370100663-00&ServiceCd=510&Type=search", "url2": "http://sanwaso.jp/" }, "geometry": { "type": "Point", "coordinates": [ 130.651416, 32.7848791 ] } },
{ "type": "Feature", "properties": { "内容": "特別養護老人ホームさくらの苑【介護老人福祉施設】熊本市西区松尾町近津1361番地", "url": "https://www.kaigokensaku.mhlw.go.jp/43/index.php?action_kouhyou_detail_004_kani=true&JigyosyoCd=4370102594-00&ServiceCd=510&Type=search", "url2": "http://ryowakai.com" }, "geometry": { "type": "Point", "coordinates": [ 130.606182600000011, 32.8025355 ] } },
{ "type": "Feature", "properties": { "内容": "特別養護老人ホーム　輝祥苑【介護老人福祉施設】熊本県熊本市西区戸坂町23番35号", "url": "https://www.kaigokensaku.mhlw.go.jp/43/index.php?action_kouhyou_detail_004_kani=true&JigyosyoCd=4370112502-00&ServiceCd=510&Type=search", "url2": "http://www.rissi.or.jp" }, "geometry": { "type": "Point", "coordinates": [ 130.678442923499006, 32.798151525109198 ] } },
{ "type": "Feature", "properties": { "内容": "特別養護老人ホームグッドライフ熊本駅前【介護老人福祉施設】熊本市西区春日2丁目1番24号", "url": "https://www.kaigokensaku.mhlw.go.jp/43/index.php?action_kouhyou_detail_004_kani=true&JigyosyoCd=4370110019-00&ServiceCd=510&Type=search", "url2": "http://www.seishoukai-gl.jp" }, "geometry": { "type": "Point", "coordinates": [ 130.6912125, 32.7888678 ] } },
{ "type": "Feature", "properties": { "内容": "特別養護老人ホーム　力合つくし庵【介護老人福祉施設】熊本市南区合志４丁目３番５０号", "url": "https://www.kaigokensaku.mhlw.go.jp/43/index.php?action_kouhyou_detail_004_kani=true&JigyosyoCd=4370105738-00&ServiceCd=510&Type=search", "url2": "http://www.sanko-kai.or.jp/" }, "geometry": { "type": "Point", "coordinates": [ 130.674662200000057, 32.7549347 ] } },
{ "type": "Feature", "properties": { "内容": "特別養護老人ホーム　みゆき園【介護老人福祉施設】熊本県熊本市南区御幸笛田6丁目6番71号", "url": "https://www.kaigokensaku.mhlw.go.jp/43/index.php?action_kouhyou_detail_004_kani=true&JigyosyoCd=4370100622-00&ServiceCd=510&Type=search", "url2": "http://www.miyukinosato.or.jp" }, "geometry": { "type": "Point", "coordinates": [ 130.710595199999943, 32.7585072 ] } },
{ "type": "Feature", "properties": { "内容": "特別養護老人ホーム　天寿園【介護老人福祉施設】熊本市南区奥古閑町４３７５番１", "url": "https://www.kaigokensaku.mhlw.go.jp/43/index.php?action_kouhyou_detail_004_kani=true&JigyosyoCd=4370100630-00&ServiceCd=510&Type=search", "url2": "https://fuku-juryo.jp" }, "geometry": { "type": "Point", "coordinates": [ 130.620838899999967, 32.7294554 ] } },
{ "type": "Feature", "properties": { "内容": "特別養護老人ホームシルバー日吉【介護老人福祉施設】熊本市南区平成2丁目6番9号", "url": "https://www.kaigokensaku.mhlw.go.jp/43/index.php?action_kouhyou_detail_004_kani=true&JigyosyoCd=4370100655-00&ServiceCd=510&Type=search", "url2": "http://care-net.biz/43/silver" }, "geometry": { "type": "Point", "coordinates": [ 130.702675699999986, 32.7781719 ] } },
{ "type": "Feature", "properties": { "内容": "特別養護老人ホーム　ゆうとぴあ【介護老人福祉施設】熊本県熊本市南区富合町古閑９９４－１", "url": "https://www.kaigokensaku.mhlw.go.jp/43/index.php?action_kouhyou_detail_004_kani=true&JigyosyoCd=4372300386-00&ServiceCd=510&Type=search", "url2": "wasoukai.com" }, "geometry": { "type": "Point", "coordinates": [ 130.676527800000031, 32.7093357 ] } },
{ "type": "Feature", "properties": { "内容": "特別養護老人ホーム川尻ヒルズ【介護老人福祉施設】熊本市南区南高江7丁目3番ケアタウン　かわしり", "url": "https://www.kaigokensaku.mhlw.go.jp/43/index.php?action_kouhyou_detail_004_kani=true&JigyosyoCd=4370109813-00&ServiceCd=510&Type=search", "url2": "http://caretown-kawashiri.jp" }, "geometry": { "type": "Point", "coordinates": [ 130.686355325131188, 32.7444692641063 ] } },
{ "type": "Feature", "properties": { "内容": "特別養護老人ホーム　祥麟館【介護老人福祉施設】熊本県熊本市南区城南町沈目１５１３", "url": "https://www.kaigokensaku.mhlw.go.jp/43/index.php?action_kouhyou_detail_004_kani=true&JigyosyoCd=4372300378-00&ServiceCd=510&Type=search", "url2": "http://www.k-group.jp/shorin/index.html" }, "geometry": { "type": "Point", "coordinates": [ 130.750692299999969, 32.697002 ] } },
{ "type": "Feature", "properties": { "内容": "特別養護老人ホームこぼり苑【介護老人福祉施設】熊本市南区護藤町１５８６番地", "url": "https://www.kaigokensaku.mhlw.go.jp/43/index.php?action_kouhyou_detail_004_kani=true&JigyosyoCd=4370100713-00&ServiceCd=510&Type=search", "url2": "http://www.koborien.or.jp" }, "geometry": { "type": "Point", "coordinates": [ 130.673462500000028, 32.7492907 ] } },
{ "type": "Feature", "properties": { "内容": "特別養護老人ホーム　コスモス・ファミリー熊本【介護老人福祉施設】熊本市北区太郎迫町144-1", "url": "https://www.kaigokensaku.mhlw.go.jp/43/index.php?action_kouhyou_detail_004_kani=true&JigyosyoCd=4370100689-00&ServiceCd=510&Type=search", "url2": "http://www.shafuku-aiseikai.or.jp/" }, "geometry": { "type": "Point", "coordinates": [ 130.672385299999974, 32.8600058 ] } },
{ "type": "Feature", "properties": { "内容": "特別養護老人ホームくわのみ荘【介護老人福祉施設】熊本市北区鹿子木町４０５", "url": "https://www.kaigokensaku.mhlw.go.jp/43/index.php?action_kouhyou_detail_004_kani=true&JigyosyoCd=4370100598-00&ServiceCd=510&Type=search", "url2": "http://www.kuwa.or.jp" }, "geometry": { "type": "Point", "coordinates": [ 130.696330200000034, 32.8722271 ] } },
{ "type": "Feature", "properties": { "内容": "特別養護老人ホーム　あいこう【介護老人福祉施設】熊本県熊本市北区清水新地三丁目5番33号", "url": "https://www.kaigokensaku.mhlw.go.jp/43/index.php?action_kouhyou_detail_004_kani=true&JigyosyoCd=4370102412-00&ServiceCd=510&Type=search", "url2": "http://www.aikou.or.jp" }, "geometry": { "type": "Point", "coordinates": [ 130.7395113, 32.847944 ] } },
{ "type": "Feature", "properties": { "内容": "特別養護老人ホームさわらび【介護老人福祉施設】熊本県熊本市北区弓削４丁目８番１号", "url": "https://www.kaigokensaku.mhlw.go.jp/43/index.php?action_kouhyou_detail_004_kani=true&JigyosyoCd=4370103097-00&ServiceCd=510&Type=search", "url2": "https://kumamotokikujyukai.or.jp/" }, "geometry": { "type": "Point", "coordinates": [ 130.781775644180271, 32.854344627892658 ] } },
{ "type": "Feature", "properties": { "内容": "特別養護老人ホーム　かなんの杜【介護老人福祉施設】熊本県熊本市北区植木町植木４３２番地", "url": "https://www.kaigokensaku.mhlw.go.jp/43/index.php?action_kouhyou_detail_004_kani=true&JigyosyoCd=4370110647-00&ServiceCd=510&Type=search", "url2": "http/www.kanan.or.jp" }, "geometry": { "type": "Point", "coordinates": [ 130.690698958999604, 32.894898627967741 ] } },
{ "type": "Feature", "properties": { "内容": "特別養護老人ホーム天望庵【介護老人福祉施設】熊本県熊本市北区龍田陳内1丁目3番30号", "url": "https://www.kaigokensaku.mhlw.go.jp/43/index.php?action_kouhyou_detail_004_kani=true&JigyosyoCd=4370100606-00&ServiceCd=510&Type=search", "url2": "https://jiyukai/or.jp/" }, "geometry": { "type": "Point", "coordinates": [ 130.745754419049007, 32.822761568018407 ] } },
{ "type": "Feature", "properties": { "内容": "うえきのさと【介護老人福祉施設】熊本県熊本市北区小糸山町752-1", "url": "https://www.kaigokensaku.mhlw.go.jp/43/index.php?action_kouhyou_detail_004_kani=true&JigyosyoCd=4350180321-00&ServiceCd=510&Type=search", "url2": "https://www.uekinosato.terao.or.jp/" }, "geometry": { "type": "Point", "coordinates": [ 130.6922175, 32.8918033 ] } },
{ "type": "Feature", "properties": { "内容": "特別養護老人ホーム　黎明館【介護老人福祉施設】熊本県熊本市北区植木町豊田１８７番地", "url": "https://www.kaigokensaku.mhlw.go.jp/43/index.php?action_kouhyou_detail_004_kani=true&JigyosyoCd=4372500365-00&ServiceCd=510&Type=search", "url2": "http://www/sanpo-fukushi.com/kanri/" }, "geometry": { "type": "Point", "coordinates": [ 130.712933843299851, 32.935821566399461 ] } },
{ "type": "Feature", "properties": { "内容": "特別養護老人ホーム行楽園【介護老人福祉施設】熊本県八代市日奈久塩北町２９０５番地", "url": "https://www.kaigokensaku.mhlw.go.jp/43/index.php?action_kouhyou_detail_004_kani=true&JigyosyoCd=4370200356-00&ServiceCd=510&Type=search", "url2": "https://k-keiaikai.net" }, "geometry": { "type": "Point", "coordinates": [ 130.583840499999951, 32.4327633 ] } },
{ "type": "Feature", "properties": { "内容": "社会福祉法人　松高福祉会　　介護老人福祉施設　みやび園【介護老人福祉施設】熊本県八代市高島町4221番地", "url": "https://www.kaigokensaku.mhlw.go.jp/43/index.php?action_kouhyou_detail_004_kani=true&JigyosyoCd=4370200398-00&ServiceCd=510&Type=search", "url2": "http://www.tagata-group.jp/miyabien/" }, "geometry": { "type": "Point", "coordinates": [ 130.582869800000026, 32.5238325 ] } },
{ "type": "Feature", "properties": { "内容": "特別養護老人ホーム　ま心苑【介護老人福祉施設】熊本県八代市敷川内町２２５１番地１", "url": "https://www.kaigokensaku.mhlw.go.jp/43/index.php?action_kouhyou_detail_004_kani=true&JigyosyoCd=4370200406-00&ServiceCd=510&Type=search", "url2": "http://magokoroen.jp" }, "geometry": { "type": "Point", "coordinates": [ 130.599076500000024, 32.4574889 ] } },
{ "type": "Feature", "properties": { "内容": "特別養護老人ホーム　すずらんの里【介護老人福祉施設】熊本県八代市葭牟田町435番地", "url": "https://www.kaigokensaku.mhlw.go.jp/43/index.php?action_kouhyou_detail_004_kani=true&JigyosyoCd=4370200414-00&ServiceCd=510&Type=search", "url2": "http://www.tenryuukai.jp" }, "geometry": { "type": "Point", "coordinates": [ 130.578987500000039, 32.4937344 ] } },
{ "type": "Feature", "properties": { "内容": "特別養護老人ホーム　みなみ園【介護老人福祉施設】熊本県八代市日奈久塩南町５４番地", "url": "https://www.kaigokensaku.mhlw.go.jp/43/index.php?action_kouhyou_detail_004_kani=true&JigyosyoCd=4370202071-00&ServiceCd=510&Type=search", "url2": null }, "geometry": { "type": "Point", "coordinates": [ 130.577518700000041, 32.43577950000001 ] } },
{ "type": "Feature", "properties": { "内容": "ユニット型　特別養護老人ホーム　安寿の里【介護老人福祉施設】熊本県八代市鏡町両出880番地1", "url": "https://www.kaigokensaku.mhlw.go.jp/43/index.php?action_kouhyou_detail_004_kani=true&JigyosyoCd=4370202634-00&ServiceCd=510&Type=search", "url2": "anju@spice.ocn.ne.jp" }, "geometry": { "type": "Point", "coordinates": [ 130.635468, 32.5486717 ] } },
{ "type": "Feature", "properties": { "内容": "特別養護老人ホーム　康和苑【介護老人福祉施設】熊本県八代市千丁町太牟田1300番地8", "url": "https://www.kaigokensaku.mhlw.go.jp/43/index.php?action_kouhyou_detail_004_kani=true&JigyosyoCd=4372900334-00&ServiceCd=510&Type=search", "url2": null }, "geometry": { "type": "Point", "coordinates": [ 130.647698399999967, 32.5417423 ] } },
{ "type": "Feature", "properties": { "内容": "特別養護老人ホーム　ひかわの里【介護老人福祉施設】熊本県八代市東陽町南７５２番地１", "url": "https://www.kaigokensaku.mhlw.go.jp/43/index.php?action_kouhyou_detail_004_kani=true&JigyosyoCd=4372900367-00&ServiceCd=510&Type=search", "url2": "http://tousen-kai.or.jp" }, "geometry": { "type": "Point", "coordinates": [ 130.710577199999989, 32.5482855 ] } },
{ "type": "Feature", "properties": { "内容": "特別養護老人ホーム　安寿の里【介護老人福祉施設】熊本県八代市鏡町両出８８０－１", "url": "https://www.kaigokensaku.mhlw.go.jp/43/index.php?action_kouhyou_detail_004_kani=true&JigyosyoCd=4372900664-00&ServiceCd=510&Type=search", "url2": "http://www.kaigonet.net/anju/" }, "geometry": { "type": "Point", "coordinates": [ 130.635468, 32.5486717 ] } },
{ "type": "Feature", "properties": { "内容": "特別養護老人ホーム坂本の里一灯苑【介護老人福祉施設】熊本県八代市坂本町坂本１０７１", "url": "https://www.kaigokensaku.mhlw.go.jp/43/index.php?action_kouhyou_detail_004_kani=true&JigyosyoCd=4372900797-00&ServiceCd=510&Type=search", "url2": "https://www.s-ittouen.com/" }, "geometry": { "type": "Point", "coordinates": [ 130.669216199999937, 32.4411096 ] } },
{ "type": "Feature", "properties": { "内容": "特別養護老人ホームあさひ園【介護老人福祉施設】八代市上日置町２３４５番地", "url": "https://www.kaigokensaku.mhlw.go.jp/43/index.php?action_kouhyou_detail_004_kani=true&JigyosyoCd=4370200380-00&ServiceCd=510&Type=search", "url2": "https://kyoujukai.or.jp/" }, "geometry": { "type": "Point", "coordinates": [ 130.62780829999997, 32.5094994 ] } },
{ "type": "Feature", "properties": { "内容": "特別養護老人ホーム　聖心ホーム【介護老人福祉施設】熊本県人吉市寺町９番地5", "url": "https://www.kaigokensaku.mhlw.go.jp/43/index.php?action_kouhyou_detail_004_kani=true&JigyosyoCd=4370300347-00&ServiceCd=510&Type=search", "url2": null }, "geometry": { "type": "Point", "coordinates": [ 130.761740700000018, 32.2067298 ] } },
{ "type": "Feature", "properties": { "内容": "特別養護老人ホーム龍生園【介護老人福祉施設】熊本県人吉市下原田町字瓜生田字若宮１０５７-９", "url": "https://www.kaigokensaku.mhlw.go.jp/43/index.php?action_kouhyou_detail_004_kani=true&JigyosyoCd=4370301121-00&ServiceCd=510&Type=search", "url2": "http://ryuseien.jp" }, "geometry": { "type": "Point", "coordinates": [ 130.719575661979661, 32.230526310550424 ] } },
{ "type": "Feature", "properties": { "内容": "白寿園【介護老人福祉施設】熊本県荒尾市一部字鴻巣２１２２番地", "url": "https://www.kaigokensaku.mhlw.go.jp/43/index.php?action_kouhyou_detail_004_kani=true&JigyosyoCd=4370400311-00&ServiceCd=510&Type=search", "url2": "http://www.hakujuen.jp" }, "geometry": { "type": "Point", "coordinates": [ 130.45434309999996, 32.9686958 ] } },
{ "type": "Feature", "properties": { "内容": "特別養護老人ホーム　オレンジヒル小岱【介護老人福祉施設】熊本県荒尾市樺２５１６番地", "url": "https://www.kaigokensaku.mhlw.go.jp/43/index.php?action_kouhyou_detail_004_kani=true&JigyosyoCd=4370400329-00&ServiceCd=510&Type=search", "url2": "http://ks-orange.jp/" }, "geometry": { "type": "Point", "coordinates": [ 130.5002538, 32.9662332 ] } },
{ "type": "Feature", "properties": { "内容": "ユニット型特別養護老人ホームオレンジヒル小岱【介護老人福祉施設】熊本県荒尾市樺２５１６番地", "url": "https://www.kaigokensaku.mhlw.go.jp/43/index.php?action_kouhyou_detail_004_kani=true&JigyosyoCd=4370401335-00&ServiceCd=510&Type=search", "url2": "ｈｔｔｐ://ks-orange.jp/" }, "geometry": { "type": "Point", "coordinates": [ 130.5002538, 32.9662332 ] } },
{ "type": "Feature", "properties": { "内容": "特別養護老人ホーム　白梅荘【介護老人福祉施設】熊本県水俣市古賀町２丁目５番３１号", "url": "https://www.kaigokensaku.mhlw.go.jp/43/index.php?action_kouhyou_detail_004_kani=true&JigyosyoCd=4370500300-00&ServiceCd=510&Type=search", "url2": "http://www.shiraumesou.com" }, "geometry": { "type": "Point", "coordinates": [ 130.398180827339019, 32.213001024785136 ] } },
{ "type": "Feature", "properties": { "内容": "特別養護老人ホーム　白梅の杜【介護老人福祉施設】熊本県水俣市古賀町２丁目５－３２", "url": "https://www.kaigokensaku.mhlw.go.jp/43/index.php?action_kouhyou_detail_004_kani=true&JigyosyoCd=4370500839-00&ServiceCd=510&Type=search", "url2": "http://www.shiraumesou.com/" }, "geometry": { "type": "Point", "coordinates": [ 130.398248800000033, 32.2126991 ] } },
{ "type": "Feature", "properties": { "内容": "特別養護老人ホーム　岱山苑【介護老人福祉施設】玉名市築地兎町1596番地1", "url": "https://www.kaigokensaku.mhlw.go.jp/43/index.php?action_kouhyou_detail_004_kani=true&JigyosyoCd=4370600316-00&ServiceCd=510&Type=search", "url2": "http://www.taizanen.com" }, "geometry": { "type": "Point", "coordinates": [ 130.533856302932719, 32.941141387220007 ] } },
{ "type": "Feature", "properties": { "内容": "特別養護老人ホーム　さくら苑【介護老人福祉施設】熊本県玉名市伊倉北方1533番地", "url": "https://www.kaigokensaku.mhlw.go.jp/43/index.php?action_kouhyou_detail_004_kani=true&JigyosyoCd=4370600324-00&ServiceCd=510&Type=search", "url2": "http://www.sakura-en.com/" }, "geometry": { "type": "Point", "coordinates": [ 130.574748, 32.9141274 ] } },
{ "type": "Feature", "properties": { "内容": "個室ユニット型特別養護老人ホームたいめい苑【介護老人福祉施設】熊本県玉名市岱明町古閑388たいめい苑", "url": "https://www.kaigokensaku.mhlw.go.jp/43/index.php?action_kouhyou_detail_004_kani=true&JigyosyoCd=4370601249-00&ServiceCd=510&Type=search", "url2": "ww7.tiki.ne.jp/~taimeien/" }, "geometry": { "type": "Point", "coordinates": [ 130.506009799999987, 32.9304732 ] } },
{ "type": "Feature", "properties": { "内容": "介護老人福祉施設たいめい苑【介護老人福祉施設】熊本県玉名市岱明町古閑３８８番地", "url": "https://www.kaigokensaku.mhlw.go.jp/43/index.php?action_kouhyou_detail_004_kani=true&JigyosyoCd=4372400400-00&ServiceCd=510&Type=search", "url2": "http://ww7.tiki.ne.jp/~taimeien" }, "geometry": { "type": "Point", "coordinates": [ 130.506009799999987, 32.9304732 ] } },
{ "type": "Feature", "properties": { "内容": "特別養護老人ホーム　慈幸苑【介護老人福祉施設】熊本県玉名市横島町横島2381-1", "url": "https://www.kaigokensaku.mhlw.go.jp/43/index.php?action_kouhyou_detail_004_kani=true&JigyosyoCd=4372400418-00&ServiceCd=510&Type=search", "url2": "https://souyukai.or.jp/" }, "geometry": { "type": "Point", "coordinates": [ 130.561586300000045, 32.8793661 ] } },
{ "type": "Feature", "properties": { "内容": "特別養護老人ホーム　有明ホーム【介護老人福祉施設】熊本県玉名市天水町部田見440番地", "url": "https://www.kaigokensaku.mhlw.go.jp/43/index.php?action_kouhyou_detail_004_kani=true&JigyosyoCd=4372400426-00&ServiceCd=510&Type=search", "url2": "http://www.ariakehome.jp/" }, "geometry": { "type": "Point", "coordinates": [ 130.569768699999941, 32.885413 ] } },
{ "type": "Feature", "properties": { "内容": "特別養護老人ホーム　チブサン荘【介護老人福祉施設】熊本県山鹿市鍋田1888番地1", "url": "https://www.kaigokensaku.mhlw.go.jp/43/index.php?action_kouhyou_detail_004_kani=true&JigyosyoCd=4370800320-00&ServiceCd=510&Type=search", "url2": "http://tibusansou.com/" }, "geometry": { "type": "Point", "coordinates": [ 130.666685899999948, 33.0219495 ] } },
{ "type": "Feature", "properties": { "内容": "特別養護老人ホーム愛隣の家【介護老人福祉施設】熊本県山鹿市津留2027", "url": "https://www.kaigokensaku.mhlw.go.jp/43/index.php?action_kouhyou_detail_004_kani=true&JigyosyoCd=4370800338-00&ServiceCd=510&Type=search", "url2": "http://aileans.com/ie/" }, "geometry": { "type": "Point", "coordinates": [ 130.685555600000043, 33.0557909 ] } },
{ "type": "Feature", "properties": { "内容": "介護老人福祉施設　矢筈荘【介護老人福祉施設】熊本県山鹿市菊鹿町長502番地", "url": "https://www.kaigokensaku.mhlw.go.jp/43/index.php?action_kouhyou_detail_004_kani=true&JigyosyoCd=4372500340-00&ServiceCd=510&Type=search", "url2": "http://yahazusou.com/" }, "geometry": { "type": "Point", "coordinates": [ 130.761955299999954, 33.0422239 ] } },
{ "type": "Feature", "properties": { "内容": "特別養護老人ホーム　あいさと【介護老人福祉施設】熊本県山鹿市鹿央町合里1039番地", "url": "https://www.kaigokensaku.mhlw.go.jp/43/index.php?action_kouhyou_detail_004_kani=true&JigyosyoCd=4372500647-00&ServiceCd=510&Type=search", "url2": "http://www.keisho-kai.jp" }, "geometry": { "type": "Point", "coordinates": [ 130.675569499999938, 32.9782928 ] } },
{ "type": "Feature", "properties": { "内容": "特別養護老人ホームあやすぎ荘【介護老人福祉施設】熊本県山鹿市鹿北町岩野５４９７番地２", "url": "https://www.kaigokensaku.mhlw.go.jp/43/index.php?action_kouhyou_detail_004_kani=true&JigyosyoCd=4372500332-00&ServiceCd=510&Type=search", "url2": "http://www.ayasugisou.com" }, "geometry": { "type": "Point", "coordinates": [ 130.68947270000001, 33.1082473 ] } },
{ "type": "Feature", "properties": { "内容": "ユニット型特別養護老人ホーム　一本松荘【介護老人福祉施設】熊本県山鹿市鹿本町津袋450", "url": "https://www.kaigokensaku.mhlw.go.jp/43/index.php?action_kouhyou_detail_004_kani=true&JigyosyoCd=4370801088-00&ServiceCd=510&Type=search", "url2": "http://www.ipponmatu.com/" }, "geometry": { "type": "Point", "coordinates": [ 130.754590099999973, 33.0120959 ] } },
{ "type": "Feature", "properties": { "内容": "特別養護老人ホーム　一本松荘【介護老人福祉施設】熊本県山鹿市鹿本町津袋４５０", "url": "https://www.kaigokensaku.mhlw.go.jp/43/index.php?action_kouhyou_detail_004_kani=true&JigyosyoCd=4372500357-00&ServiceCd=510&Type=search", "url2": "http://www.ipponmatu.com/" }, "geometry": { "type": "Point", "coordinates": [ 130.7541235, 33.0114931 ] } },
{ "type": "Feature", "properties": { "内容": "特別養護老人ホーム清泉【介護老人福祉施設】熊本県菊池市七城町亀尾2429", "url": "https://www.kaigokensaku.mhlw.go.jp/43/index.php?action_kouhyou_detail_004_kani=true&JigyosyoCd=4372600363-00&ServiceCd=510&Type=search", "url2": "https://seisen-aikeikai.wixsite.com/seisen" }, "geometry": { "type": "Point", "coordinates": [ 130.768224, 32.9553711 ] } },
{ "type": "Feature", "properties": { "内容": "介護老人福祉施設　あさひが丘荘【介護老人福祉施設】熊本県菊池市旭志伊坂４４９番地１", "url": "https://www.kaigokensaku.mhlw.go.jp/43/index.php?action_kouhyou_detail_004_kani=true&JigyosyoCd=4372600371-00&ServiceCd=510&Type=search", "url2": "http://www.asahigaokasou.or.jp" }, "geometry": { "type": "Point", "coordinates": [ 130.8323772, 32.9347365 ] } },
{ "type": "Feature", "properties": { "内容": "特別養護老人ホーム泗水苑【介護老人福祉施設】菊池市泗水町永１０２１番地", "url": "https://www.kaigokensaku.mhlw.go.jp/43/index.php?action_kouhyou_detail_004_kani=true&JigyosyoCd=4372600959-00&ServiceCd=510&Type=search", "url2": "https://www.sisuien.com" }, "geometry": { "type": "Point", "coordinates": [ 130.802902300000028, 32.9260092 ] } },
{ "type": "Feature", "properties": { "内容": "社会福祉法人東康会特別養護老人ホームつまごめ荘【介護老人福祉施設】熊本県菊池市今５８番地", "url": "https://www.kaigokensaku.mhlw.go.jp/43/index.php?action_kouhyou_detail_004_kani=true&JigyosyoCd=4371001167-00&ServiceCd=510&Type=search", "url2": null }, "geometry": { "type": "Point", "coordinates": [ 130.814868299999972, 32.9710317 ] } },
{ "type": "Feature", "properties": { "内容": "特別養護老人ホーム　照古苑【介護老人福祉施設】熊本県宇土市南段原町１６１－２", "url": "https://www.kaigokensaku.mhlw.go.jp/43/index.php?action_kouhyou_detail_004_kani=true&JigyosyoCd=4371100316-00&ServiceCd=510&Type=search", "url2": "http://www.hakujitsukai.jp" }, "geometry": { "type": "Point", "coordinates": [ 130.663190699999973, 32.6800134 ] } },
{ "type": "Feature", "properties": { "内容": "特別養護老人ホーム南風苑【介護老人福祉施設】熊本県上天草市大矢野町登立８５３１番地", "url": "https://www.kaigokensaku.mhlw.go.jp/43/index.php?action_kouhyou_detail_004_kani=true&JigyosyoCd=4373200387-00&ServiceCd=510&Type=search", "url2": "https://nanpuen.com/" }, "geometry": { "type": "Point", "coordinates": [ 130.432733284655797, 32.593695789691566 ] } },
{ "type": "Feature", "properties": { "内容": "特別養護老人ホームひかりの園【介護老人福祉施設】熊本県上天草市松島町今泉1004-1", "url": "https://www.kaigokensaku.mhlw.go.jp/43/index.php?action_kouhyou_detail_004_kani=true&JigyosyoCd=4373200395-00&ServiceCd=510&Type=search", "url2": "http://hikarinosono1995.com" }, "geometry": { "type": "Point", "coordinates": [ 130.4234735, 32.4900876 ] } },
{ "type": "Feature", "properties": { "内容": "特別養護老人ホーム翔洋苑【介護老人福祉施設】熊本県上天草市姫戸町姫浦字西成川内3055番地106", "url": "https://www.kaigokensaku.mhlw.go.jp/43/index.php?action_kouhyou_detail_004_kani=true&JigyosyoCd=4373200411-00&ServiceCd=510&Type=search", "url2": "http://www.shoyoen.or.jp/" }, "geometry": { "type": "Point", "coordinates": [ 130.417805600000065, 32.4555463 ] } },
{ "type": "Feature", "properties": { "内容": "特別養護老人ホーム相生荘（ユニット型）【介護老人福祉施設】熊本県上天草市龍ヶ岳町大道158番地", "url": "https://www.kaigokensaku.mhlw.go.jp/43/index.php?action_kouhyou_detail_004_kani=true&JigyosyoCd=4373200429-00&ServiceCd=510&Type=search", "url2": null }, "geometry": { "type": "Point", "coordinates": [ 130.351240599999983, 32.3947693 ] } },
{ "type": "Feature", "properties": { "内容": "特別養護老人ホーム　水晶苑【介護老人福祉施設】熊本県宇城市豊野町糸石２５１３", "url": "https://www.kaigokensaku.mhlw.go.jp/43/index.php?action_kouhyou_detail_004_kani=true&JigyosyoCd=4371300106-00&ServiceCd=510&Type=search", "url2": "http://www.suisyouen.info/" }, "geometry": { "type": "Point", "coordinates": [ 130.754839400000037, 32.6319636 ] } },
{ "type": "Feature", "properties": { "内容": "介護老人福祉施設　豊洋園【介護老人福祉施設】熊本県宇城市三角町里浦２８５５番５", "url": "https://www.kaigokensaku.mhlw.go.jp/43/index.php?action_kouhyou_detail_004_kani=true&JigyosyoCd=4372200305-00&ServiceCd=510&Type=search", "url2": "http://houyouen.jp/" }, "geometry": { "type": "Point", "coordinates": [ 130.553989300000012, 32.6234886 ] } },
{ "type": "Feature", "properties": { "内容": "特別養護老人ホーム蕉夢苑【介護老人福祉施設】熊本県宇城市不知火町長崎740番地", "url": "https://www.kaigokensaku.mhlw.go.jp/43/index.php?action_kouhyou_detail_004_kani=true&JigyosyoCd=4372200313-00&ServiceCd=510&Type=search", "url2": "https://shoumuen.com" }, "geometry": { "type": "Point", "coordinates": [ 130.64654280000002, 32.6424023 ] } },
{ "type": "Feature", "properties": { "内容": "特別養護老人ホーム　しらぬい荘【介護老人福祉施設】熊本県宇城市松橋町竹崎1142番地の1", "url": "https://www.kaigokensaku.mhlw.go.jp/43/index.php?action_kouhyou_detail_004_kani=true&JigyosyoCd=4372300394-00&ServiceCd=510&Type=search", "url2": "http://www.shiranuiso.or.jp/" }, "geometry": { "type": "Point", "coordinates": [ 130.7105229, 32.6276357 ] } },
{ "type": "Feature", "properties": { "内容": "特別養護老人ホームひだけ荘【介護老人福祉施設】熊本県宇城市小川町南海東２０３０番地", "url": "https://www.kaigokensaku.mhlw.go.jp/43/index.php?action_kouhyou_detail_004_kani=true&JigyosyoCd=4372300402-00&ServiceCd=510&Type=search", "url2": "http:hidakekai.hippy.jp" }, "geometry": { "type": "Point", "coordinates": [ 130.742853400000058, 32.5815799 ] } },
{ "type": "Feature", "properties": { "内容": "特別養護老人ホームあそん里【介護老人福祉施設】熊本県阿蘇市一の宮町坂梨字八千場２３６５番１", "url": "https://www.kaigokensaku.mhlw.go.jp/43/index.php?action_kouhyou_detail_004_kani=true&JigyosyoCd=4372700387-00&ServiceCd=510&Type=search", "url2": "http://www.yamanami.ne.jp/asonsato/" }, "geometry": { "type": "Point", "coordinates": [ 131.138136700447149, 32.93449556129989 ] } },
{ "type": "Feature", "properties": { "内容": "特別養護老人ホーム阿蘇みやま荘【介護老人福祉施設】熊本県阿蘇市黒川１３６５", "url": "https://www.kaigokensaku.mhlw.go.jp/43/index.php?action_kouhyou_detail_004_kani=true&JigyosyoCd=4372700395-00&ServiceCd=510&Type=search", "url2": null }, "geometry": { "type": "Point", "coordinates": [ 131.071320600000035, 32.9324458 ] } },
{ "type": "Feature", "properties": { "内容": "特別養護老人ホーム明照園【介護老人福祉施設】熊本県天草市久玉町1273番地1", "url": "https://www.kaigokensaku.mhlw.go.jp/43/index.php?action_kouhyou_detail_004_kani=true&JigyosyoCd=4370900294-00&ServiceCd=510&Type=search", "url2": "http://meishoen.com" }, "geometry": { "type": "Point", "coordinates": [ 130.028702550123654, 32.218348942181677 ] } },
{ "type": "Feature", "properties": { "内容": "ユニット型特別養護老人ホーム明照園【介護老人福祉施設】熊本県天草市久玉町1273番地1", "url": "https://www.kaigokensaku.mhlw.go.jp/43/index.php?action_kouhyou_detail_004_kani=true&JigyosyoCd=4371500788-00&ServiceCd=510&Type=search", "url2": "http//meishoen.com" }, "geometry": { "type": "Point", "coordinates": [ 130.028847600000063, 32.218273 ] } },
{ "type": "Feature", "properties": { "内容": "特別養護老人ホーム麗洋苑【介護老人福祉施設】熊本県天草市有明町須子１９６４番地", "url": "https://www.kaigokensaku.mhlw.go.jp/43/index.php?action_kouhyou_detail_004_kani=true&JigyosyoCd=4373200403-00&ServiceCd=510&Type=search", "url2": "https://reiyouen0477.jp" }, "geometry": { "type": "Point", "coordinates": [ 130.3431597, 32.5107371 ] } },
{ "type": "Feature", "properties": { "内容": "特別養護老人ホーム御所浦苑【介護老人福祉施設】熊本県天草市御所浦町御所浦4393番地1", "url": "https://www.kaigokensaku.mhlw.go.jp/43/index.php?action_kouhyou_detail_004_kani=true&JigyosyoCd=4373200437-00&ServiceCd=510&Type=search", "url2": "http://tensuikai.com" }, "geometry": { "type": "Point", "coordinates": [ 130.33466020000003, 32.3374782 ] } },
{ "type": "Feature", "properties": { "内容": "特別養護老人ホーム愛愛園【介護老人福祉施設】熊本県天草市倉岳町棚底８５０番地１０５", "url": "https://www.kaigokensaku.mhlw.go.jp/43/index.php?action_kouhyou_detail_004_kani=true&JigyosyoCd=4373200445-00&ServiceCd=510&Type=search", "url2": null }, "geometry": { "type": "Point", "coordinates": [ 130.345764699999989, 32.416664 ] } },
{ "type": "Feature", "properties": { "内容": "特別養護老人ホーム　梅寿荘【介護老人福祉施設】熊本県天草市栖本町湯船原661番地", "url": "https://www.kaigokensaku.mhlw.go.jp/43/index.php?action_kouhyou_detail_004_kani=true&JigyosyoCd=4373200452-00&ServiceCd=510&Type=search", "url2": "http://www.baijuso.sakura.ne.jp/" }, "geometry": { "type": "Point", "coordinates": [ 130.277093899999954, 32.4164203 ] } },
{ "type": "Feature", "properties": { "内容": "特別養護老人ホーム　新和苑【介護老人福祉施設】熊本県天草市新和町小宮地７６３番地２", "url": "https://www.kaigokensaku.mhlw.go.jp/43/index.php?action_kouhyou_detail_004_kani=true&JigyosyoCd=4373200460-00&ServiceCd=510&Type=search", "url2": "http://www.shinwaen.net/" }, "geometry": { "type": "Point", "coordinates": [ 130.18584450000003, 32.3715869 ] } },
{ "type": "Feature", "properties": { "内容": "特別養護老人ホーム紫明寮【介護老人福祉施設】熊本県天草市五和町二江４６６８番地", "url": "https://www.kaigokensaku.mhlw.go.jp/43/index.php?action_kouhyou_detail_004_kani=true&JigyosyoCd=4373200478-00&ServiceCd=510&Type=search", "url2": "https://shimeiryo.com/" }, "geometry": { "type": "Point", "coordinates": [ 130.119359, 32.5482454 ] } },
{ "type": "Feature", "properties": { "内容": "特別養護老人ホーム　実相園【介護老人福祉施設】熊本県天草市河浦町河浦1971", "url": "https://www.kaigokensaku.mhlw.go.jp/43/index.php?action_kouhyou_detail_004_kani=true&JigyosyoCd=4373200502-00&ServiceCd=510&Type=search", "url2": "https://jissouen.sakura.ne.jp" }, "geometry": { "type": "Point", "coordinates": [ 130.065644803041096, 32.306553808135192 ] } },
{ "type": "Feature", "properties": { "内容": "特別養護老人ホーム春光苑【介護老人福祉施設】熊本県天草市天草町高浜北633番地", "url": "https://www.kaigokensaku.mhlw.go.jp/43/index.php?action_kouhyou_detail_004_kani=true&JigyosyoCd=4373200494-00&ServiceCd=510&Type=search", "url2": "http://www.airin-syunkouen.com" }, "geometry": { "type": "Point", "coordinates": [ 129.996483099999978, 32.3845792 ] } },
{ "type": "Feature", "properties": { "内容": "ユニット型特別養護老人ホーム慈晃園【介護老人福祉施設】熊本県天草市佐伊津町928", "url": "https://www.kaigokensaku.mhlw.go.jp/43/index.php?action_kouhyou_detail_004_kani=true&JigyosyoCd=4370700330-00&ServiceCd=510&Type=search", "url2": "https://jikouen.com/" }, "geometry": { "type": "Point", "coordinates": [ 130.1941369, 32.4860771 ] } },
{ "type": "Feature", "properties": { "内容": "特別養護老人ホーム　菊香園1.2番館【介護老人福祉施設】熊本県合志市御代志718-4", "url": "https://www.kaigokensaku.mhlw.go.jp/43/index.php?action_kouhyou_detail_004_kani=true&JigyosyoCd=4371600323-00&ServiceCd=510&Type=search", "url2": "ｈｔｔｐ：//www.ｓａｎｓｈｉｋａｉｋｉｋｕｋａｅｎ．ｏｒ．ｊｐ" }, "geometry": { "type": "Point", "coordinates": [ 130.757295099999965, 32.9017308 ] } },
{ "type": "Feature", "properties": { "内容": "指定介護老人福祉施設　紀水ナーシングホーム【介護老人福祉施設】熊本県合志市竹迫2224番地", "url": "https://www.kaigokensaku.mhlw.go.jp/43/index.php?action_kouhyou_detail_004_kani=true&JigyosyoCd=4372600405-00&ServiceCd=510&Type=search", "url2": null }, "geometry": { "type": "Point", "coordinates": [ 130.783729699999981, 32.8791078 ] } },
{ "type": "Feature", "properties": { "内容": "特別養護老人ホーム菊香園【介護老人福祉施設】熊本県合志市御代志718-4", "url": "https://www.kaigokensaku.mhlw.go.jp/43/index.php?action_kouhyou_detail_004_kani=true&JigyosyoCd=4372600413-00&ServiceCd=510&Type=search", "url2": "http://www.sanshikaikikukaen.or.jp" }, "geometry": { "type": "Point", "coordinates": [ 130.757281199999966, 32.9017336 ] } },
{ "type": "Feature", "properties": { "内容": "特別養護老人ホーム　陽光園　本館【介護老人福祉施設】熊本県下益城郡美里町二和田１２３３", "url": "https://www.kaigokensaku.mhlw.go.jp/43/index.php?action_kouhyou_detail_004_kani=true&JigyosyoCd=4372300410-00&ServiceCd=510&Type=search", "url2": "https://senjukai.jp" }, "geometry": { "type": "Point", "coordinates": [ 130.863585699999931, 32.6197483 ] } },
{ "type": "Feature", "properties": { "内容": "ユニット型特別養護老人ホーム陽光園東館【介護老人福祉施設】熊本県下益城郡美里町二和田1233", "url": "https://www.kaigokensaku.mhlw.go.jp/43/index.php?action_kouhyou_detail_004_kani=true&JigyosyoCd=4372301475-00&ServiceCd=510&Type=search", "url2": "youkouen.com" }, "geometry": { "type": "Point", "coordinates": [ 130.863749314749839, 32.619244511435298 ] } },
{ "type": "Feature", "properties": { "内容": "特別養護老人ホームこもれび一番館【介護老人福祉施設】熊本県下益城郡美里町佐俣338番地", "url": "https://www.kaigokensaku.mhlw.go.jp/43/index.php?action_kouhyou_detail_004_kani=true&JigyosyoCd=4372300782-00&ServiceCd=510&Type=search", "url2": "http://shinseiki.jp" }, "geometry": { "type": "Point", "coordinates": [ 130.821077400000036, 32.622175 ] } },
{ "type": "Feature", "properties": { "内容": "特別養護老人ホーム　こもれび　二番館【介護老人福祉施設】熊本県下益城郡美里町佐俣３３８番地", "url": "https://www.kaigokensaku.mhlw.go.jp/43/index.php?action_kouhyou_detail_004_kani=true&JigyosyoCd=4372301467-00&ServiceCd=510&Type=search", "url2": "http://shinseiki.jp/" }, "geometry": { "type": "Point", "coordinates": [ 130.821077400000036, 32.622175 ] } },
{ "type": "Feature", "properties": { "内容": "特別養護老人ホーム葉山苑【介護老人福祉施設】熊本県玉名郡玉東町大字木葉３４８番地", "url": "https://www.kaigokensaku.mhlw.go.jp/43/index.php?action_kouhyou_detail_004_kani=true&JigyosyoCd=4372400897-00&ServiceCd=510&Type=search", "url2": "http://www.hayamaen.com" }, "geometry": { "type": "Point", "coordinates": [ 130.620382799999987, 32.914261 ] } },
{ "type": "Feature", "properties": { "内容": "特別養護老人ホーム　延寿荘【介護老人福祉施設】熊本県玉名郡南関町小原1770番地", "url": "https://www.kaigokensaku.mhlw.go.jp/43/index.php?action_kouhyou_detail_004_kani=true&JigyosyoCd=4372401606-00&ServiceCd=510&Type=search", "url2": "mikawa-fukusikai.com" }, "geometry": { "type": "Point", "coordinates": [ 130.530902400000059, 33.0294074 ] } },
{ "type": "Feature", "properties": { "内容": "特別養護老人ホーム　月華苑【介護老人福祉施設】熊本県玉名郡長洲町清源寺1060", "url": "https://www.kaigokensaku.mhlw.go.jp/43/index.php?action_kouhyou_detail_004_kani=true&JigyosyoCd=4372400467-00&ServiceCd=510&Type=search", "url2": "https://gekka-en.com/" }, "geometry": { "type": "Point", "coordinates": [ 130.464648899999929, 32.9291448 ] } },
{ "type": "Feature", "properties": { "内容": "特別養護老人ホーム　和楽荘【介護老人福祉施設】熊本県玉名郡和水町平野１３００番地", "url": "https://www.kaigokensaku.mhlw.go.jp/43/index.php?action_kouhyou_detail_004_kani=true&JigyosyoCd=4372400442-00&ServiceCd=510&Type=search", "url2": "https://www.mikawa-fukusikai.com/" }, "geometry": { "type": "Point", "coordinates": [ 130.621654900000067, 33.0372555 ] } },
{ "type": "Feature", "properties": { "内容": "和水町特別養護老人ホームきくすい荘【介護老人福祉施設】熊本県玉名郡和水町江田4025番地", "url": "https://www.kaigokensaku.mhlw.go.jp/43/index.php?action_kouhyou_detail_004_kani=true&JigyosyoCd=4372401200-00&ServiceCd=510&Type=search", "url2": "http://www.town.nagomi.lg.jp/one_html3/pub/default.aspx?c_id=59" }, "geometry": { "type": "Point", "coordinates": [ 130.605598500000042, 32.9818802 ] } },
{ "type": "Feature", "properties": { "内容": "特別養護老人ホーム　つつじ山荘【介護老人福祉施設】熊本県菊池郡大津町大字大津2061番地", "url": "https://www.kaigokensaku.mhlw.go.jp/43/index.php?action_kouhyou_detail_004_kani=true&JigyosyoCd=4372600389-00&ServiceCd=510&Type=search", "url2": "https://www.tutuji-sanso.jp" }, "geometry": { "type": "Point", "coordinates": [ 130.87615, 32.8820814 ] } },
{ "type": "Feature", "properties": { "内容": "特別養護老人ﾎｰﾑ　きほう苑【介護老人福祉施設】熊本県菊池郡菊陽町大字辛川1929番地", "url": "https://www.kaigokensaku.mhlw.go.jp/43/index.php?action_kouhyou_detail_004_kani=true&JigyosyoCd=4372600397-00&ServiceCd=510&Type=search", "url2": "http://seiyou-kai.net/" }, "geometry": { "type": "Point", "coordinates": [ 130.806525599999986, 32.8473718 ] } },
{ "type": "Feature", "properties": { "内容": "特別養護老人ホーム悠清苑【介護老人福祉施設】熊本県阿蘇郡南小国町大字満願寺5854番地１特別養護老人ホーム悠清苑", "url": "https://www.kaigokensaku.mhlw.go.jp/43/index.php?action_kouhyou_detail_004_kani=true&JigyosyoCd=4372700403-00&ServiceCd=510&Type=search", "url2": "https://yuseien.grupo.jp/" }, "geometry": { "type": "Point", "coordinates": [ 131.126082321426338, 33.072740662829197 ] } },
{ "type": "Feature", "properties": { "内容": "特別養護老人ホーム梅香苑【介護老人福祉施設】熊本県阿蘇郡高森町高森3175番地", "url": "https://www.kaigokensaku.mhlw.go.jp/43/index.php?action_kouhyou_detail_004_kani=true&JigyosyoCd=4372700429-00&ServiceCd=510&Type=search", "url2": "https://gakujyukai.com/" }, "geometry": { "type": "Point", "coordinates": [ 131.14368909999996, 32.8440417 ] } },
{ "type": "Feature", "properties": { "内容": "特別養護老人ホームみどりの館【介護老人福祉施設】熊本県阿蘇郡西原村布田897番地1", "url": "https://www.kaigokensaku.mhlw.go.jp/43/index.php?action_kouhyou_detail_004_kani=true&JigyosyoCd=4372700452-00&ServiceCd=510&Type=search", "url2": "https://seijinkai-midori.org/" }, "geometry": { "type": "Point", "coordinates": [ 130.883587, 32.8294945 ] } },
{ "type": "Feature", "properties": { "内容": "指定介護老人福祉施設　特別養護老人ホーム水生苑【介護老人福祉施設】阿蘇郡南阿蘇村1282番地", "url": "https://www.kaigokensaku.mhlw.go.jp/43/index.php?action_kouhyou_detail_004_kani=true&JigyosyoCd=4372700437-00&ServiceCd=510&Type=search", "url2": "suiseien.com" }, "geometry": { "type": "Point", "coordinates": [ 131.072439533994412, 32.83575565431763 ] } },
{ "type": "Feature", "properties": { "内容": "特別養護老人ホーム陽ノ丘荘【介護老人福祉施設】熊本県阿蘇郡南阿蘇村大字河陽4463番地", "url": "https://www.kaigokensaku.mhlw.go.jp/43/index.php?action_kouhyou_detail_004_kani=true&JigyosyoCd=4372700445-00&ServiceCd=510&Type=search", "url2": "http://www.hinooka1990.or.jp" }, "geometry": { "type": "Point", "coordinates": [ 131.002770150048832, 32.867704143602523 ] } },
{ "type": "Feature", "properties": { "内容": "特別養護老人ホーム　グリーンヒルみふね【介護老人福祉施設】熊本県上益城郡御船町辺田見840-9", "url": "https://www.kaigokensaku.mhlw.go.jp/43/index.php?action_kouhyou_detail_004_kani=true&JigyosyoCd=4372800682-00&ServiceCd=510&Type=search", "url2": "https://greenhillmifune.com/" }, "geometry": { "type": "Point", "coordinates": [ 130.812443600000051, 32.7146991 ] } },
{ "type": "Feature", "properties": { "内容": "介護老人福祉施設　康寿苑【介護老人福祉施設】熊本県上益城郡嘉島町北甘木2073番地", "url": "https://www.kaigokensaku.mhlw.go.jp/43/index.php?action_kouhyou_detail_004_kani=true&JigyosyoCd=4372800336-00&ServiceCd=510&Type=search", "url2": "http://kayuukai.xsrv.jp" }, "geometry": { "type": "Point", "coordinates": [ 130.771016599999939, 32.7488365 ] } },
{ "type": "Feature", "properties": { "内容": "特別養護老人ホームひろやす荘【介護老人福祉施設】熊本県上益城郡益城町大字安永1080番地", "url": "https://www.kaigokensaku.mhlw.go.jp/43/index.php?action_kouhyou_detail_004_kani=true&JigyosyoCd=4372800344-00&ServiceCd=510&Type=search", "url2": "https://jikou-kai.com/" }, "geometry": { "type": "Point", "coordinates": [ 130.811785, 32.7908609 ] } },
{ "type": "Feature", "properties": { "内容": "特別養護老人ホーム花へんろ【介護老人福祉施設】熊本県上益城郡益城町惣領1670", "url": "https://www.kaigokensaku.mhlw.go.jp/43/index.php?action_kouhyou_detail_004_kani=true&JigyosyoCd=4372801375-00&ServiceCd=510&Type=search", "url2": "https://www.hanahenro.jp/" }, "geometry": { "type": "Point", "coordinates": [ 130.800635899999946, 32.7876333 ] } },
{ "type": "Feature", "properties": { "内容": "特別養護老人ホーム　いこいの里【介護老人福祉施設】熊本県上益城郡益城町福原1988番地1", "url": "https://www.kaigokensaku.mhlw.go.jp/43/index.php?action_kouhyou_detail_004_kani=true&JigyosyoCd=4372801573-00&ServiceCd=510&Type=search", "url2": "https://kinko-kai.jp/" }, "geometry": { "type": "Point", "coordinates": [ 130.8319672, 32.7829726 ] } },
{ "type": "Feature", "properties": { "内容": "ユニット型特別養護老人ホ－ムひろやす荘【介護老人福祉施設】熊本県上益城郡益城町安永1080番地", "url": "https://www.kaigokensaku.mhlw.go.jp/43/index.php?action_kouhyou_detail_004_kani=true&JigyosyoCd=4372801722-00&ServiceCd=510&Type=search", "url2": "https://jikou-kai.com/" }, "geometry": { "type": "Point", "coordinates": [ 130.86, 32.734 ] } },
{ "type": "Feature", "properties": { "内容": "特別養護老人ホーム　桜の丘【介護老人福祉施設】熊本県上益城郡甲佐町大字西寒野1161番地", "url": "https://www.kaigokensaku.mhlw.go.jp/43/index.php?action_kouhyou_detail_004_kani=true&JigyosyoCd=4372800351-00&ServiceCd=510&Type=search", "url2": "http://www.sakuranooka.or.jp" }, "geometry": { "type": "Point", "coordinates": [ 130.812210700000037, 32.6387062 ] } },
{ "type": "Feature", "properties": { "内容": "特別養護老人ホーム　蘇望苑【介護老人福祉施設】熊本県上益城郡山都町滝上２２３－１", "url": "https://www.kaigokensaku.mhlw.go.jp/43/index.php?action_kouhyou_detail_004_kani=true&JigyosyoCd=4372700411-00&ServiceCd=510&Type=search", "url2": "https://sobouen.com" }, "geometry": { "type": "Point", "coordinates": [ 131.140247899999963, 32.6886658 ] } },
{ "type": "Feature", "properties": { "内容": "特別養護老人ホーム　矢部大矢荘【介護老人福祉施設】熊本県上益城郡山都町北中島2684-2", "url": "https://www.kaigokensaku.mhlw.go.jp/43/index.php?action_kouhyou_detail_004_kani=true&JigyosyoCd=4372800369-00&ServiceCd=510&Type=search", "url2": "http://www.ooyasou.com" }, "geometry": { "type": "Point", "coordinates": [ 130.937666400000012, 32.7334379 ] } },
{ "type": "Feature", "properties": { "内容": "特別養護老人ホームやすらぎ荘【介護老人福祉施設】熊本県八代郡氷川町鹿島945番地", "url": "https://www.kaigokensaku.mhlw.go.jp/43/index.php?action_kouhyou_detail_004_kani=true&JigyosyoCd=4372900342-00&ServiceCd=510&Type=search", "url2": "http://www.8910kai.jp/" }, "geometry": { "type": "Point", "coordinates": [ 130.668122899999958, 32.5799116 ] } },
{ "type": "Feature", "properties": { "内容": "特別養護老人ホーム　やすらぎ荘別館【介護老人福祉施設】熊本県八代郡氷川町鹿島９４５番地", "url": "https://www.kaigokensaku.mhlw.go.jp/43/index.php?action_kouhyou_detail_004_kani=true&JigyosyoCd=4372901019-00&ServiceCd=510&Type=search", "url2": "http://www8910kai.jp/" }, "geometry": { "type": "Point", "coordinates": [ 130.668122899999958, 32.5799116 ] } },
{ "type": "Feature", "properties": { "内容": "特別養護老人ホーム早尾園【介護老人福祉施設】熊本県八代郡氷川町早尾132", "url": "https://www.kaigokensaku.mhlw.go.jp/43/index.php?action_kouhyou_detail_004_kani=true&JigyosyoCd=4372900359-00&ServiceCd=510&Type=search", "url2": "http://hayaoen.org/" }, "geometry": { "type": "Point", "coordinates": [ 130.676608418957272, 32.549563013974378 ] } },
{ "type": "Feature", "properties": { "内容": "特別養護老人ホーム　田の浦荘【介護老人福祉施設】熊本県葦北郡芦北町大字田浦町８７０－１", "url": "https://www.kaigokensaku.mhlw.go.jp/43/index.php?action_kouhyou_detail_004_kani=true&JigyosyoCd=4373000340-00&ServiceCd=510&Type=search", "url2": "https://eiwafukusikai.com/" }, "geometry": { "type": "Point", "coordinates": [ 130.505413, 32.3643631 ] } },
{ "type": "Feature", "properties": { "内容": "特別養護老人ホーム五松園【介護老人福祉施設】熊本県葦北郡芦北町大字花岡1118番地", "url": "https://www.kaigokensaku.mhlw.go.jp/43/index.php?action_kouhyou_detail_004_kani=true&JigyosyoCd=4373000357-00&ServiceCd=510&Type=search", "url2": "https://jiyukai.com" }, "geometry": { "type": "Point", "coordinates": [ 130.5103153, 32.2953284 ] } },
{ "type": "Feature", "properties": { "内容": "特別養護老人ホーム　あけぼの苑【介護老人福祉施設】熊本県葦北郡津奈木町大字岩城1520番地", "url": "https://www.kaigokensaku.mhlw.go.jp/43/index.php?action_kouhyou_detail_004_kani=true&JigyosyoCd=4373000365-00&ServiceCd=510&Type=search", "url2": "akebonoenn.or.jp" }, "geometry": { "type": "Point", "coordinates": [ 130.455284300000017, 32.2282589 ] } },
{ "type": "Feature", "properties": { "内容": "社会福祉法人清風会　特別養護老人ホームあけぼの苑　よらんかな【介護老人福祉施設】熊本県葦北郡津奈木町大字岩城1520番地", "url": "https://www.kaigokensaku.mhlw.go.jp/43/index.php?action_kouhyou_detail_004_kani=true&JigyosyoCd=4373000787-00&ServiceCd=510&Type=search", "url2": "ａｋｅｂｏｎｏ．ｏｒ．ｊｐ" }, "geometry": { "type": "Point", "coordinates": [ 130.455284300000017, 32.2282589 ] } },
{ "type": "Feature", "properties": { "内容": "特別養護老人ホームにしき園【介護老人福祉施設】熊本県球磨郡錦町大字木上北150番地1", "url": "https://www.kaigokensaku.mhlw.go.jp/43/index.php?action_kouhyou_detail_004_kani=true&JigyosyoCd=4373100371-00&ServiceCd=510&Type=search", "url2": "http://nisikien.com/" }, "geometry": { "type": "Point", "coordinates": [ 130.8131244, 32.2267016 ] } },
{ "type": "Feature", "properties": { "内容": "特別養護老人ホーム　あずみ野【介護老人福祉施設】熊本県球磨郡多良木町多良木２５７－１", "url": "https://www.kaigokensaku.mhlw.go.jp/43/index.php?action_kouhyou_detail_004_kani=true&JigyosyoCd=4373100405-00&ServiceCd=510&Type=search", "url2": "http://azumino.k-vihara.jp" }, "geometry": { "type": "Point", "coordinates": [ 130.943863400000026, 32.2666918 ] } },
{ "type": "Feature", "properties": { "内容": "特別養護老人ホームあずみ野【介護老人福祉施設】熊本県球磨郡多良木町多良木257-1", "url": "https://www.kaigokensaku.mhlw.go.jp/43/index.php?action_kouhyou_detail_004_kani=true&JigyosyoCd=4373101304-00&ServiceCd=510&Type=search", "url2": "http://azumino.k-vihara.jp" }, "geometry": { "type": "Point", "coordinates": [ 130.943863400000026, 32.2666918 ] } },
{ "type": "Feature", "properties": { "内容": "特別養護老人ホーム　福寿荘【介護老人福祉施設】熊本県球磨郡湯前町836番地", "url": "https://www.kaigokensaku.mhlw.go.jp/43/index.php?action_kouhyou_detail_004_kani=true&JigyosyoCd=4373101486-00&ServiceCd=510&Type=search", "url2": "https://fukuzyusou.com" }, "geometry": { "type": "Point", "coordinates": [ 130.996316474, 32.274463457309935 ] } },
{ "type": "Feature", "properties": { "内容": "特別養護老人ホーム　桜の里【介護老人福祉施設】熊本県球磨郡水上村大字岩野2658番地１", "url": "https://www.kaigokensaku.mhlw.go.jp/43/index.php?action_kouhyou_detail_004_kani=true&JigyosyoCd=4373100918-00&ServiceCd=510&Type=search", "url2": "oyakuen-g.or.jp" }, "geometry": { "type": "Point", "coordinates": [ 131.009545900000035, 32.3143423 ] } },
{ "type": "Feature", "properties": { "内容": "特別養護老人ホーム川辺川園【介護老人福祉施設】熊本県球磨郡相良村大字川辺1771番地", "url": "https://www.kaigokensaku.mhlw.go.jp/43/index.php?action_kouhyou_detail_004_kani=true&JigyosyoCd=4373100421-00&ServiceCd=510&Type=search", "url2": "www.pe-toru.or.jp" }, "geometry": { "type": "Point", "coordinates": [ 130.81556, 32.2568712 ] } },
{ "type": "Feature", "properties": { "内容": "特別養護老人ホーム千寿園【介護老人福祉施設】熊本県球磨郡球磨村大字渡乙880番地21", "url": "https://www.kaigokensaku.mhlw.go.jp/43/index.php?action_kouhyou_detail_004_kani=true&JigyosyoCd=4373100785-00&ServiceCd=510&Type=search", "url2": "https://www.jiaikai1010.or.jp/" }, "geometry": { "type": "Point", "coordinates": [ 130.703923508076741, 32.234594091267191 ] } },
{ "type": "Feature", "properties": { "内容": "特別養護老人ホーム　鐘ヶ丘ホーム【介護老人福祉施設】熊本県球磨郡あさぎり町上西字清水８３５番地", "url": "https://www.kaigokensaku.mhlw.go.jp/43/index.php?action_kouhyou_detail_004_kani=true&JigyosyoCd=4373100389-00&ServiceCd=510&Type=search", "url2": "http://kanegaoka.com/" }, "geometry": { "type": "Point", "coordinates": [ 130.889127599999938, 32.2188071 ] } },
{ "type": "Feature", "properties": { "内容": "特別養護老人ホームあさぎりホーム【介護老人福祉施設】熊本県球磨郡あさぎり町岡原南77番地1", "url": "https://www.kaigokensaku.mhlw.go.jp/43/index.php?action_kouhyou_detail_004_kani=true&JigyosyoCd=4373100397-00&ServiceCd=510&Type=search", "url2": "http://nisikien.com/" }, "geometry": { "type": "Point", "coordinates": [ 130.920527499999906, 32.2344414 ] } },
{ "type": "Feature", "properties": { "内容": "特別養護老人ホーム翠光園【介護老人福祉施設】熊本県球磨郡あさぎり町深田東４１０番地", "url": "https://www.kaigokensaku.mhlw.go.jp/43/index.php?action_kouhyou_detail_004_kani=true&JigyosyoCd=4373100413-00&ServiceCd=510&Type=search", "url2": "suikou-en.com" }, "geometry": { "type": "Point", "coordinates": [ 130.873425499999939, 32.2456232 ] } },
{ "type": "Feature", "properties": { "内容": "特別養護老人ホーム　楽洋の里【介護老人福祉施設】熊本県天草郡苓北町上津深江230-1", "url": "https://www.kaigokensaku.mhlw.go.jp/43/index.php?action_kouhyou_detail_004_kani=true&JigyosyoCd=4373200486-00&ServiceCd=510&Type=search", "url2": "http://jiseikai.amakusa-web.jp" }, "geometry": { "type": "Point", "coordinates": [ 130.067519899999979, 32.5148758 ] } }
]
}
