{
"type": "FeatureCollection",
"name": "geo_43_短期入所療養介護（介護老人保健施設）",
"crs": { "type": "name", "properties": { "name": "urn:ogc:def:crs:OGC:1.3:CRS84" } },
"features": [
{ "type": "Feature", "properties": { "内容": "介護老人保健施設　湧心苑【短期入所療養介護（介護老人保健施設）】熊本市中央区出水４丁目１５番３０号", "url": "https://www.kaigokensaku.mhlw.go.jp/43/index.php?action_kouhyou_detail_004_kani=true&JigyosyoCd=4350180099-00&ServiceCd=220&Type=search", "url2": "https://www.toueikai.or.jp/" }, "geometry": { "type": "Point", "coordinates": [ 130.733551, 32.78095 ] } },
{ "type": "Feature", "properties": { "内容": "介護老人保健施設　南楓苑【短期入所療養介護（介護老人保健施設）】熊本県熊本市中央区南熊本2-11-1", "url": "https://www.kaigokensaku.mhlw.go.jp/43/index.php?action_kouhyou_detail_004_kani=true&JigyosyoCd=4350180073-00&ServiceCd=220&Type=search", "url2": "https://nanpu-en.jp" }, "geometry": { "type": "Point", "coordinates": [ 130.7120222, 32.7886979 ] } },
{ "type": "Feature", "properties": { "内容": "フォレスト熊本【短期入所療養介護（介護老人保健施設）】熊本市中央区渡鹿５丁目１番３７号", "url": "https://www.kaigokensaku.mhlw.go.jp/43/index.php?action_kouhyou_detail_004_kani=true&JigyosyoCd=4350180172-00&ServiceCd=220&Type=search", "url2": "http://www.kyouninkai.jp/forest/" }, "geometry": { "type": "Point", "coordinates": [ 130.730322900000033, 32.8106251 ] } },
{ "type": "Feature", "properties": { "内容": "介護老人保健施設なでしこ【短期入所療養介護（介護老人保健施設）】熊本市中央区北千反畑町2番5号", "url": "https://www.kaigokensaku.mhlw.go.jp/43/index.php?action_kouhyou_detail_004_kani=true&JigyosyoCd=4350180206-00&ServiceCd=220&Type=search", "url2": "http://www.kiseikai.or.jp" }, "geometry": { "type": "Point", "coordinates": [ 130.715976500000011, 32.8089667 ] } },
{ "type": "Feature", "properties": { "内容": "老人保健施設　シルバーピア水前寺【短期入所療養介護（介護老人保健施設）】熊本県熊本市通央区水前寺5丁目8番15号", "url": "https://www.kaigokensaku.mhlw.go.jp/43/index.php?action_kouhyou_detail_004_kani=true&JigyosyoCd=4350180156-00&ServiceCd=220&Type=search", "url2": "http://www.tohya.or.jp" }, "geometry": { "type": "Point", "coordinates": [ 130.738001578401139, 32.794406635690713 ] } },
{ "type": "Feature", "properties": { "内容": "介護老人保健施設　のぞみ【短期入所療養介護（介護老人保健施設）】熊本県熊本市中央区本荘３丁目７番１８号", "url": "https://www.kaigokensaku.mhlw.go.jp/43/index.php?action_kouhyou_detail_004_kani=true&JigyosyoCd=4350180149-00&ServiceCd=220&Type=search", "url2": "http://sugimurakai.jp/" }, "geometry": { "type": "Point", "coordinates": [ 130.7085968, 32.7947706 ] } },
{ "type": "Feature", "properties": { "内容": "メディエイト鶴翔苑【短期入所療養介護（介護老人保健施設）】熊本市東区保田窪本町10番112", "url": "https://www.kaigokensaku.mhlw.go.jp/43/index.php?action_kouhyou_detail_004_kani=true&JigyosyoCd=4350180164-00&ServiceCd=220&Type=search", "url2": "https://kakuyuukai.or.jp/kakusyoen" }, "geometry": { "type": "Point", "coordinates": [ 130.74710570000002, 32.808017 ] } },
{ "type": "Feature", "properties": { "内容": "介護老人保健施設ケアセンター赤とんぼ【短期入所療養介護（介護老人保健施設）】熊本市東区戸島西２丁目３－１０", "url": "https://www.kaigokensaku.mhlw.go.jp/43/index.php?action_kouhyou_detail_004_kani=true&JigyosyoCd=4350180008-00&ServiceCd=220&Type=search", "url2": "http://www.jinseikai.or.jp/akatonbo" }, "geometry": { "type": "Point", "coordinates": [ 130.781067600000029, 32.8112451 ] } },
{ "type": "Feature", "properties": { "内容": "介護老人保健施設　高齢者支援センター　コスモピア熊本【短期入所療養介護（介護老人保健施設）】熊本県熊本市東区尾ノ上1丁目3-12", "url": "https://www.kaigokensaku.mhlw.go.jp/43/index.php?action_kouhyou_detail_004_kani=true&JigyosyoCd=4350180271-00&ServiceCd=220&Type=search", "url2": "https://shinseiki.or.jp" }, "geometry": { "type": "Point", "coordinates": [ 130.750447300000019, 32.7892465 ] } },
{ "type": "Feature", "properties": { "内容": "医療法人　伸生紀　介護老人保健施設　総合ケアセンター　第二コスモピア熊本【短期入所療養介護（介護老人保健施設）】尾ノ上1-8-8", "url": "https://www.kaigokensaku.mhlw.go.jp/43/index.php?action_kouhyou_detail_004_kani=true&JigyosyoCd=4350180289-00&ServiceCd=220&Type=search", "url2": "https://shinseiki.or.jp/" }, "geometry": { "type": "Point", "coordinates": [ 130.750911200000019, 32.7888187 ] } },
{ "type": "Feature", "properties": { "内容": "レ・ハビリス桜十字　熊本東【短期入所療養介護（介護老人保健施設）】熊本県熊本市東区三郎1丁目12番30号", "url": "https://www.kaigokensaku.mhlw.go.jp/43/index.php?action_kouhyou_detail_004_kani=true&JigyosyoCd=4350180297-00&ServiceCd=220&Type=search", "url2": "www.sakurajyuji.or.jp/k-higasi/" }, "geometry": { "type": "Point", "coordinates": [ 130.758480299999974, 32.7994373 ] } },
{ "type": "Feature", "properties": { "内容": "介護老人保健施設　葵の森【短期入所療養介護（介護老人保健施設）】熊本市西区松尾町近津1480番地", "url": "https://www.kaigokensaku.mhlw.go.jp/43/index.php?action_kouhyou_detail_004_kani=true&JigyosyoCd=4350180313-00&ServiceCd=220&Type=search", "url2": "https://dc-orange.jp" }, "geometry": { "type": "Point", "coordinates": [ 130.6056053, 32.8025684 ] } },
{ "type": "Feature", "properties": { "内容": "介護老人保健施設　青翔苑【短期入所療養介護（介護老人保健施設）】熊本市西区島崎2丁目21-10", "url": "https://www.kaigokensaku.mhlw.go.jp/43/index.php?action_kouhyou_detail_004_kani=true&JigyosyoCd=4350180040-00&ServiceCd=220&Type=search", "url2": "https://www.seijino.or.jp/" }, "geometry": { "type": "Point", "coordinates": [ 130.690442699999949, 32.8080688 ] } },
{ "type": "Feature", "properties": { "内容": "介護老人保健施設　なすび園【短期入所療養介護（介護老人保健施設）】熊本市西区沖新町3353番地", "url": "https://www.kaigokensaku.mhlw.go.jp/43/index.php?action_kouhyou_detail_004_kani=true&JigyosyoCd=4350180180-00&ServiceCd=220&Type=search", "url2": "http://www.nasubien.or.jp/admin" }, "geometry": { "type": "Point", "coordinates": [ 130.612374499999987, 32.7565919 ] } },
{ "type": "Feature", "properties": { "内容": "介護療養型老人保健施設　ゆずりは【短期入所療養介護（介護老人保健施設）】熊本市南区城南町高1099", "url": "https://www.kaigokensaku.mhlw.go.jp/43/index.php?action_kouhyou_detail_004_kani=true&JigyosyoCd=4350180255-00&ServiceCd=220&Type=search", "url2": "http://yuzuriha-k.or.jp/" }, "geometry": { "type": "Point", "coordinates": [ 130.708324299999958, 32.7343871 ] } },
{ "type": "Feature", "properties": { "内容": "介護老人保健施設　光乃里【短期入所療養介護（介護老人保健施設）】熊本県熊本市南区城南町今吉野９７２", "url": "https://www.kaigokensaku.mhlw.go.jp/43/index.php?action_kouhyou_detail_004_kani=true&JigyosyoCd=4352380028-00&ServiceCd=220&Type=search", "url2": "http://www.inouekai.com/" }, "geometry": { "type": "Point", "coordinates": [ 130.735673, 32.7175252 ] } },
{ "type": "Feature", "properties": { "内容": "介護老人保健施設　田迎ケアセンター【短期入所療養介護（介護老人保健施設）】熊本県熊本市南区出仲間５丁目２－２", "url": "https://www.kaigokensaku.mhlw.go.jp/43/index.php?action_kouhyou_detail_004_kani=true&JigyosyoCd=4350180198-00&ServiceCd=220&Type=search", "url2": "http://www.touyoukai.jp/" }, "geometry": { "type": "Point", "coordinates": [ 130.716924803704842, 32.76983720981108 ] } },
{ "type": "Feature", "properties": { "内容": "介護老人保健施設白藤苑【短期入所療養介護（介護老人保健施設）】熊本市南区白藤５丁目１番１号", "url": "https://www.kaigokensaku.mhlw.go.jp/43/index.php?action_kouhyou_detail_004_kani=true&JigyosyoCd=4350180123-00&ServiceCd=220&Type=search", "url2": "http://www.matusita-kai.or.jp/" }, "geometry": { "type": "Point", "coordinates": [ 130.674662200000057, 32.7544458 ] } },
{ "type": "Feature", "properties": { "内容": "介護老人保健施設　ぼたん園【短期入所療養介護（介護老人保健施設）】熊本県熊本市南区御幸笛田6丁目8番1号介護老人保健施設　ぼたん園", "url": "https://www.kaigokensaku.mhlw.go.jp/43/index.php?action_kouhyou_detail_004_kani=true&JigyosyoCd=4350180107-00&ServiceCd=220&Type=search", "url2": "http://miyukinosato.or.jp" }, "geometry": { "type": "Point", "coordinates": [ 130.7096453, 32.7582156 ] } },
{ "type": "Feature", "properties": { "内容": "介護老人保健施設　桔梗苑【短期入所療養介護（介護老人保健施設）】熊本県熊本市南区城南町沈目1481", "url": "https://www.kaigokensaku.mhlw.go.jp/43/index.php?action_kouhyou_detail_004_kani=true&JigyosyoCd=4352380010-00&ServiceCd=220&Type=search", "url2": "http://www.k-group.jp/kikyo/index.html" }, "geometry": { "type": "Point", "coordinates": [ 130.7496784, 32.6979797 ] } },
{ "type": "Feature", "properties": { "内容": "介護老人保健施設　ケアビレッジ箱根崎【短期入所療養介護（介護老人保健施設）】熊本県熊本市北区植木町正清８８８", "url": "https://www.kaigokensaku.mhlw.go.jp/43/index.php?action_kouhyou_detail_004_kani=true&JigyosyoCd=4352580015-00&ServiceCd=220&Type=search", "url2": "http://www.hakonezaki.or.jp" }, "geometry": { "type": "Point", "coordinates": [ 130.7167495, 32.9681082 ] } },
{ "type": "Feature", "properties": { "内容": "介護老人保健施設清雅苑【短期入所療養介護（介護老人保健施設）】熊本市北区山室六丁目８番１号", "url": "https://www.kaigokensaku.mhlw.go.jp/43/index.php?action_kouhyou_detail_004_kani=true&JigyosyoCd=4350180016-00&ServiceCd=220&Type=search", "url2": "http://www.juryo.or.jp/" }, "geometry": { "type": "Point", "coordinates": [ 130.719192940614306, 32.846470524269002 ] } },
{ "type": "Feature", "properties": { "内容": "介護老人保健施設みつぐ苑【短期入所療養介護（介護老人保健施設）】熊本市北区貢町１３５番地", "url": "https://www.kaigokensaku.mhlw.go.jp/43/index.php?action_kouhyou_detail_004_kani=true&JigyosyoCd=4350180131-00&ServiceCd=220&Type=search", "url2": "http://www.iseikai.info" }, "geometry": { "type": "Point", "coordinates": [ 130.702643089024377, 32.842900856522007 ] } },
{ "type": "Feature", "properties": { "内容": "短期入所療養介護　かなこぎ苑【短期入所療養介護（介護老人保健施設）】熊本県熊本市北区硯川町768-1", "url": "https://www.kaigokensaku.mhlw.go.jp/43/index.php?action_kouhyou_detail_004_kani=true&JigyosyoCd=4350180214-00&ServiceCd=220&Type=search", "url2": "http://www.ikueikai-kumamoto.or.jp" }, "geometry": { "type": "Point", "coordinates": [ 130.69972729999995, 32.8709662 ] } },
{ "type": "Feature", "properties": { "内容": "介護老人保健施設　ぎんなんの里【短期入所療養介護（介護老人保健施設）】熊本市北区楡木１丁目３番７０号", "url": "https://www.kaigokensaku.mhlw.go.jp/43/index.php?action_kouhyou_detail_004_kani=true&JigyosyoCd=4350180081-00&ServiceCd=220&Type=search", "url2": "uenokai.com" }, "geometry": { "type": "Point", "coordinates": [ 130.752172100000053, 32.8421445 ] } },
{ "type": "Feature", "properties": { "内容": "介護老人保健施設　阿房宮【短期入所療養介護（介護老人保健施設）】熊本県熊本市北区龍田陳内１丁目３番２０号", "url": "https://www.kaigokensaku.mhlw.go.jp/43/index.php?action_kouhyou_detail_004_kani=true&JigyosyoCd=4350180057-00&ServiceCd=220&Type=search", "url2": null }, "geometry": { "type": "Point", "coordinates": [ 130.744766900000059, 32.8228407 ] } },
{ "type": "Feature", "properties": { "内容": "介護老人保健施設　とまと【短期入所療養介護（介護老人保健施設）】熊本県八代市郡築１番町１８０番地１", "url": "https://www.kaigokensaku.mhlw.go.jp/43/index.php?action_kouhyou_detail_004_kani=true&JigyosyoCd=4350280055-00&ServiceCd=220&Type=search", "url2": "http://www.tomato-r.com" }, "geometry": { "type": "Point", "coordinates": [ 130.576888, 32.5418143 ] } },
{ "type": "Feature", "properties": { "内容": "ユニット型介護老人保健施設とまと【短期入所療養介護（介護老人保健施設）】熊本県八代市郡築1番町180番地1", "url": "https://www.kaigokensaku.mhlw.go.jp/43/index.php?action_kouhyou_detail_004_kani=true&JigyosyoCd=4350280071-00&ServiceCd=220&Type=search", "url2": "http://www.tomato-r.com" }, "geometry": { "type": "Point", "coordinates": [ 130.564560699999987, 32.5152741 ] } },
{ "type": "Feature", "properties": { "内容": "介護老人保健施設　ハピネスケア日南【短期入所療養介護（介護老人保健施設）】熊本県八代市日奈久塩北町2922", "url": "https://www.kaigokensaku.mhlw.go.jp/43/index.php?action_kouhyou_detail_004_kani=true&JigyosyoCd=4350280014-00&ServiceCd=220&Type=search", "url2": "https://k-keiaikai.net/" }, "geometry": { "type": "Point", "coordinates": [ 130.583290499999947, 32.4332438 ] } },
{ "type": "Feature", "properties": { "内容": "介護老人保健施設　向春苑【短期入所療養介護（介護老人保健施設）】熊本県八代市大福寺町2411-1", "url": "https://www.kaigokensaku.mhlw.go.jp/43/index.php?action_kouhyou_detail_004_kani=true&JigyosyoCd=4350280022-00&ServiceCd=220&Type=search", "url2": "ttp://gongen.org/koureisya/sisetu/kousyunnen/index.html" }, "geometry": { "type": "Point", "coordinates": [ 130.591901199999938, 32.4734784 ] } },
{ "type": "Feature", "properties": { "内容": "介護老人保健施設リート桜十字八代【短期入所療養介護（介護老人保健施設）】熊本県八代市古閑浜町西塩浜3401番地", "url": "https://www.kaigokensaku.mhlw.go.jp/43/index.php?action_kouhyou_detail_004_kani=true&JigyosyoCd=4350280030-00&ServiceCd=220&Type=search", "url2": "http://www.yuurin.or.jp/" }, "geometry": { "type": "Point", "coordinates": [ 130.599761778445668, 32.537579370927617 ] } },
{ "type": "Feature", "properties": { "内容": "介護老人保健施設　皇寿園【短期入所療養介護（介護老人保健施設）】熊本県八代市高島町4218番地", "url": "https://www.kaigokensaku.mhlw.go.jp/43/index.php?action_kouhyou_detail_004_kani=true&JigyosyoCd=4350280048-00&ServiceCd=220&Type=search", "url2": "http://www.hatsuyuukai.or.jp/" }, "geometry": { "type": "Point", "coordinates": [ 130.5825754, 32.5232769 ] } },
{ "type": "Feature", "properties": { "内容": "介護老人保健施設　かがみ苑【短期入所療養介護（介護老人保健施設）】熊本県八代市鏡町塩浜２３５番地", "url": "https://www.kaigokensaku.mhlw.go.jp/43/index.php?action_kouhyou_detail_004_kani=true&JigyosyoCd=4352980025-00&ServiceCd=220&Type=search", "url2": "https://www.kagamien-kumamoto.com/" }, "geometry": { "type": "Point", "coordinates": [ 130.618256333312956, 32.561750496586043 ] } },
{ "type": "Feature", "properties": { "内容": "介護老人保健施設リバーサイド御薬園【短期入所療養介護（介護老人保健施設）】熊本県人吉市七地町４９５番地", "url": "https://www.kaigokensaku.mhlw.go.jp/43/index.php?action_kouhyou_detail_004_kani=true&JigyosyoCd=4350380012-00&ServiceCd=220&Type=search", "url2": "http://www.oyakuen-g.or.jp" }, "geometry": { "type": "Point", "coordinates": [ 130.773056200000042, 32.2130432 ] } },
{ "type": "Feature", "properties": { "内容": "介護老人保健施設　タンポポ【短期入所療養介護（介護老人保健施設）】熊本県人吉市下漆田町1538", "url": "https://www.kaigokensaku.mhlw.go.jp/43/index.php?action_kouhyou_detail_004_kani=true&JigyosyoCd=4350380020-00&ServiceCd=220&Type=search", "url2": null }, "geometry": { "type": "Point", "coordinates": [ 130.793496299999987, 32.1908215 ] } },
{ "type": "Feature", "properties": { "内容": "ショートステイ愛生【短期入所療養介護（介護老人保健施設）】熊本県人吉市南泉田町89", "url": "https://www.kaigokensaku.mhlw.go.jp/43/index.php?action_kouhyou_detail_004_kani=true&JigyosyoCd=4370301279-00&ServiceCd=220&Type=search", "url2": "http://www.h-aisei.or.jp/" }, "geometry": { "type": "Point", "coordinates": [ 130.762613800000054, 32.2166154 ] } },
{ "type": "Feature", "properties": { "内容": "医療法人　洗心会　介護老人保健施設　慈眼苑【短期入所療養介護（介護老人保健施設）】熊本県荒尾市増永７０８番地２", "url": "https://www.kaigokensaku.mhlw.go.jp/43/index.php?action_kouhyou_detail_004_kani=true&JigyosyoCd=4350480010-00&ServiceCd=220&Type=search", "url2": "https://www.senshinkai.or.jp/jigen/" }, "geometry": { "type": "Point", "coordinates": [ 130.439708200000041, 32.972662 ] } },
{ "type": "Feature", "properties": { "内容": "介護老人保健施設　平成ドリーム館【短期入所療養介護（介護老人保健施設）】熊本県荒尾市水野１５５６番地", "url": "https://www.kaigokensaku.mhlw.go.jp/43/index.php?action_kouhyou_detail_004_kani=true&JigyosyoCd=4350480028-00&ServiceCd=220&Type=search", "url2": null }, "geometry": { "type": "Point", "coordinates": [ 130.449793600000021, 32.9622716 ] } },
{ "type": "Feature", "properties": { "内容": "介護老人保健施設やすらぎ苑【短期入所療養介護（介護老人保健施設）】熊本県水俣市浜４０５１番地", "url": "https://www.kaigokensaku.mhlw.go.jp/43/index.php?action_kouhyou_detail_004_kani=true&JigyosyoCd=4350580017-00&ServiceCd=220&Type=search", "url2": "m-a-ishikai.com" }, "geometry": { "type": "Point", "coordinates": [ 130.397676300000057, 32.2238341 ] } },
{ "type": "Feature", "properties": { "内容": "介護老人保健施設　白梅の里【短期入所療養介護（介護老人保健施設）】熊本県水俣市浜4098番地の18", "url": "https://www.kaigokensaku.mhlw.go.jp/43/index.php?action_kouhyou_detail_004_kani=true&JigyosyoCd=4350580025-00&ServiceCd=220&Type=search", "url2": "http://www.kaigocsc.co.jp/shiraume/" }, "geometry": { "type": "Point", "coordinates": [ 130.414865700000064, 32.2300336 ] } },
{ "type": "Feature", "properties": { "内容": "介護老人保健施設　幸【短期入所療養介護（介護老人保健施設）】玉名市岱明町鍋1831", "url": "https://www.kaigokensaku.mhlw.go.jp/43/index.php?action_kouhyou_detail_004_kani=true&JigyosyoCd=4352480000-00&ServiceCd=220&Type=search", "url2": "Googleサイトにて、https://souyukai.or.jp/" }, "geometry": { "type": "Point", "coordinates": [ 130.4890206, 32.9040582 ] } },
{ "type": "Feature", "properties": { "内容": "介護老人保健施設　幸【短期入所療養介護（介護老人保健施設）】玉名市岱明町鍋1831", "url": "https://www.kaigokensaku.mhlw.go.jp/43/index.php?action_kouhyou_detail_004_kani=true&JigyosyoCd=4350680031-00&ServiceCd=220&Type=search", "url2": "Googleサイトにて、https://souyukai.or.jp/" }, "geometry": { "type": "Point", "coordinates": [ 130.488981200000012, 32.9039039 ] } },
{ "type": "Feature", "properties": { "内容": "介護老人保健施設　ゆうきの里【短期入所療養介護（介護老人保健施設）】熊本県玉名市上小田１０６３番地", "url": "https://www.kaigokensaku.mhlw.go.jp/43/index.php?action_kouhyou_detail_004_kani=true&JigyosyoCd=4350680023-00&ServiceCd=220&Type=search", "url2": "http://www.yukikai.or.jp" }, "geometry": { "type": "Point", "coordinates": [ 130.586976700000037, 32.9521215 ] } },
{ "type": "Feature", "properties": { "内容": "介護老人保健施設　星雲荘【短期入所療養介護（介護老人保健施設）】熊本県玉名市横島町横島3384番地", "url": "https://www.kaigokensaku.mhlw.go.jp/43/index.php?action_kouhyou_detail_004_kani=true&JigyosyoCd=4352480034-00&ServiceCd=220&Type=search", "url2": "http://seiunsou.net" }, "geometry": { "type": "Point", "coordinates": [ 130.56680259999996, 32.8757888 ] } },
{ "type": "Feature", "properties": { "内容": "介護老人保健施設　てんすい倶楽部【短期入所療養介護（介護老人保健施設）】玉名市天水町部田見1214-15", "url": "https://www.kaigokensaku.mhlw.go.jp/43/index.php?action_kouhyou_detail_004_kani=true&JigyosyoCd=4352480042-00&ServiceCd=220&Type=search", "url2": "http://www.shunkokai.jp/tensui" }, "geometry": { "type": "Point", "coordinates": [ 130.583653899999945, 32.8742367 ] } },
{ "type": "Feature", "properties": { "内容": "介護老人保健施設　樹心台【短期入所療養介護（介護老人保健施設）】熊本県玉名市伊倉北方272-3", "url": "https://www.kaigokensaku.mhlw.go.jp/43/index.php?action_kouhyou_detail_004_kani=true&JigyosyoCd=4350680015-00&ServiceCd=220&Type=search", "url2": "http://www.i-shinwa.com/" }, "geometry": { "type": "Point", "coordinates": [ 130.562535839811744, 32.912388934429323 ] } },
{ "type": "Feature", "properties": { "内容": "介護老人保健施設　希望の園【短期入所療養介護（介護老人保健施設）】熊本県山鹿市山鹿３６９番地", "url": "https://www.kaigokensaku.mhlw.go.jp/43/index.php?action_kouhyou_detail_004_kani=true&JigyosyoCd=4350880011-00&ServiceCd=220&Type=search", "url2": "https://kibou-sono.com" }, "geometry": { "type": "Point", "coordinates": [ 130.693258799999967, 33.0146309 ] } },
{ "type": "Feature", "properties": { "内容": "介護老人保健施設　山鹿リハビリセンター【短期入所療養介護（介護老人保健施設）】熊本県山鹿市熊入町313番地", "url": "https://www.kaigokensaku.mhlw.go.jp/43/index.php?action_kouhyou_detail_004_kani=true&JigyosyoCd=4350880029-00&ServiceCd=220&Type=search", "url2": "http://seiei-kai.com/" }, "geometry": { "type": "Point", "coordinates": [ 130.683470700000044, 33.0282573 ] } },
{ "type": "Feature", "properties": { "内容": "介護老人保健施設　太陽【短期入所療養介護（介護老人保健施設）】熊本県山鹿市鹿本町津袋６５４－１", "url": "https://www.kaigokensaku.mhlw.go.jp/43/index.php?action_kouhyou_detail_004_kani=true&JigyosyoCd=4352580023-00&ServiceCd=220&Type=search", "url2": "http://www.taiyoyamaga.com/" }, "geometry": { "type": "Point", "coordinates": [ 130.745534726319875, 33.015416392774739 ] } },
{ "type": "Feature", "properties": { "内容": "介護老人保健施設　リハビリセンター　きくちの里【短期入所療養介護（介護老人保健施設）】熊本県菊池市大琳寺１２３番地", "url": "https://www.kaigokensaku.mhlw.go.jp/43/index.php?action_kouhyou_detail_004_kani=true&JigyosyoCd=4351080033-00&ServiceCd=220&Type=search", "url2": null }, "geometry": { "type": "Point", "coordinates": [ 130.8037008, 32.9722833 ] } },
{ "type": "Feature", "properties": { "内容": "介護老人保健施設　孔子の里【短期入所療養介護（介護老人保健施設）】熊本県菊池市泗水町福本９０４番１", "url": "https://www.kaigokensaku.mhlw.go.jp/43/index.php?action_kouhyou_detail_004_kani=true&JigyosyoCd=4352680054-00&ServiceCd=220&Type=search", "url2": "https://hckousikai.com/" }, "geometry": { "type": "Point", "coordinates": [ 130.774896431877096, 32.920313772658567 ] } },
{ "type": "Feature", "properties": { "内容": "介護老人保健施設　　あさひコート【短期入所療養介護（介護老人保健施設）】熊本県宇土市旭町106番地", "url": "https://www.kaigokensaku.mhlw.go.jp/43/index.php?action_kouhyou_detail_004_kani=true&JigyosyoCd=4351180015-00&ServiceCd=220&Type=search", "url2": "http://www.kanamori.or.jp" }, "geometry": { "type": "Point", "coordinates": [ 130.665143100000023, 32.687982 ] } },
{ "type": "Feature", "properties": { "内容": "介護老人保健施設　景雅苑【短期入所療養介護（介護老人保健施設）】熊本県宇土市上網田町3676", "url": "https://www.kaigokensaku.mhlw.go.jp/43/index.php?action_kouhyou_detail_004_kani=true&JigyosyoCd=4351180023-00&ServiceCd=220&Type=search", "url2": "http://www.odakai.com" }, "geometry": { "type": "Point", "coordinates": [ 130.552869699999974, 32.6798616 ] } },
{ "type": "Feature", "properties": { "内容": "介護老人保健施設　あさひコート別館【短期入所療養介護（介護老人保健施設）】旭町106番地", "url": "https://www.kaigokensaku.mhlw.go.jp/43/index.php?action_kouhyou_detail_004_kani=true&JigyosyoCd=4351180031-00&ServiceCd=220&Type=search", "url2": "http://www.kanamori.or.jp" }, "geometry": { "type": "Point", "coordinates": [ 130.665143100000023, 32.687982 ] } },
{ "type": "Feature", "properties": { "内容": "介護老人保健施設　きららの里【短期入所療養介護（介護老人保健施設）】熊本県上天草市龍ヶ岳町高戸1419-19", "url": "https://www.kaigokensaku.mhlw.go.jp/43/index.php?action_kouhyou_detail_004_kani=true&JigyosyoCd=4351280005-00&ServiceCd=220&Type=search", "url2": null }, "geometry": { "type": "Point", "coordinates": [ 130.391635400000041, 32.3936494 ] } },
{ "type": "Feature", "properties": { "内容": "松朗園【短期入所療養介護（介護老人保健施設）】熊本県上天草市松島町今泉３２番地１", "url": "https://www.kaigokensaku.mhlw.go.jp/43/index.php?action_kouhyou_detail_004_kani=true&JigyosyoCd=4353280037-00&ServiceCd=220&Type=search", "url2": "http://www.ichiyokai.or.jp" }, "geometry": { "type": "Point", "coordinates": [ 130.404441, 32.5019143 ] } },
{ "type": "Feature", "properties": { "内容": "介護老人保健施設ほんごう苑【短期入所療養介護（介護老人保健施設）】熊本県上天草市大矢野町登立8607番地", "url": "https://www.kaigokensaku.mhlw.go.jp/43/index.php?action_kouhyou_detail_004_kani=true&JigyosyoCd=4353280060-00&ServiceCd=220&Type=search", "url2": "http://kaigo-kumamoto.jp/search/institution.php?id=81" }, "geometry": { "type": "Point", "coordinates": [ 130.433381700000041, 32.5938772 ] } },
{ "type": "Feature", "properties": { "内容": "介護老人保健施設　松幸【短期入所療養介護（介護老人保健施設）】熊本県宇城市松橋町西下郷544", "url": "https://www.kaigokensaku.mhlw.go.jp/43/index.php?action_kouhyou_detail_004_kani=true&JigyosyoCd=4351380011-00&ServiceCd=220&Type=search", "url2": null }, "geometry": { "type": "Point", "coordinates": [ 130.6908932, 32.634965 ] } },
{ "type": "Feature", "properties": { "内容": "介護老人保健施設　青海苑【短期入所療養介護（介護老人保健施設）】熊本県宇城市三角町郡浦７３９番地8", "url": "https://www.kaigokensaku.mhlw.go.jp/43/index.php?action_kouhyou_detail_004_kani=true&JigyosyoCd=4352280012-00&ServiceCd=220&Type=search", "url2": "seikaien.jp" }, "geometry": { "type": "Point", "coordinates": [ 130.536549700000023, 32.6204276 ] } },
{ "type": "Feature", "properties": { "内容": "介護老人保健施設　阿蘇グリーンヒル【短期入所療養介護（介護老人保健施設）】熊本県阿蘇市一の宮町宮地121番地", "url": "https://www.kaigokensaku.mhlw.go.jp/43/index.php?action_kouhyou_detail_004_kani=true&JigyosyoCd=4352780011-00&ServiceCd=220&Type=search", "url2": null }, "geometry": { "type": "Point", "coordinates": [ 131.117519499999958, 32.9520813 ] } },
{ "type": "Feature", "properties": { "内容": "介護老人保健施設　愛・ライフ内牧【短期入所療養介護（介護老人保健施設）】熊本県阿蘇市内牧１１０５－１", "url": "https://www.kaigokensaku.mhlw.go.jp/43/index.php?action_kouhyou_detail_004_kani=true&JigyosyoCd=4352780029-00&ServiceCd=220&Type=search", "url2": "http://www.asospahp.jp" }, "geometry": { "type": "Point", "coordinates": [ 131.04503950000003, 32.971701 ] } },
{ "type": "Feature", "properties": { "内容": "介護老人保健施設　本渡ケア・ホーム【短期入所療養介護（介護老人保健施設）】熊本県天草市下浦町2090-1", "url": "https://www.kaigokensaku.mhlw.go.jp/43/index.php?action_kouhyou_detail_004_kani=true&JigyosyoCd=4350780013-00&ServiceCd=220&Type=search", "url2": null }, "geometry": { "type": "Point", "coordinates": [ 130.2222898, 32.4245016 ] } },
{ "type": "Feature", "properties": { "内容": "独立行政法人地域医療機能推進機構天草中央総合病院附属介護老人保健施設【短期入所療養介護（介護老人保健施設）】熊本県天草市東町１０１", "url": "https://www.kaigokensaku.mhlw.go.jp/43/index.php?action_kouhyou_detail_004_kani=true&JigyosyoCd=4350780021-00&ServiceCd=220&Type=search", "url2": "http://amakusa.jcho.go.jp/rouken/" }, "geometry": { "type": "Point", "coordinates": [ 130.200243600000022, 32.4493272 ] } },
{ "type": "Feature", "properties": { "内容": "介護老人保健施設　夢織りの里　天草【短期入所療養介護（介護老人保健施設）】熊本県天草市楠浦町字掛場59番5", "url": "https://www.kaigokensaku.mhlw.go.jp/43/index.php?action_kouhyou_detail_004_kani=true&JigyosyoCd=4351580016-00&ServiceCd=220&Type=search", "url2": "http://www.kunpukai.or.jp/" }, "geometry": { "type": "Point", "coordinates": [ 130.215357199999971, 32.4228962 ] } },
{ "type": "Feature", "properties": { "内容": "介護老人保健施設　ケアセンター鶴丸【短期入所療養介護（介護老人保健施設）】熊本県天草市久玉町62番地1", "url": "https://www.kaigokensaku.mhlw.go.jp/43/index.php?action_kouhyou_detail_004_kani=true&JigyosyoCd=4350980019-00&ServiceCd=220&Type=search", "url2": null }, "geometry": { "type": "Point", "coordinates": [ 130.028586899999937, 32.2070128 ] } },
{ "type": "Feature", "properties": { "内容": "介護老人保健施設　ケーナ・ガーデン【短期入所療養介護（介護老人保健施設）】熊本県天草市河浦町河浦4778番地３", "url": "https://www.kaigokensaku.mhlw.go.jp/43/index.php?action_kouhyou_detail_004_kani=true&JigyosyoCd=4353280003-00&ServiceCd=220&Type=search", "url2": null }, "geometry": { "type": "Point", "coordinates": [ 130.074907100000019, 32.3274193 ] } },
{ "type": "Feature", "properties": { "内容": "介護老人保健施設ブルーマリン天草【短期入所療養介護（介護老人保健施設）】熊本県天草市五和町御領9133番地", "url": "https://www.kaigokensaku.mhlw.go.jp/43/index.php?action_kouhyou_detail_004_kani=true&JigyosyoCd=4353280045-00&ServiceCd=220&Type=search", "url2": "https://www.bluemarine-amakusa.jp/" }, "geometry": { "type": "Point", "coordinates": [ 130.193435309262071, 32.531116286583803 ] } },
{ "type": "Feature", "properties": { "内容": "桜の里　指定短期入所療養介護事業所【短期入所療養介護（介護老人保健施設）】熊本県合志市須屋702", "url": "https://www.kaigokensaku.mhlw.go.jp/43/index.php?action_kouhyou_detail_004_kani=true&JigyosyoCd=4352680021-00&ServiceCd=220&Type=search", "url2": "http://www.nakayamakai.jp/index.html" }, "geometry": { "type": "Point", "coordinates": [ 130.73022549999996, 32.8590124 ] } },
{ "type": "Feature", "properties": { "内容": "介護老人保健施設　ひらせ記念リハビリ苑【短期入所療養介護（介護老人保健施設）】熊本県合志市福原3111", "url": "https://www.kaigokensaku.mhlw.go.jp/43/index.php?action_kouhyou_detail_004_kani=true&JigyosyoCd=4352680047-00&ServiceCd=220&Type=search", "url2": null }, "geometry": { "type": "Point", "coordinates": [ 130.784446300000013, 32.8787523 ] } },
{ "type": "Feature", "properties": { "内容": "介護老人保健施設　有隣【短期入所療養介護（介護老人保健施設）】熊本県合志市野々島東原4414-17", "url": "https://www.kaigokensaku.mhlw.go.jp/43/index.php?action_kouhyou_detail_004_kani=true&JigyosyoCd=4351680014-00&ServiceCd=220&Type=search", "url2": "http://yurin-kaigo.com" }, "geometry": { "type": "Point", "coordinates": [ 130.789707, 32.8859878 ] } },
{ "type": "Feature", "properties": { "内容": "介護老人保健施設　なごみの里【短期入所療養介護（介護老人保健施設）】熊本県下益城郡美里町堅志田192-1", "url": "https://www.kaigokensaku.mhlw.go.jp/43/index.php?action_kouhyou_detail_004_kani=true&JigyosyoCd=4352380002-00&ServiceCd=220&Type=search", "url2": "http://www.ko-wakai.jp" }, "geometry": { "type": "Point", "coordinates": [ 130.790556, 32.6470131 ] } },
{ "type": "Feature", "properties": { "内容": "介護老人保健施設　聖ルカ苑【短期入所療養介護（介護老人保健施設）】熊本県玉名郡長洲町宮野2772-10", "url": "https://www.kaigokensaku.mhlw.go.jp/43/index.php?action_kouhyou_detail_004_kani=true&JigyosyoCd=4352480018-00&ServiceCd=220&Type=search", "url2": "http://seiruka.net/" }, "geometry": { "type": "Point", "coordinates": [ 130.493801699999949, 32.9516211 ] } },
{ "type": "Feature", "properties": { "内容": "介護老人保健施設　清風苑【短期入所療養介護（介護老人保健施設）】熊本県玉名郡和水町上板楠1697-1", "url": "https://www.kaigokensaku.mhlw.go.jp/43/index.php?action_kouhyou_detail_004_kani=true&JigyosyoCd=4352480026-00&ServiceCd=220&Type=search", "url2": null }, "geometry": { "type": "Point", "coordinates": [ 130.614759899999967, 33.0706134 ] } },
{ "type": "Feature", "properties": { "内容": "介護老人保健施設　おおつかの郷【短期入所療養介護（介護老人保健施設）】熊本県菊池郡大津町陣内1165", "url": "https://www.kaigokensaku.mhlw.go.jp/43/index.php?action_kouhyou_detail_004_kani=true&JigyosyoCd=4352680039-00&ServiceCd=220&Type=search", "url2": "http://www.tanakakai.com/otsuka/" }, "geometry": { "type": "Point", "coordinates": [ 130.873184, 32.8629719 ] } },
{ "type": "Feature", "properties": { "内容": "介護老人保健施設サンライズヒル【短期入所療養介護（介護老人保健施設）】熊本県菊池郡菊陽町曲手760", "url": "https://www.kaigokensaku.mhlw.go.jp/43/index.php?action_kouhyou_detail_004_kani=true&JigyosyoCd=4352680013-00&ServiceCd=220&Type=search", "url2": "http://kumareha.net/sunrisehill/" }, "geometry": { "type": "Point", "coordinates": [ 130.834626225656166, 32.839877980816674 ] } },
{ "type": "Feature", "properties": { "内容": "小国郷公立病院組合　おぐに老人保健施設【短期入所療養介護（介護老人保健施設）】熊本県阿蘇郡小国町宮原１７４２番地の１", "url": "https://www.kaigokensaku.mhlw.go.jp/43/index.php?action_kouhyou_detail_004_kani=true&JigyosyoCd=4352780037-00&ServiceCd=220&Type=search", "url2": "http://www.ogunihp.or.jp" }, "geometry": { "type": "Point", "coordinates": [ 131.065161, 33.1214594 ] } },
{ "type": "Feature", "properties": { "内容": "介護老人保健施設　リハセンターひばり【短期入所療養介護（介護老人保健施設）】熊本県阿蘇郡南阿蘇村吉田2044-2", "url": "https://www.kaigokensaku.mhlw.go.jp/43/index.php?action_kouhyou_detail_004_kani=true&JigyosyoCd=4352780003-00&ServiceCd=220&Type=search", "url2": "http://www.daitokukai.info/hibari/index.html" }, "geometry": { "type": "Point", "coordinates": [ 131.078592100000037, 32.8325254 ] } },
{ "type": "Feature", "properties": { "内容": "介護老人保健施設　御船清流園【短期入所療養介護（介護老人保健施設）】上益城郡御船町御船１０６２番地１", "url": "https://www.kaigokensaku.mhlw.go.jp/43/index.php?action_kouhyou_detail_004_kani=true&JigyosyoCd=4352880035-00&ServiceCd=220&Type=search", "url2": null }, "geometry": { "type": "Point", "coordinates": [ 130.801174899999978, 32.7113464 ] } },
{ "type": "Feature", "properties": { "内容": "介護老人保健施設平成唯仁館【短期入所療養介護（介護老人保健施設）】熊本県上益城郡益城町宮園１１３９－１", "url": "https://www.kaigokensaku.mhlw.go.jp/43/index.php?action_kouhyou_detail_004_kani=true&JigyosyoCd=4352880043-00&ServiceCd=220&Type=search", "url2": "https://seijin-kumamoto.or.jp/heisei-ijikan/" }, "geometry": { "type": "Point", "coordinates": [ 130.814604199999962, 32.7939523 ] } },
{ "type": "Feature", "properties": { "内容": "介護老人保健施設ケアポート益城【短期入所療養介護（介護老人保健施設）】熊本県上益城郡益城町安永1014介護老人保健施設ケアポート益城", "url": "https://www.kaigokensaku.mhlw.go.jp/43/index.php?action_kouhyou_detail_004_kani=true&JigyosyoCd=4352880068-00&ServiceCd=220&Type=search", "url2": "http://www.jikou-kai.com/" }, "geometry": { "type": "Point", "coordinates": [ 130.808560686755385, 32.79666802822755 ] } },
{ "type": "Feature", "properties": { "内容": "介護老人保健施設ナーシングケア緑風苑【短期入所療養介護（介護老人保健施設）】熊本県上益城郡甲佐町白旗271", "url": "https://www.kaigokensaku.mhlw.go.jp/43/index.php?action_kouhyou_detail_004_kani=true&JigyosyoCd=4352880050-00&ServiceCd=220&Type=search", "url2": null }, "geometry": { "type": "Point", "coordinates": [ 130.7894983, 32.697930700000022 ] } },
{ "type": "Feature", "properties": { "内容": "介護老人保健施設　彩雲苑【短期入所療養介護（介護老人保健施設）】熊本県上益城郡山都町北中島2701", "url": "https://www.kaigokensaku.mhlw.go.jp/43/index.php?action_kouhyou_detail_004_kani=true&JigyosyoCd=4352880019-00&ServiceCd=220&Type=search", "url2": null }, "geometry": { "type": "Point", "coordinates": [ 130.938408, 32.7328352 ] } },
{ "type": "Feature", "properties": { "内容": "老人保健施設　ライフライト矢部【短期入所療養介護（介護老人保健施設）】熊本県上益城郡山都町下市60", "url": "https://www.kaigokensaku.mhlw.go.jp/43/index.php?action_kouhyou_detail_004_kani=true&JigyosyoCd=4352880027-00&ServiceCd=220&Type=search", "url2": "http://www.kaigocsc.co.jp/lifelight/" }, "geometry": { "type": "Point", "coordinates": [ 130.987121800000068, 32.6835054 ] } },
{ "type": "Feature", "properties": { "内容": "介護老人保健施設八祥苑【短期入所療養介護（介護老人保健施設）】熊本県八代郡氷川町早尾132番地", "url": "https://www.kaigokensaku.mhlw.go.jp/43/index.php?action_kouhyou_detail_004_kani=true&JigyosyoCd=4352980017-00&ServiceCd=220&Type=search", "url2": "http://www.8shouen.org/index.html" }, "geometry": { "type": "Point", "coordinates": [ 130.67711158785869, 32.550469513178896 ] } },
{ "type": "Feature", "properties": { "内容": "介護老人保健施設　新清苑【短期入所療養介護（介護老人保健施設）】熊本県葦北郡芦北町大字芦北２７２７番１", "url": "https://www.kaigokensaku.mhlw.go.jp/43/index.php?action_kouhyou_detail_004_kani=true&JigyosyoCd=4353080015-00&ServiceCd=220&Type=search", "url2": "https://mc-shinseikai.com/" }, "geometry": { "type": "Point", "coordinates": [ 130.493316600000071, 32.2981664 ] } },
{ "type": "Feature", "properties": { "内容": "介護老人保健施設シルバーエイト【短期入所療養介護（介護老人保健施設）】熊本県球磨郡多良木町多良木４２１０", "url": "https://www.kaigokensaku.mhlw.go.jp/43/index.php?action_kouhyou_detail_004_kani=true&JigyosyoCd=4353180039-00&ServiceCd=220&Type=search", "url2": "http://www.taragihp.jp/s8/" }, "geometry": { "type": "Point", "coordinates": [ 130.925573799999938, 32.2540896 ] } },
{ "type": "Feature", "properties": { "内容": "介護老人保健施設サンライフみのり【短期入所療養介護（介護老人保健施設）】熊本県球磨郡相良村大字川辺１７７８番地", "url": "https://www.kaigokensaku.mhlw.go.jp/43/index.php?action_kouhyou_detail_004_kani=true&JigyosyoCd=4353180013-00&ServiceCd=220&Type=search", "url2": "http://www.pe-toru.or.jp" }, "geometry": { "type": "Point", "coordinates": [ 130.815287799999965, 32.2570878 ] } },
{ "type": "Feature", "properties": { "内容": "介護老人保健施設つつじのさと【短期入所療養介護（介護老人保健施設）】熊本県球磨郡山江村大字山田乙1705番地", "url": "https://www.kaigokensaku.mhlw.go.jp/43/index.php?action_kouhyou_detail_004_kani=true&JigyosyoCd=4353180021-00&ServiceCd=220&Type=search", "url2": "https://mokkeikai.jp/" }, "geometry": { "type": "Point", "coordinates": [ 130.773140792846704, 32.242549493399352 ] } },
{ "type": "Feature", "properties": { "内容": "社会医療法人　稲穂会　介護老人保健施設　慈恵苑【短期入所療養介護（介護老人保健施設）】熊本県天草郡苓北町上津深江278-10", "url": "https://www.kaigokensaku.mhlw.go.jp/43/index.php?action_kouhyou_detail_004_kani=true&JigyosyoCd=4353280011-00&ServiceCd=220&Type=search", "url2": "http://www.inahokai.com" }, "geometry": { "type": "Point", "coordinates": [ 130.067922599999946, 32.5170923 ] } }
]
}
