{
"type": "FeatureCollection",
"name": "geo_43_中学校",
"crs": { "type": "name", "properties": { "name": "urn:ogc:def:crs:EPSG::6668" } },
"features": [
{ "type": "Feature", "properties": { "P29_001": "43101", "P29_002": "C143110000018", "P29_003": "16002", "P29_004": "熊本大学教育学部附属中学校", "P29_005": "熊本県熊本市中央区京町本丁5-12", "P29_006": "1", "P29_007": "1", "P29_008": "00", "P29_009": null }, "geometry": { "type": "Point", "coordinates": [ 130.703551286778975, 32.81818838336536 ] } },
{ "type": "Feature", "properties": { "P29_001": "43101", "P29_002": "C143210000016", "P29_003": "16002", "P29_004": "熊本市立出水中学校", "P29_005": "熊本県熊本市中央区出水5-3-1", "P29_006": "3", "P29_007": "1", "P29_008": "00", "P29_009": null }, "geometry": { "type": "Point", "coordinates": [ 130.726585865432668, 32.783688007969779 ] } },
{ "type": "Feature", "properties": { "P29_001": "43101", "P29_002": "C143210000025", "P29_003": "16002", "P29_004": "熊本市立白川中学校", "P29_005": "熊本県熊本市中央区大江3-1-12", "P29_006": "3", "P29_007": "1", "P29_008": "00", "P29_009": null }, "geometry": { "type": "Point", "coordinates": [ 130.721927918783848, 32.803640358734533 ] } },
{ "type": "Feature", "properties": { "P29_001": "43101", "P29_002": "C143210000034", "P29_003": "16002", "P29_004": "熊本市立藤園中学校", "P29_005": "熊本県熊本市中央区千葉城町5-2", "P29_006": "3", "P29_007": "1", "P29_008": "00", "P29_009": null }, "geometry": { "type": "Point", "coordinates": [ 130.70814923730353, 32.808989730003617 ] } },
{ "type": "Feature", "properties": { "P29_001": "43103", "P29_002": "C143210000043", "P29_003": "16002", "P29_004": "熊本市立花陵中学校", "P29_005": "熊本県熊本市西区八島2-14-1", "P29_006": "3", "P29_007": "1", "P29_008": "00", "P29_009": null }, "geometry": { "type": "Point", "coordinates": [ 130.678558377880222, 32.779318313668504 ] } },
{ "type": "Feature", "properties": { "P29_001": "43104", "P29_002": "C143210000052", "P29_003": "16002", "P29_004": "熊本市立城南中学校", "P29_005": "熊本県熊本市南区八幡8-1-1", "P29_006": "3", "P29_007": "1", "P29_008": "00", "P29_009": null }, "geometry": { "type": "Point", "coordinates": [ 130.686729859801687, 32.744057115767589 ] } },
{ "type": "Feature", "properties": { "P29_001": "43101", "P29_002": "C143210000061", "P29_003": "16002", "P29_004": "熊本市立京陵中学校", "P29_005": "熊本県熊本市中央区京町本丁1-14", "P29_006": "3", "P29_007": "1", "P29_008": "00", "P29_009": null }, "geometry": { "type": "Point", "coordinates": [ 130.704140186675204, 32.817290341050686 ] } },
{ "type": "Feature", "properties": { "P29_001": "43101", "P29_002": "C143210000070", "P29_003": "16002", "P29_004": "熊本市立江南中学校", "P29_005": "熊本県熊本市中央区本山町75", "P29_006": "3", "P29_007": "1", "P29_008": "00", "P29_009": null }, "geometry": { "type": "Point", "coordinates": [ 130.699297956093773, 32.787624563964528 ] } },
{ "type": "Feature", "properties": { "P29_001": "43101", "P29_002": "C143210000089", "P29_003": "16002", "P29_004": "熊本市立江原中学校", "P29_005": "熊本県熊本市中央区琴平2-9-59", "P29_006": "3", "P29_007": "1", "P29_008": "00", "P29_009": null }, "geometry": { "type": "Point", "coordinates": [ 130.705377364260841, 32.784175522546839 ] } },
{ "type": "Feature", "properties": { "P29_001": "43101", "P29_002": "C143210000098", "P29_003": "16002", "P29_004": "熊本市立竜南中学校", "P29_005": "熊本県熊本市中央区坪井4-16-1", "P29_006": "3", "P29_007": "1", "P29_008": "00", "P29_009": null }, "geometry": { "type": "Point", "coordinates": [ 130.7149793409545, 32.817885949408257 ] } },
{ "type": "Feature", "properties": { "P29_001": "43101", "P29_002": "C143210000105", "P29_003": "16002", "P29_004": "熊本市立桜山中学校", "P29_005": "熊本県熊本市中央区黒髪5-13-1", "P29_006": "3", "P29_007": "1", "P29_008": "00", "P29_009": null }, "geometry": { "type": "Point", "coordinates": [ 130.732002423344994, 32.816383420572805 ] } },
{ "type": "Feature", "properties": { "P29_001": "43101", "P29_002": "C143210000114", "P29_003": "16002", "P29_004": "熊本市立西山中学校", "P29_005": "熊本県熊本市中央区島崎1-27-1", "P29_006": "3", "P29_007": "1", "P29_008": "00", "P29_009": null }, "geometry": { "type": "Point", "coordinates": [ 130.692832999346336, 32.803545003416055 ] } },
{ "type": "Feature", "properties": { "P29_001": "43102", "P29_002": "C143210000123", "P29_003": "16002", "P29_004": "熊本市立湖東中学校", "P29_005": "熊本県熊本市東区湖東1-13-1", "P29_006": "3", "P29_007": "1", "P29_008": "00", "P29_009": null }, "geometry": { "type": "Point", "coordinates": [ 130.748080031350582, 32.781342858434151 ] } },
{ "type": "Feature", "properties": { "P29_001": "43104", "P29_002": "C143210000132", "P29_003": "16002", "P29_004": "熊本市立託麻中学校", "P29_005": "熊本県熊本市南区出仲間6-4-1", "P29_006": "3", "P29_007": "1", "P29_008": "00", "P29_009": null }, "geometry": { "type": "Point", "coordinates": [ 130.716884728712841, 32.772418598568976 ] } },
{ "type": "Feature", "properties": { "P29_001": "43103", "P29_002": "C143210000141", "P29_003": "16002", "P29_004": "熊本市立三和中学校", "P29_005": "熊本県熊本市西区上高橋1-4-1", "P29_006": "3", "P29_007": "1", "P29_008": "00", "P29_009": null }, "geometry": { "type": "Point", "coordinates": [ 130.665185380885276, 32.785992103588526 ] } },
{ "type": "Feature", "properties": { "P29_001": "43103", "P29_002": "C143210000150", "P29_003": "16002", "P29_004": "熊本市立城西中学校", "P29_005": "熊本県熊本市西区小島8-17-1", "P29_006": "3", "P29_007": "1", "P29_008": "00", "P29_009": null }, "geometry": { "type": "Point", "coordinates": [ 130.633000069704849, 32.782570678925794 ] } },
{ "type": "Feature", "properties": { "P29_001": "43101", "P29_002": "C143210000169", "P29_003": "16002", "P29_004": "熊本市立帯山中学校", "P29_005": "熊本県熊本市中央区帯山1-35-32", "P29_006": "3", "P29_007": "1", "P29_008": "00", "P29_009": null }, "geometry": { "type": "Point", "coordinates": [ 130.745037510200376, 32.801209040243272 ] } },
{ "type": "Feature", "properties": { "P29_001": "43102", "P29_002": "C143210000178", "P29_003": "16002", "P29_004": "熊本市立錦ケ丘中学校", "P29_005": "熊本県熊本市東区錦ヶ丘22-1", "P29_006": "3", "P29_007": "1", "P29_008": "00", "P29_009": null }, "geometry": { "type": "Point", "coordinates": [ 130.757046964958676, 32.790925469325053 ] } },
{ "type": "Feature", "properties": { "P29_001": "43102", "P29_002": "C143210000187", "P29_003": "16002", "P29_004": "熊本市立東野中学校", "P29_005": "熊本県熊本市東区東野3-6-50", "P29_006": "3", "P29_007": "1", "P29_008": "00", "P29_009": null }, "geometry": { "type": "Point", "coordinates": [ 130.767968770066716, 32.774574894348277 ] } },
{ "type": "Feature", "properties": { "P29_001": "43202", "P29_002": "C143210000196", "P29_003": "16002", "P29_004": "八代市立第一中学校", "P29_005": "熊本県八代市北の丸町1-29", "P29_006": "3", "P29_007": "1", "P29_008": "00", "P29_009": null }, "geometry": { "type": "Point", "coordinates": [ 130.599431388752436, 32.510346002547116 ] } },
{ "type": "Feature", "properties": { "P29_001": "43202", "P29_002": "C143210000203", "P29_003": "16002", "P29_004": "八代市立第二中学校", "P29_005": "熊本県八代市上日置町2248-1", "P29_006": "3", "P29_007": "1", "P29_008": "00", "P29_009": null }, "geometry": { "type": "Point", "coordinates": [ 130.624539250742743, 32.5109708695176 ] } },
{ "type": "Feature", "properties": { "P29_001": "43202", "P29_002": "C143210000212", "P29_003": "16002", "P29_004": "八代市立第三中学校", "P29_005": "熊本県八代市中北町3378-5", "P29_006": "3", "P29_007": "1", "P29_008": "00", "P29_009": null }, "geometry": { "type": "Point", "coordinates": [ 130.584477200312818, 32.496462533222299 ] } },
{ "type": "Feature", "properties": { "P29_001": "43202", "P29_002": "C143210000221", "P29_003": "16002", "P29_004": "八代市立第四中学校", "P29_005": "熊本県八代市古閑上町182-2", "P29_006": "3", "P29_007": "1", "P29_008": "00", "P29_009": null }, "geometry": { "type": "Point", "coordinates": [ 130.61228547116329, 32.519046588164883 ] } },
{ "type": "Feature", "properties": { "P29_001": "43202", "P29_002": "C143210000230", "P29_003": "16002", "P29_004": "八代市立第五中学校", "P29_005": "熊本県八代市豊原下町3807", "P29_006": "3", "P29_007": "1", "P29_008": "00", "P29_009": null }, "geometry": { "type": "Point", "coordinates": [ 130.615251105565932, 32.483649560404757 ] } },
{ "type": "Feature", "properties": { "P29_001": "43202", "P29_002": "C143210000249", "P29_003": "16002", "P29_004": "八代市立第六中学校", "P29_005": "熊本県八代市水島町2065-4", "P29_006": "3", "P29_007": "1", "P29_008": "00", "P29_009": null }, "geometry": { "type": "Point", "coordinates": [ 130.57977224067551, 32.480610737265501 ] } },
{ "type": "Feature", "properties": { "P29_001": "43202", "P29_002": "C143210000258", "P29_003": "16002", "P29_004": "八代市立第七中学校", "P29_005": "熊本県八代市郡築七番町41-2", "P29_006": "3", "P29_007": "1", "P29_008": "00", "P29_009": null }, "geometry": { "type": "Point", "coordinates": [ 130.576648631112789, 32.537420208567561 ] } },
{ "type": "Feature", "properties": { "P29_001": "43202", "P29_002": "C143210000267", "P29_003": "16002", "P29_004": "八代市立第八中学校", "P29_005": "熊本県八代市宮地町611-1", "P29_006": "3", "P29_007": "1", "P29_008": "00", "P29_009": null }, "geometry": { "type": "Point", "coordinates": [ 130.635154053702166, 32.498400717818122 ] } },
{ "type": "Feature", "properties": { "P29_001": "43202", "P29_002": "C143210000276", "P29_003": "16002", "P29_004": "八代市立日奈久中学校", "P29_005": "熊本県八代市日奈久竹之内町4332-1", "P29_006": "3", "P29_007": "1", "P29_008": "00", "P29_009": null }, "geometry": { "type": "Point", "coordinates": [ 130.579150474287673, 32.439250267362702 ] } },
{ "type": "Feature", "properties": { "P29_001": "43202", "P29_002": "C143210000285", "P29_003": "16002", "P29_004": "八代市立二見中学校", "P29_005": "熊本県八代市二見本町852", "P29_006": "3", "P29_007": "1", "P29_008": "00", "P29_009": null }, "geometry": { "type": "Point", "coordinates": [ 130.55803396418392, 32.403377321107726 ] } },
{ "type": "Feature", "properties": { "P29_001": "43203", "P29_002": "C143210000294", "P29_003": "16002", "P29_004": "人吉市立第一中学校", "P29_005": "熊本県人吉市土手町36-3", "P29_006": "3", "P29_007": "1", "P29_008": "00", "P29_009": null }, "geometry": { "type": "Point", "coordinates": [ 130.759105691249488, 32.207682994280049 ] } },
{ "type": "Feature", "properties": { "P29_001": "43203", "P29_002": "C143210000301", "P29_003": "16002", "P29_004": "人吉市立第二中学校", "P29_005": "熊本県人吉市上林町622", "P29_006": "3", "P29_007": "1", "P29_008": "00", "P29_009": null }, "geometry": { "type": "Point", "coordinates": [ 130.744079245899513, 32.22132179979787 ] } },
{ "type": "Feature", "properties": { "P29_001": "43203", "P29_002": "C143210000310", "P29_003": "16002", "P29_004": "人吉市立第三中学校", "P29_005": "熊本県人吉市上田代町2008", "P29_006": "3", "P29_007": "1", "P29_008": "00", "P29_009": null }, "geometry": { "type": "Point", "coordinates": [ 130.804013466889131, 32.167277178479495 ] } },
{ "type": "Feature", "properties": { "P29_001": "43204", "P29_002": "C143210000329", "P29_003": "16002", "P29_004": "荒尾市立荒尾第三中学校", "P29_005": "熊本県荒尾市本井手700", "P29_006": "3", "P29_007": "1", "P29_008": "00", "P29_009": null }, "geometry": { "type": "Point", "coordinates": [ 130.475432717098016, 32.988985128001502 ] } },
{ "type": "Feature", "properties": { "P29_001": "43204", "P29_002": "C143210000338", "P29_003": "16002", "P29_004": "荒尾市立荒尾第四中学校", "P29_005": "熊本県荒尾市野原1528", "P29_006": "3", "P29_007": "1", "P29_008": "00", "P29_009": null }, "geometry": { "type": "Point", "coordinates": [ 130.481554818995221, 32.96193054886907 ] } },
{ "type": "Feature", "properties": { "P29_001": "43206", "P29_002": "C143210000347", "P29_003": "16002", "P29_004": "玉名市立玉名中学校", "P29_005": "熊本県玉名市中尾380", "P29_006": "3", "P29_007": "1", "P29_008": "00", "P29_009": null }, "geometry": { "type": "Point", "coordinates": [ 130.546516374711189, 32.935371367304988 ] } },
{ "type": "Feature", "properties": { "P29_001": "43206", "P29_002": "C143210000356", "P29_003": "16002", "P29_004": "玉名市立有明中学校", "P29_005": "熊本県玉名市大浜町1765-8", "P29_006": "3", "P29_007": "1", "P29_008": "00", "P29_009": null }, "geometry": { "type": "Point", "coordinates": [ 130.552613546693806, 32.896858075821193 ] } },
{ "type": "Feature", "properties": { "P29_001": "43206", "P29_002": "C143210000365", "P29_003": "16002", "P29_004": "玉名市立玉南中学校", "P29_005": "熊本県玉名市伊倉北方2636", "P29_006": "3", "P29_007": "1", "P29_008": "00", "P29_009": null }, "geometry": { "type": "Point", "coordinates": [ 130.578695725506947, 32.908395905091965 ] } },
{ "type": "Feature", "properties": { "P29_001": "43206", "P29_002": "C143210000374", "P29_003": "16002", "P29_004": "玉名市立玉陵中学校", "P29_005": "熊本県玉名市玉名900", "P29_006": "3", "P29_007": "1", "P29_008": "00", "P29_009": null }, "geometry": { "type": "Point", "coordinates": [ 130.577853318416118, 32.943750110330065 ] } },
{ "type": "Feature", "properties": { "P29_001": "43208", "P29_002": "C143210000383", "P29_003": "16002", "P29_004": "山鹿市立山鹿中学校", "P29_005": "熊本県山鹿市山鹿446", "P29_006": "3", "P29_007": "1", "P29_008": "00", "P29_009": null }, "geometry": { "type": "Point", "coordinates": [ 130.696350186801453, 33.013577485950051 ] } },
{ "type": "Feature", "properties": { "P29_001": "43211", "P29_002": "C143210000392", "P29_003": "16002", "P29_004": "宇土市立鶴城中学校", "P29_005": "熊本県宇土市新小路町151", "P29_006": "3", "P29_007": "1", "P29_008": "00", "P29_009": null }, "geometry": { "type": "Point", "coordinates": [ 130.661351765424854, 32.683401645666102 ] } },
{ "type": "Feature", "properties": { "P29_001": "43211", "P29_002": "C143210000409", "P29_003": "16002", "P29_004": "宇土市立住吉中学校", "P29_005": "熊本県宇土市笹原町1700", "P29_006": "3", "P29_007": "1", "P29_008": "00", "P29_009": null }, "geometry": { "type": "Point", "coordinates": [ 130.610280509704268, 32.700322515848192 ] } },
{ "type": "Feature", "properties": { "P29_001": "43211", "P29_002": "C143210000418", "P29_003": "16002", "P29_004": "宇土市立網田中学校", "P29_005": "熊本県宇土市下網田町1120", "P29_006": "3", "P29_007": "1", "P29_008": "00", "P29_009": null }, "geometry": { "type": "Point", "coordinates": [ 130.550081686066591, 32.671229459464406 ] } },
{ "type": "Feature", "properties": { "P29_001": "43210", "P29_002": "C143210000427", "P29_003": "16002", "P29_004": "菊池市立菊池北中学校", "P29_005": "熊本県菊池市隈府1515", "P29_006": "3", "P29_007": "1", "P29_008": "00", "P29_009": null }, "geometry": { "type": "Point", "coordinates": [ 130.81915703871195, 32.991754610163198 ] } },
{ "type": "Feature", "properties": { "P29_001": "43210", "P29_002": "C143210000436", "P29_003": "16002", "P29_004": "菊池市立菊池南中学校", "P29_005": "熊本県菊池市隈府833", "P29_006": "3", "P29_007": "1", "P29_008": "00", "P29_009": null }, "geometry": { "type": "Point", "coordinates": [ 130.811618550100548, 32.977673806068175 ] } },
{ "type": "Feature", "properties": { "P29_001": "43205", "P29_002": "C143210000445", "P29_003": "16002", "P29_004": "水俣市立水俣第一中学校浜分校", "P29_005": "熊本県水俣市天神町1-2-1", "P29_006": "3", "P29_007": "1", "P29_008": "00", "P29_009": null }, "geometry": { "type": "Point", "coordinates": [ 130.405888225432307, 32.210123326539261 ] } },
{ "type": "Feature", "properties": { "P29_001": "43102", "P29_002": "C143210000454", "P29_003": "16002", "P29_004": "熊本市立西原中学校", "P29_005": "熊本県熊本市東区保田窪4-9-1", "P29_006": "3", "P29_007": "1", "P29_008": "00", "P29_009": null }, "geometry": { "type": "Point", "coordinates": [ 130.755802025570375, 32.809289976517682 ] } },
{ "type": "Feature", "properties": { "P29_001": "43103", "P29_002": "C143210000463", "P29_003": "16002", "P29_004": "熊本市立芳野中学校", "P29_005": "熊本県熊本市西区河内町野出1420-46", "P29_006": "3", "P29_007": "1", "P29_008": "00", "P29_009": null }, "geometry": { "type": "Point", "coordinates": [ 130.640543496926028, 32.841164390964664 ] } },
{ "type": "Feature", "properties": { "P29_001": "43103", "P29_002": "C143210000472", "P29_003": "16002", "P29_004": "熊本市立河内中学校", "P29_005": "熊本県熊本市西区河内町船津2470-1", "P29_006": "3", "P29_007": "1", "P29_008": "00", "P29_009": null }, "geometry": { "type": "Point", "coordinates": [ 130.590615864743768, 32.828423156338211 ] } },
{ "type": "Feature", "properties": { "P29_001": "43104", "P29_002": "C143210000481", "P29_003": "16002", "P29_004": "熊本市立飽田中学校", "P29_005": "熊本県熊本市南区孫代町72", "P29_006": "3", "P29_007": "1", "P29_008": "00", "P29_009": null }, "geometry": { "type": "Point", "coordinates": [ 130.653560131443868, 32.760031605280659 ] } },
{ "type": "Feature", "properties": { "P29_001": "43104", "P29_002": "C143210000490", "P29_003": "16002", "P29_004": "熊本市立天明中学校", "P29_005": "熊本県熊本市南区奥古閑町2146-1", "P29_006": "3", "P29_007": "1", "P29_008": "00", "P29_009": null }, "geometry": { "type": "Point", "coordinates": [ 130.636187964833397, 32.734643772993081 ] } },
{ "type": "Feature", "properties": { "P29_001": "43102", "P29_002": "C143210000506", "P29_003": "16002", "P29_004": "熊本市立二岡中学校", "P29_005": "熊本県熊本市東区戸島3-15-2", "P29_006": "3", "P29_007": "1", "P29_008": "00", "P29_009": null }, "geometry": { "type": "Point", "coordinates": [ 130.792319795051128, 32.82408885193135 ] } },
{ "type": "Feature", "properties": { "P29_001": "43105", "P29_002": "C143210000515", "P29_003": "16002", "P29_004": "熊本市立北部中学校", "P29_005": "熊本県熊本市北区鹿子木町1", "P29_006": "3", "P29_007": "1", "P29_008": "00", "P29_009": null }, "geometry": { "type": "Point", "coordinates": [ 130.702993968874893, 32.867788937895405 ] } },
{ "type": "Feature", "properties": { "P29_001": "43102", "P29_002": "C143210000524", "P29_003": "16002", "P29_004": "熊本市立東部中学校", "P29_005": "熊本県熊本市東区上南部2-21-1", "P29_006": "3", "P29_007": "1", "P29_008": "00", "P29_009": null }, "geometry": { "type": "Point", "coordinates": [ 130.771135928779813, 32.834042361296959 ] } },
{ "type": "Feature", "properties": { "P29_001": "43213", "P29_002": "C143210000533", "P29_003": "16002", "P29_004": "宇城市立三角中学校", "P29_005": "熊本県宇城市三角町波多2946", "P29_006": "3", "P29_007": "1", "P29_008": "00", "P29_009": null }, "geometry": { "type": "Point", "coordinates": [ 130.493820261886952, 32.618444730804619 ] } },
{ "type": "Feature", "properties": { "P29_001": "43213", "P29_002": "C143210000542", "P29_003": "16002", "P29_004": "宇城市立不知火中学校", "P29_005": "熊本県宇城市不知火町長崎45", "P29_006": "3", "P29_007": "1", "P29_008": "00", "P29_009": null }, "geometry": { "type": "Point", "coordinates": [ 130.656117126692038, 32.646347231657074 ] } },
{ "type": "Feature", "properties": { "P29_001": "43104", "P29_002": "C143210000551", "P29_003": "16002", "P29_004": "熊本市立下益城城南中学校", "P29_005": "熊本県熊本市南区城南町宮地1020-1", "P29_006": "3", "P29_007": "1", "P29_008": "00", "P29_009": null }, "geometry": { "type": "Point", "coordinates": [ 130.728672732828841, 32.71003569393708 ] } },
{ "type": "Feature", "properties": { "P29_001": "43213", "P29_002": "C143210000560", "P29_003": "16002", "P29_004": "宇城市立小川中学校", "P29_005": "熊本県宇城市小川町南部田287-2", "P29_006": "3", "P29_007": "1", "P29_008": "00", "P29_009": null }, "geometry": { "type": "Point", "coordinates": [ 130.713873179554781, 32.590553186922222 ] } },
{ "type": "Feature", "properties": { "P29_001": "43104", "P29_002": "C143210000579", "P29_003": "16002", "P29_004": "熊本市立富合中学校", "P29_005": "熊本県熊本市南区富合町平原56", "P29_006": "3", "P29_007": "1", "P29_008": "00", "P29_009": null }, "geometry": { "type": "Point", "coordinates": [ 130.684204711292381, 32.706932938920687 ] } },
{ "type": "Feature", "properties": { "P29_001": "43213", "P29_002": "C143210000588", "P29_003": "16002", "P29_004": "宇城市立豊野中学校", "P29_005": "熊本県宇城市豊野町糸石3536", "P29_006": "3", "P29_007": "1", "P29_008": "00", "P29_009": null }, "geometry": { "type": "Point", "coordinates": [ 130.750149622737609, 32.63715135348734 ] } },
{ "type": "Feature", "properties": { "P29_001": "43206", "P29_002": "C143210000597", "P29_003": "16002", "P29_004": "玉名市立天水中学校", "P29_005": "熊本県玉名市天水町小天7032", "P29_006": "3", "P29_007": "1", "P29_008": "00", "P29_009": null }, "geometry": { "type": "Point", "coordinates": [ 130.590108997179868, 32.864321001121446 ] } },
{ "type": "Feature", "properties": { "P29_001": "43369", "P29_002": "C143210000604", "P29_003": "16002", "P29_004": "和水町立菊水中学校", "P29_005": "熊本県玉名郡和水町江田4250", "P29_006": "3", "P29_007": "1", "P29_008": "00", "P29_009": null }, "geometry": { "type": "Point", "coordinates": [ 130.604628495816456, 32.980018960259891 ] } },
{ "type": "Feature", "properties": { "P29_001": "43368", "P29_002": "C143210000613", "P29_003": "16002", "P29_004": "長洲町立腹栄中学校", "P29_005": "熊本県玉名郡長洲町腹赤732", "P29_006": "3", "P29_007": "1", "P29_008": "00", "P29_009": null }, "geometry": { "type": "Point", "coordinates": [ 130.473601944267102, 32.926430752058408 ] } },
{ "type": "Feature", "properties": { "P29_001": "43368", "P29_002": "C143210000622", "P29_003": "16002", "P29_004": "長洲町立長洲中学校", "P29_005": "熊本県玉名郡長洲町長洲805-1", "P29_006": "3", "P29_007": "1", "P29_008": "00", "P29_009": null }, "geometry": { "type": "Point", "coordinates": [ 130.440970743395525, 32.940576278686805 ] } },
{ "type": "Feature", "properties": { "P29_001": "43364", "P29_002": "C143210000631", "P29_003": "16002", "P29_004": "玉東町立玉東中学校", "P29_005": "熊本県玉名郡玉東町白木34", "P29_006": "3", "P29_007": "1", "P29_008": "00", "P29_009": null }, "geometry": { "type": "Point", "coordinates": [ 130.626840301982725, 32.91259240768602 ] } },
{ "type": "Feature", "properties": { "P29_001": "43105", "P29_002": "C143210000640", "P29_003": "16002", "P29_004": "熊本市立鹿南中学校", "P29_005": "熊本県熊本市北区植木町滴水1110", "P29_006": "3", "P29_007": "1", "P29_008": "00", "P29_009": null }, "geometry": { "type": "Point", "coordinates": [ 130.674348111131479, 32.896764904691871 ] } },
{ "type": "Feature", "properties": { "P29_001": "43105", "P29_002": "C143210000659", "P29_003": "16002", "P29_004": "熊本市立五霊中学校", "P29_005": "熊本県熊本市北区植木町一木163", "P29_006": "3", "P29_007": "1", "P29_008": "00", "P29_009": null }, "geometry": { "type": "Point", "coordinates": [ 130.690382000019866, 32.905248999189396 ] } },
{ "type": "Feature", "properties": { "P29_001": "43208", "P29_002": "C143210000668", "P29_003": "16002", "P29_004": "山鹿市立米野岳中学校", "P29_005": "熊本県山鹿市鹿央町岩原1350", "P29_006": "3", "P29_007": "1", "P29_008": "00", "P29_009": null }, "geometry": { "type": "Point", "coordinates": [ 130.681840917110151, 32.993284561720479 ] } },
{ "type": "Feature", "properties": { "P29_001": "43403", "P29_002": "C143210000677", "P29_003": "16002", "P29_004": "大津町立大津中学校", "P29_005": "熊本県菊池郡大津町大津1270", "P29_006": "3", "P29_007": "1", "P29_008": "00", "P29_009": null }, "geometry": { "type": "Point", "coordinates": [ 130.869201683160014, 32.873691379673573 ] } },
{ "type": "Feature", "properties": { "P29_001": "43210", "P29_002": "C143210000686", "P29_003": "16002", "P29_004": "菊池市立泗水中学校", "P29_005": "熊本県菊池市泗水町豊水3490", "P29_006": "3", "P29_007": "1", "P29_008": "00", "P29_009": null }, "geometry": { "type": "Point", "coordinates": [ 130.774393265449277, 32.92288044192582 ] } },
{ "type": "Feature", "properties": { "P29_001": "43210", "P29_002": "C143210000695", "P29_003": "16002", "P29_004": "菊池市立七城中学校", "P29_005": "熊本県菊池市七城町甲佐町66", "P29_006": "3", "P29_007": "1", "P29_008": "00", "P29_009": null }, "geometry": { "type": "Point", "coordinates": [ 130.763970932822616, 32.970045512076446 ] } },
{ "type": "Feature", "properties": { "P29_001": "43210", "P29_002": "C143210000702", "P29_003": "16002", "P29_004": "菊池市立旭志中学校", "P29_005": "熊本県菊池市旭志小原224", "P29_006": "3", "P29_007": "1", "P29_008": "00", "P29_009": null }, "geometry": { "type": "Point", "coordinates": [ 130.856259581286878, 32.945648117637226 ] } },
{ "type": "Feature", "properties": { "P29_001": "43216", "P29_002": "C143210000711", "P29_003": "16002", "P29_004": "合志市立合志中学校", "P29_005": "熊本県合志市豊岡955", "P29_006": "3", "P29_007": "1", "P29_008": "00", "P29_009": null }, "geometry": { "type": "Point", "coordinates": [ 130.788699669682075, 32.888794998835401 ] } },
{ "type": "Feature", "properties": { "P29_001": "43216", "P29_002": "C143210000720", "P29_003": "16002", "P29_004": "合志市立西合志中学校", "P29_005": "熊本県合志市野々島4393-1", "P29_006": "3", "P29_007": "1", "P29_008": "00", "P29_009": null }, "geometry": { "type": "Point", "coordinates": [ 130.743837083746143, 32.898202306122343 ] } },
{ "type": "Feature", "properties": { "P29_001": "43404", "P29_002": "C143210000739", "P29_003": "16002", "P29_004": "菊陽町立菊陽中学校", "P29_005": "熊本県菊池郡菊陽町久保田2563", "P29_006": "3", "P29_007": "1", "P29_008": "00", "P29_009": null }, "geometry": { "type": "Point", "coordinates": [ 130.827961941877248, 32.86133277217629 ] } },
{ "type": "Feature", "properties": { "P29_001": "43214", "P29_002": "C143210000748", "P29_003": "16002", "P29_004": "阿蘇市立一の宮中学校", "P29_005": "熊本県阿蘇市一の宮町宮地1669-2", "P29_006": "3", "P29_007": "1", "P29_008": "00", "P29_009": null }, "geometry": { "type": "Point", "coordinates": [ 131.122702046459949, 32.950559196189161 ] } },
{ "type": "Feature", "properties": { "P29_001": "43424", "P29_002": "C143210000757", "P29_003": "16002", "P29_004": "小国町立小国中学校", "P29_005": "熊本県阿蘇郡小国町宮原200-1", "P29_006": "3", "P29_007": "1", "P29_008": "00", "P29_009": null }, "geometry": { "type": "Point", "coordinates": [ 131.07420970396015, 33.119043242161041 ] } },
{ "type": "Feature", "properties": { "P29_001": "43428", "P29_002": "C143210000766", "P29_003": "16002", "P29_004": "高森町立高森中学校", "P29_005": "熊本県阿蘇郡高森町高森1955", "P29_006": "3", "P29_007": "1", "P29_008": "00", "P29_009": null }, "geometry": { "type": "Point", "coordinates": [ 131.124843848928293, 32.822574462138732 ] } },
{ "type": "Feature", "properties": { "P29_001": "43214", "P29_002": "C143210000775", "P29_003": "16002", "P29_004": "阿蘇市立波野中学校", "P29_005": "熊本県阿蘇市波野大字波野3748", "P29_006": "3", "P29_007": "1", "P29_008": "00", "P29_009": null }, "geometry": { "type": "Point", "coordinates": [ 131.200299689914232, 32.940044255221046 ] } },
{ "type": "Feature", "properties": { "P29_001": "43423", "P29_002": "C143210000784", "P29_003": "16002", "P29_004": "南小国町立南小国中学校", "P29_005": "熊本県阿蘇郡南小国町赤馬場1833", "P29_006": "3", "P29_007": "1", "P29_008": "00", "P29_009": null }, "geometry": { "type": "Point", "coordinates": [ 131.070086682786382, 33.095045075437639 ] } },
{ "type": "Feature", "properties": { "P29_001": "43432", "P29_002": "C143210000793", "P29_003": "16002", "P29_004": "西原村立西原中学校", "P29_005": "熊本県阿蘇郡西原村大字小森3251", "P29_006": "3", "P29_007": "1", "P29_008": "00", "P29_009": null }, "geometry": { "type": "Point", "coordinates": [ 130.902255015980842, 32.835916502368541 ] } },
{ "type": "Feature", "properties": { "P29_001": "43441", "P29_002": "C143210000800", "P29_003": "16002", "P29_004": "御船町立御船中学校", "P29_005": "熊本県上益城郡御船町辺田見55", "P29_006": "3", "P29_007": "1", "P29_008": "00", "P29_009": null }, "geometry": { "type": "Point", "coordinates": [ 130.80228595493665, 32.712794466760528 ] } },
{ "type": "Feature", "properties": { "P29_001": "43443", "P29_002": "C143210000819", "P29_003": "16002", "P29_004": "益城町立木山中学校", "P29_005": "熊本県上益城郡益城町寺迫1090", "P29_006": "3", "P29_007": "1", "P29_008": "00", "P29_009": null }, "geometry": { "type": "Point", "coordinates": [ 130.830823736986076, 32.789158109245506 ] } },
{ "type": "Feature", "properties": { "P29_001": "43444", "P29_002": "C143210000828", "P29_003": "16002", "P29_004": "甲佐町立甲佐中学校", "P29_005": "熊本県上益城郡甲佐町中横田300", "P29_006": "3", "P29_007": "1", "P29_008": "00", "P29_009": null }, "geometry": { "type": "Point", "coordinates": [ 130.818361887253303, 32.666670139511176 ] } },
{ "type": "Feature", "properties": { "P29_001": "43442", "P29_002": "C143210000837", "P29_003": "16002", "P29_004": "嘉島町立嘉島中学校", "P29_005": "熊本県上益城郡嘉島町上島887", "P29_006": "3", "P29_007": "1", "P29_008": "00", "P29_009": null }, "geometry": { "type": "Point", "coordinates": [ 130.757224752863891, 32.742661162596448 ] } },
{ "type": "Feature", "properties": { "P29_001": "43443", "P29_002": "C143210000846", "P29_003": "16002", "P29_004": "益城町立益城中学校", "P29_005": "熊本県上益城郡益城町惣領900", "P29_006": "3", "P29_007": "1", "P29_008": "00", "P29_009": null }, "geometry": { "type": "Point", "coordinates": [ 130.79929863291153, 32.778755086777586 ] } },
{ "type": "Feature", "properties": { "P29_001": "43202", "P29_002": "C143210000855", "P29_003": "16002", "P29_004": "八代市立千丁中学校", "P29_005": "熊本県八代市千丁町古閑出新2493-1", "P29_006": "3", "P29_007": "1", "P29_008": "00", "P29_009": null }, "geometry": { "type": "Point", "coordinates": [ 130.630645822531363, 32.536778857636669 ] } },
{ "type": "Feature", "properties": { "P29_001": "43468", "P29_002": "C143210000864", "P29_003": "16002", "P29_004": "氷川町立竜北中学校", "P29_005": "熊本県八代郡氷川町島地665", "P29_006": "3", "P29_007": "1", "P29_008": "00", "P29_009": null }, "geometry": { "type": "Point", "coordinates": [ 130.675894885637547, 32.582241364199604 ] } },
{ "type": "Feature", "properties": { "P29_001": "43202", "P29_002": "C143210000873", "P29_003": "16002", "P29_004": "八代市立泉中学校", "P29_005": "熊本県八代市泉町柿迫1111", "P29_006": "3", "P29_007": "1", "P29_008": "00", "P29_009": null }, "geometry": { "type": "Point", "coordinates": [ 130.811288569610156, 32.548839725869591 ] } },
{ "type": "Feature", "properties": { "P29_001": "43468", "P29_002": "C143210000882", "P29_003": "16002", "P29_004": "氷川町及び八代市中学校組合立氷川中学校", "P29_005": "熊本県八代郡氷川町今39", "P29_006": "3", "P29_007": "1", "P29_008": "00", "P29_009": null }, "geometry": { "type": "Point", "coordinates": [ 130.673940068391914, 32.552831891810058 ] } },
{ "type": "Feature", "properties": { "P29_001": "43482", "P29_002": "C143210000891", "P29_003": "16002", "P29_004": "芦北町立田浦中学校", "P29_005": "熊本県葦北郡芦北町大字田浦760", "P29_006": "3", "P29_007": "1", "P29_008": "00", "P29_009": null }, "geometry": { "type": "Point", "coordinates": [ 130.513916994349586, 32.362324002699452 ] } },
{ "type": "Feature", "properties": { "P29_001": "43482", "P29_002": "C143210000908", "P29_003": "16002", "P29_004": "芦北町立佐敷中学校", "P29_005": "熊本県葦北郡芦北町花岡496-2", "P29_006": "3", "P29_007": "1", "P29_008": "00", "P29_009": null }, "geometry": { "type": "Point", "coordinates": [ 130.506145589245506, 32.299289667555435 ] } },
{ "type": "Feature", "properties": { "P29_001": "43482", "P29_002": "C143210000917", "P29_003": "16002", "P29_004": "芦北町立湯浦中学校", "P29_005": "熊本県葦北郡芦北町湯浦369", "P29_006": "3", "P29_007": "1", "P29_008": "00", "P29_009": null }, "geometry": { "type": "Point", "coordinates": [ 130.501833775636896, 32.267692661553909 ] } },
{ "type": "Feature", "properties": { "P29_001": "43484", "P29_002": "C143210000926", "P29_003": "16002", "P29_004": "津奈木町立津奈木中学校", "P29_005": "熊本県葦北郡津奈木町岩城425", "P29_006": "3", "P29_007": "1", "P29_008": "00", "P29_009": null }, "geometry": { "type": "Point", "coordinates": [ 130.455597372115164, 32.233127660858422 ] } },
{ "type": "Feature", "properties": { "P29_001": "43505", "P29_002": "C143210000935", "P29_003": "16002", "P29_004": "多良木町立多良木中学校", "P29_005": "熊本県球磨郡多良木町大字多良木1736", "P29_006": "3", "P29_007": "1", "P29_008": "00", "P29_009": null }, "geometry": { "type": "Point", "coordinates": [ 130.933147001510207, 32.266082893675438 ] } },
{ "type": "Feature", "properties": { "P29_001": "43506", "P29_002": "C143210000944", "P29_003": "16002", "P29_004": "湯前町立湯前中学校", "P29_005": "熊本県球磨郡湯前町2643", "P29_006": "3", "P29_007": "1", "P29_008": "00", "P29_009": null }, "geometry": { "type": "Point", "coordinates": [ 130.986739942962942, 32.275063128191739 ] } },
{ "type": "Feature", "properties": { "P29_001": "43501", "P29_002": "C143210000953", "P29_003": "16002", "P29_004": "錦町立錦中学校", "P29_005": "熊本県球磨郡錦町大字一武1115", "P29_006": "3", "P29_007": "1", "P29_008": "00", "P29_009": null }, "geometry": { "type": "Point", "coordinates": [ 130.83041775661718, 32.201814373689018 ] } },
{ "type": "Feature", "properties": { "P29_001": "43511", "P29_002": "C143210000971", "P29_003": "16002", "P29_004": "五木村立五木中学校", "P29_005": "熊本県球磨郡五木村甲2913-1", "P29_006": "3", "P29_007": "1", "P29_008": "00", "P29_009": null }, "geometry": { "type": "Point", "coordinates": [ 130.825824845587647, 32.39901481027524 ] } },
{ "type": "Feature", "properties": { "P29_001": "43512", "P29_002": "C143210000980", "P29_003": "16002", "P29_004": "山江村立山江中学校", "P29_005": "熊本県球磨郡山江村山田丁60", "P29_006": "3", "P29_007": "1", "P29_008": "00", "P29_009": null }, "geometry": { "type": "Point", "coordinates": [ 130.769423213610679, 32.251161829675603 ] } },
{ "type": "Feature", "properties": { "P29_001": "43513", "P29_002": "C143210000999", "P29_003": "16002", "P29_004": "球磨村立球磨中学校", "P29_005": "熊本県球磨郡球磨村大字一勝地丙123", "P29_006": "3", "P29_007": "1", "P29_008": "00", "P29_009": null }, "geometry": { "type": "Point", "coordinates": [ 130.646877574651626, 32.246907609621417 ] } },
{ "type": "Feature", "properties": { "P29_001": "43212", "P29_002": "C143210001006", "P29_003": "16002", "P29_004": "上天草市立大矢野中学校", "P29_005": "熊本県上天草市大矢野町中483", "P29_006": "3", "P29_007": "1", "P29_008": "00", "P29_009": null }, "geometry": { "type": "Point", "coordinates": [ 130.429593605804115, 32.58273804051057 ] } },
{ "type": "Feature", "properties": { "P29_001": "43212", "P29_002": "C143210001024", "P29_003": "16002", "P29_004": "上天草市立湯島中学校", "P29_005": "熊本県上天草市大矢野町湯島154", "P29_006": "3", "P29_007": "1", "P29_008": "00", "P29_009": null }, "geometry": { "type": "Point", "coordinates": [ 130.342242766843924, 32.603695139553004 ] } },
{ "type": "Feature", "properties": { "P29_001": "43212", "P29_002": "C143210001033", "P29_003": "16002", "P29_004": "上天草市立姫戸中学校", "P29_005": "熊本県上天草市姫戸町姫浦2500", "P29_006": "3", "P29_007": "1", "P29_008": "00", "P29_009": null }, "geometry": { "type": "Point", "coordinates": [ 130.406756921579955, 32.440618369870272 ] } },
{ "type": "Feature", "properties": { "P29_001": "43215", "P29_002": "C143210001042", "P29_003": "16002", "P29_004": "天草市立倉岳中学校", "P29_005": "熊本県天草市倉岳町棚底2691-1", "P29_006": "3", "P29_007": "1", "P29_008": "00", "P29_009": null }, "geometry": { "type": "Point", "coordinates": [ 130.335594940448146, 32.404414438831544 ] } },
{ "type": "Feature", "properties": { "P29_001": "43215", "P29_002": "C143210001051", "P29_003": "16002", "P29_004": "天草市立栖本中学校", "P29_005": "熊本県天草市栖本町湯船原690-4", "P29_006": "3", "P29_007": "1", "P29_008": "00", "P29_009": null }, "geometry": { "type": "Point", "coordinates": [ 130.274600001701316, 32.415945002963753 ] } },
{ "type": "Feature", "properties": { "P29_001": "43202", "P29_002": "C143210001060", "P29_003": "16002", "P29_004": "八代市立東陽中学校", "P29_005": "熊本県八代市東陽町南1869", "P29_006": "3", "P29_007": "1", "P29_008": "00", "P29_009": null }, "geometry": { "type": "Point", "coordinates": [ 130.717943060349455, 32.537075410921524 ] } },
{ "type": "Feature", "properties": { "P29_001": "43213", "P29_002": "C143210001079", "P29_003": "16002", "P29_004": "宇城市立松橋中学校", "P29_005": "熊本県宇城市松橋町松橋522-1", "P29_006": "3", "P29_007": "1", "P29_008": "00", "P29_009": null }, "geometry": { "type": "Point", "coordinates": [ 130.681810471002592, 32.65090751380032 ] } },
{ "type": "Feature", "properties": { "P29_001": "43348", "P29_002": "C143210001088", "P29_003": "16002", "P29_004": "美里町立中央中学校", "P29_005": "熊本県下益城郡美里町萱野810", "P29_006": "3", "P29_007": "1", "P29_008": "00", "P29_009": null }, "geometry": { "type": "Point", "coordinates": [ 130.808957332132877, 32.633516556167343 ] } },
{ "type": "Feature", "properties": { "P29_001": "43208", "P29_002": "C143210001097", "P29_003": "16002", "P29_004": "山鹿市立菊鹿中学校", "P29_005": "熊本県山鹿市菊鹿町下内田485", "P29_006": "3", "P29_007": "1", "P29_008": "00", "P29_009": null }, "geometry": { "type": "Point", "coordinates": [ 130.760369368924415, 33.026886777303069 ] } },
{ "type": "Feature", "properties": { "P29_001": "43208", "P29_002": "C143210001104", "P29_003": "16002", "P29_004": "山鹿市立鹿本中学校", "P29_005": "熊本県山鹿市鹿本町来民1267-1", "P29_006": "3", "P29_007": "1", "P29_008": "00", "P29_009": null }, "geometry": { "type": "Point", "coordinates": [ 130.742738084184083, 32.998515028099064 ] } },
{ "type": "Feature", "properties": { "P29_001": "43202", "P29_002": "C143210001113", "P29_003": "16002", "P29_004": "八代市立鏡中学校", "P29_005": "熊本県八代市鏡町内田1038-1", "P29_006": "3", "P29_007": "1", "P29_008": "00", "P29_009": null }, "geometry": { "type": "Point", "coordinates": [ 130.646228428462052, 32.560841615517461 ] } },
{ "type": "Feature", "properties": { "P29_001": "43369", "P29_002": "C143210001122", "P29_003": "16002", "P29_004": "和水町立三加和中学校", "P29_005": "熊本県玉名郡和水町板楠1001", "P29_006": "3", "P29_007": "1", "P29_008": "00", "P29_009": null }, "geometry": { "type": "Point", "coordinates": [ 130.620830222606884, 33.060644253413926 ] } },
{ "type": "Feature", "properties": { "P29_001": "43208", "P29_002": "C143210001131", "P29_003": "16002", "P29_004": "山鹿市立鹿北中学校", "P29_005": "熊本県山鹿市鹿北町四丁1464", "P29_006": "3", "P29_007": "1", "P29_008": "00", "P29_009": null }, "geometry": { "type": "Point", "coordinates": [ 130.696391074670117, 33.108364914644902 ] } },
{ "type": "Feature", "properties": { "P29_001": "43447", "P29_002": "C143210001140", "P29_003": "16002", "P29_004": "山都町立清和中学校", "P29_005": "熊本県上益城郡山都町大平410", "P29_006": "3", "P29_007": "1", "P29_008": "00", "P29_009": null }, "geometry": { "type": "Point", "coordinates": [ 131.08561188154485, 32.692133178534945 ] } },
{ "type": "Feature", "properties": { "P29_001": "43215", "P29_002": "C143210001159", "P29_003": "16002", "P29_004": "天草市立新和中学校", "P29_005": "熊本県天草市新和町小宮地1304", "P29_006": "3", "P29_007": "1", "P29_008": "00", "P29_009": null }, "geometry": { "type": "Point", "coordinates": [ 130.179638521339569, 32.365957704445087 ] } },
{ "type": "Feature", "properties": { "P29_001": "43206", "P29_002": "C143210001168", "P29_003": "16002", "P29_004": "玉名市立岱明中学校", "P29_005": "熊本県玉名市岱明町浜田120", "P29_006": "3", "P29_007": "1", "P29_008": "00", "P29_009": null }, "geometry": { "type": "Point", "coordinates": [ 130.509480975985468, 32.911540324318409 ] } },
{ "type": "Feature", "properties": { "P29_001": "43105", "P29_002": "C143210001177", "P29_003": "16002", "P29_004": "熊本市立楠中学校", "P29_005": "熊本県熊本市北区楠3-2-1", "P29_006": "3", "P29_007": "1", "P29_008": "00", "P29_009": null }, "geometry": { "type": "Point", "coordinates": [ 130.755603109333748, 32.848566006319047 ] } },
{ "type": "Feature", "properties": { "P29_001": "43202", "P29_002": "C143210001186", "P29_003": "16002", "P29_004": "八代市立坂本中学校", "P29_005": "熊本県八代市坂本町荒瀬6000", "P29_006": "3", "P29_007": "1", "P29_008": "00", "P29_009": null }, "geometry": { "type": "Point", "coordinates": [ 130.652354770618473, 32.433358609413325 ] } },
{ "type": "Feature", "properties": { "P29_001": "43447", "P29_002": "C143210001195", "P29_003": "16002", "P29_004": "山都町立蘇陽中学校", "P29_005": "熊本県上益城郡山都町今450-1", "P29_006": "3", "P29_007": "1", "P29_008": "00", "P29_009": null }, "geometry": { "type": "Point", "coordinates": [ 131.166562641782377, 32.725116325146864 ] } },
{ "type": "Feature", "properties": { "P29_001": "43216", "P29_002": "C143210001202", "P29_003": "16002", "P29_004": "合志市立西合志南中学校", "P29_005": "熊本県合志市須屋2956", "P29_006": "3", "P29_007": "1", "P29_008": "00", "P29_009": null }, "geometry": { "type": "Point", "coordinates": [ 130.742227673992176, 32.865646606798258 ] } },
{ "type": "Feature", "properties": { "P29_001": "43105", "P29_002": "C143210001211", "P29_003": "16002", "P29_004": "熊本市立武蔵中学校", "P29_005": "熊本県熊本市北区武蔵ヶ丘4-19-1", "P29_006": "3", "P29_007": "1", "P29_008": "00", "P29_009": null }, "geometry": { "type": "Point", "coordinates": [ 130.772577942858589, 32.856082524466046 ] } },
{ "type": "Feature", "properties": { "P29_001": "43404", "P29_002": "C143210001220", "P29_003": "16002", "P29_004": "菊陽町立武蔵ケ丘中学校", "P29_005": "熊本県菊池郡菊陽町光の森1-3518", "P29_006": "3", "P29_007": "1", "P29_008": "00", "P29_009": null }, "geometry": { "type": "Point", "coordinates": [ 130.776032022010526, 32.860196083069454 ] } },
{ "type": "Feature", "properties": { "P29_001": "43102", "P29_002": "C143210001239", "P29_003": "16002", "P29_004": "熊本市立東町中学校", "P29_005": "熊本県熊本市東区東町4-15-1", "P29_006": "3", "P29_007": "1", "P29_008": "00", "P29_009": null }, "geometry": { "type": "Point", "coordinates": [ 130.765360153407102, 32.781558332679282 ] } },
{ "type": "Feature", "properties": { "P29_001": "43348", "P29_002": "C143210001248", "P29_003": "16002", "P29_004": "美里町立砥用中学校", "P29_005": "熊本県下益城郡美里町原町330", "P29_006": "3", "P29_007": "1", "P29_008": "00", "P29_009": null }, "geometry": { "type": "Point", "coordinates": [ 130.867333689182203, 32.620060363874011 ] } },
{ "type": "Feature", "properties": { "P29_001": "43101", "P29_002": "C143210001257", "P29_003": "16002", "P29_004": "熊本市立出水南中学校", "P29_005": "熊本県熊本市中央区出水7-86-1", "P29_006": "3", "P29_007": "1", "P29_008": "00", "P29_009": null }, "geometry": { "type": "Point", "coordinates": [ 130.727927365370192, 32.774726679420446 ] } },
{ "type": "Feature", "properties": { "P29_001": "43367", "P29_002": "C143210001266", "P29_003": "16002", "P29_004": "南関町立南関中学校", "P29_005": "熊本県玉名郡南関町小原2121-1", "P29_006": "3", "P29_007": "1", "P29_008": "00", "P29_009": null }, "geometry": { "type": "Point", "coordinates": [ 130.562292082183376, 33.043134557206074 ] } },
{ "type": "Feature", "properties": { "P29_001": "43105", "P29_002": "C143210001275", "P29_003": "16002", "P29_004": "熊本市立植木北中学校", "P29_005": "熊本県熊本市北区植木町舟島455-1", "P29_006": "3", "P29_007": "1", "P29_008": "00", "P29_009": null }, "geometry": { "type": "Point", "coordinates": [ 130.717698325477045, 32.945004045713098 ] } },
{ "type": "Feature", "properties": { "P29_001": "43105", "P29_002": "C143210001284", "P29_003": "16002", "P29_004": "熊本市立清水中学校", "P29_005": "熊本県熊本市北区清水新地2-3-1", "P29_006": "3", "P29_007": "1", "P29_008": "00", "P29_009": null }, "geometry": { "type": "Point", "coordinates": [ 130.734051360096743, 32.849454794443155 ] } },
{ "type": "Feature", "properties": { "P29_001": "43103", "P29_002": "C143210001293", "P29_003": "16002", "P29_004": "熊本市立井芹中学校", "P29_005": "熊本県熊本市西区上熊本3-27-1", "P29_006": "3", "P29_007": "1", "P29_008": "00", "P29_009": null }, "geometry": { "type": "Point", "coordinates": [ 130.698696155802594, 32.821064244428868 ] } },
{ "type": "Feature", "properties": { "P29_001": "43447", "P29_002": "C143210001300", "P29_003": "16002", "P29_004": "山都町立矢部中学校", "P29_005": "熊本県上益城郡山都町城平527", "P29_006": "3", "P29_007": "1", "P29_008": "00", "P29_009": null }, "geometry": { "type": "Point", "coordinates": [ 130.989064775142538, 32.693891964602138 ] } },
{ "type": "Feature", "properties": { "P29_001": "43215", "P29_002": "C143210001319", "P29_003": "16002", "P29_004": "天草市立本渡東中学校", "P29_005": "熊本県天草市志柿町5031", "P29_006": "3", "P29_007": "1", "P29_008": "00", "P29_009": null }, "geometry": { "type": "Point", "coordinates": [ 130.220769613512914, 32.433908206299364 ] } },
{ "type": "Feature", "properties": { "P29_001": "43102", "P29_002": "C143210001328", "P29_003": "16002", "P29_004": "熊本市立長嶺中学校", "P29_005": "熊本県熊本市東区長嶺南7-21-40", "P29_006": "3", "P29_007": "1", "P29_008": "00", "P29_009": null }, "geometry": { "type": "Point", "coordinates": [ 130.778281534452333, 32.813797404232027 ] } },
{ "type": "Feature", "properties": { "P29_001": "43104", "P29_002": "C143210001337", "P29_003": "16002", "P29_004": "熊本市立力合中学校", "P29_005": "熊本県熊本市南区島町5-8-1", "P29_006": "3", "P29_007": "1", "P29_008": "00", "P29_009": null }, "geometry": { "type": "Point", "coordinates": [ 130.677447816504326, 32.762118195924046 ] } },
{ "type": "Feature", "properties": { "P29_001": "43105", "P29_002": "C143210001346", "P29_003": "16002", "P29_004": "熊本市立龍田中学校", "P29_005": "熊本県熊本市北区龍田7-8-1", "P29_006": "3", "P29_007": "1", "P29_008": "00", "P29_009": null }, "geometry": { "type": "Point", "coordinates": [ 130.761471745903179, 32.836263094304556 ] } },
{ "type": "Feature", "properties": { "P29_001": "43104", "P29_002": "C143210001355", "P29_003": "16002", "P29_004": "熊本市立日吉中学校", "P29_005": "熊本県熊本市南区近見5-5-1", "P29_006": "3", "P29_007": "1", "P29_008": "00", "P29_009": null }, "geometry": { "type": "Point", "coordinates": [ 130.699256035705815, 32.764159215737465 ] } },
{ "type": "Feature", "properties": { "P29_001": "43102", "P29_002": "C143210001364", "P29_003": "16002", "P29_004": "熊本市立桜木中学校", "P29_005": "熊本県熊本市東区桜木4-13-23", "P29_006": "3", "P29_007": "1", "P29_008": "00", "P29_009": null }, "geometry": { "type": "Point", "coordinates": [ 130.782943074387475, 32.782244720012905 ] } },
{ "type": "Feature", "properties": { "P29_001": "43215", "P29_002": "C143210001373", "P29_003": "16002", "P29_004": "天草市立稜南中学校", "P29_005": "熊本県天草市亀場町亀川1425", "P29_006": "3", "P29_007": "1", "P29_008": "00", "P29_009": null }, "geometry": { "type": "Point", "coordinates": [ 130.195644459268152, 32.435883351488734 ] } },
{ "type": "Feature", "properties": { "P29_001": "43403", "P29_002": "C143210001382", "P29_003": "16002", "P29_004": "大津町立大津北中学校", "P29_005": "熊本県菊池郡大津町大津310", "P29_006": "3", "P29_007": "1", "P29_008": "00", "P29_009": null }, "geometry": { "type": "Point", "coordinates": [ 130.868499847407008, 32.889470039817503 ] } },
{ "type": "Feature", "properties": { "P29_001": "43215", "P29_002": "C143210001391", "P29_003": "16002", "P29_004": "天草市立天草中学校", "P29_005": "熊本県天草市天草町高浜南488-1", "P29_006": "3", "P29_007": "1", "P29_008": "00", "P29_009": null }, "geometry": { "type": "Point", "coordinates": [ 129.999192559932624, 32.379120826294638 ] } },
{ "type": "Feature", "properties": { "P29_001": "43215", "P29_002": "C143210001408", "P29_003": "16002", "P29_004": "天草市立河浦中学校", "P29_005": "熊本県天草市河浦町河浦35-24", "P29_006": "3", "P29_007": "1", "P29_008": "00", "P29_009": null }, "geometry": { "type": "Point", "coordinates": [ 130.070922208068851, 32.321090546342603 ] } },
{ "type": "Feature", "properties": { "P29_001": "43510", "P29_002": "C143210001417", "P29_003": "16002", "P29_004": "相良村立相良中学校", "P29_005": "熊本県球磨郡相良村大字深水2130", "P29_006": "3", "P29_007": "1", "P29_008": "00", "P29_009": null }, "geometry": { "type": "Point", "coordinates": [ 130.799049365443352, 32.238449420991351 ] } },
{ "type": "Feature", "properties": { "P29_001": "43215", "P29_002": "C143210001426", "P29_003": "16002", "P29_004": "天草市立有明中学校", "P29_005": "熊本県天草市有明町赤崎3383", "P29_006": "3", "P29_007": "1", "P29_008": "00", "P29_009": null }, "geometry": { "type": "Point", "coordinates": [ 130.313305004125255, 32.51149824667219 ] } },
{ "type": "Feature", "properties": { "P29_001": "43215", "P29_002": "C143210001435", "P29_003": "16002", "P29_004": "天草市立牛深中学校", "P29_005": "熊本県天草市牛深町1211-25", "P29_006": "3", "P29_007": "1", "P29_008": "00", "P29_009": null }, "geometry": { "type": "Point", "coordinates": [ 130.014035495007818, 32.200477868525155 ] } },
{ "type": "Feature", "properties": { "P29_001": "43215", "P29_002": "C143210001444", "P29_003": "16002", "P29_004": "天草市立牛深東中学校", "P29_005": "熊本県天草市久玉町2364", "P29_006": "3", "P29_007": "1", "P29_008": "00", "P29_009": null }, "geometry": { "type": "Point", "coordinates": [ 130.035401335666251, 32.224757364658579 ] } },
{ "type": "Feature", "properties": { "P29_001": "43211", "P29_002": "C143210001453", "P29_003": "16002", "P29_004": "熊本県立宇土中学校", "P29_005": "熊本県宇土市古城町63", "P29_006": "2", "P29_007": "1", "P29_008": "00", "P29_009": null }, "geometry": { "type": "Point", "coordinates": [ 130.654251369064241, 32.680242100475034 ] } },
{ "type": "Feature", "properties": { "P29_001": "43202", "P29_002": "C143210001462", "P29_003": "16002", "P29_004": "熊本県立八代中学校", "P29_005": "熊本県八代市永碇町856", "P29_006": "2", "P29_007": "1", "P29_008": "00", "P29_009": null }, "geometry": { "type": "Point", "coordinates": [ 130.597097009297784, 32.519231884013614 ] } },
{ "type": "Feature", "properties": { "P29_001": "43204", "P29_002": "C143210001471", "P29_003": "16002", "P29_004": "荒尾市立荒尾海陽中学校", "P29_005": "熊本県荒尾市荒尾1828", "P29_006": "3", "P29_007": "1", "P29_008": "00", "P29_009": null }, "geometry": { "type": "Point", "coordinates": [ 130.438924675874972, 32.978339577109281 ] } },
{ "type": "Feature", "properties": { "P29_001": "43215", "P29_002": "C143210001480", "P29_003": "16002", "P29_004": "天草市立本渡中学校", "P29_005": "熊本県天草市本渡町広瀬5-110", "P29_006": "3", "P29_007": "1", "P29_008": "00", "P29_009": null }, "geometry": { "type": "Point", "coordinates": [ 130.20397243673122, 32.465414963485912 ] } },
{ "type": "Feature", "properties": { "P29_001": "43206", "P29_002": "C143210001499", "P29_003": "16002", "P29_004": "熊本県立玉名高等学校附属中学校", "P29_005": "熊本県玉名市中1853", "P29_006": "2", "P29_007": "1", "P29_008": "00", "P29_009": null }, "geometry": { "type": "Point", "coordinates": [ 130.548923345866541, 32.931348113145823 ] } },
{ "type": "Feature", "properties": { "P29_001": "43205", "P29_002": "C143210001505", "P29_003": "16002", "P29_004": "水俣市立水俣第一中学校", "P29_005": "熊本県水俣市古城1-14-1", "P29_006": "3", "P29_007": "1", "P29_008": "00", "P29_009": null }, "geometry": { "type": "Point", "coordinates": [ 130.418866156636994, 32.206421437892445 ] } },
{ "type": "Feature", "properties": { "P29_001": "43205", "P29_002": "C143210001514", "P29_003": "16002", "P29_004": "水俣市立水俣第二中学校", "P29_005": "熊本県水俣市塩浜町3-1", "P29_006": "3", "P29_007": "1", "P29_008": "00", "P29_009": null }, "geometry": { "type": "Point", "coordinates": [ 130.39539476771435, 32.213870527466568 ] } },
{ "type": "Feature", "properties": { "P29_001": "43205", "P29_002": "C143210001523", "P29_003": "16002", "P29_004": "水俣市立袋中学校", "P29_005": "熊本県水俣市袋1403-2", "P29_006": "3", "P29_007": "1", "P29_008": "00", "P29_009": null }, "geometry": { "type": "Point", "coordinates": [ 130.378887846533331, 32.175873498252983 ] } },
{ "type": "Feature", "properties": { "P29_001": "43205", "P29_002": "C143210001532", "P29_003": "16002", "P29_004": "水俣市立緑東中学校", "P29_005": "熊本県水俣市葛渡181", "P29_006": "3", "P29_007": "1", "P29_008": "00", "P29_009": null }, "geometry": { "type": "Point", "coordinates": [ 130.464212156129264, 32.172741662319453 ] } },
{ "type": "Feature", "properties": { "P29_001": "43212", "P29_002": "C143210001541", "P29_003": "16002", "P29_004": "上天草市立龍ヶ岳中学校", "P29_005": "熊本県上天草市龍ヶ岳町高戸3053-1", "P29_006": "3", "P29_007": "1", "P29_008": "00", "P29_009": null }, "geometry": { "type": "Point", "coordinates": [ 130.400377375435482, 32.396630864822633 ] } },
{ "type": "Feature", "properties": { "P29_001": "43105", "P29_002": "C143210001550", "P29_003": "16002", "P29_004": "熊本市立京陵中学校清水が丘分校", "P29_005": "熊本県熊本市北区打越町38-1", "P29_006": "3", "P29_007": "1", "P29_008": "00", "P29_009": null }, "geometry": { "type": "Point", "coordinates": [ 130.717378476527443, 32.828801474370977 ] } },
{ "type": "Feature", "properties": { "P29_001": "43214", "P29_002": "C143210001569", "P29_003": "16002", "P29_004": "阿蘇市立阿蘇中学校", "P29_005": "熊本県阿蘇市内牧609", "P29_006": "3", "P29_007": "1", "P29_008": "00", "P29_009": null }, "geometry": { "type": "Point", "coordinates": [ 131.037349539558647, 32.968080287102232 ] } },
{ "type": "Feature", "properties": { "P29_001": "43514", "P29_002": "C143210001578", "P29_003": "16002", "P29_004": "あさぎり町立あさぎり中学校", "P29_005": "熊本県球磨郡あさぎり町上北2144", "P29_006": "3", "P29_007": "1", "P29_008": "00", "P29_009": null }, "geometry": { "type": "Point", "coordinates": [ 130.906751731228184, 32.221993445186271 ] } },
{ "type": "Feature", "properties": { "P29_001": "43215", "P29_002": "C143210001587", "P29_003": "16002", "P29_004": "天草市立御所浦中学校", "P29_005": "熊本県天草市御所浦町御所浦3215-2", "P29_006": "3", "P29_007": "1", "P29_008": "00", "P29_009": null }, "geometry": { "type": "Point", "coordinates": [ 130.343863161080151, 32.346055698760559 ] } },
{ "type": "Feature", "properties": { "P29_001": "43215", "P29_002": "C143210001596", "P29_003": "16002", "P29_004": "天草市立五和中学校", "P29_005": "熊本県天草市五和町御領9607-2", "P29_006": "3", "P29_007": "1", "P29_008": "00", "P29_009": null }, "geometry": { "type": "Point", "coordinates": [ 130.19044542162618, 32.533168464042411 ] } },
{ "type": "Feature", "properties": { "P29_001": "43212", "P29_002": "C143210001603", "P29_003": "16002", "P29_004": "上天草市立松島中学校", "P29_005": "熊本県上天草市松島町合津2649", "P29_006": "3", "P29_007": "1", "P29_008": "00", "P29_009": null }, "geometry": { "type": "Point", "coordinates": [ 130.421255418282499, 32.498259613062018 ] } },
{ "type": "Feature", "properties": { "P29_001": "43531", "P29_002": "C143210001612", "P29_003": "16002", "P29_004": "苓北町立苓北中学校", "P29_005": "熊本県天草郡苓北町志岐294-4", "P29_006": "3", "P29_007": "1", "P29_008": "00", "P29_009": null }, "geometry": { "type": "Point", "coordinates": [ 130.046559479003633, 32.508204239586526 ] } },
{ "type": "Feature", "properties": { "P29_001": "43433", "P29_002": "C143210001621", "P29_003": "16002", "P29_004": "南阿蘇村立南阿蘇中学校", "P29_005": "熊本県阿蘇郡南阿蘇村大字河陽3645", "P29_006": "3", "P29_007": "1", "P29_008": "00", "P29_009": null }, "geometry": { "type": "Point", "coordinates": [ 131.001541463661198, 32.857694204211384 ] } },
{ "type": "Feature", "properties": { "P29_001": "43216", "P29_002": "C143210001630", "P29_003": "16002", "P29_004": "合志市立合志楓の森中学校", "P29_005": "熊本県合志市栄3793-5", "P29_006": "3", "P29_007": "1", "P29_008": "00", "P29_009": null }, "geometry": { "type": "Point", "coordinates": [ 130.756824098739884, 32.878984808563438 ] } },
{ "type": "Feature", "properties": { "P29_001": "43101", "P29_002": "C143310000014", "P29_003": "16002", "P29_004": "九州学院中学校", "P29_005": "熊本県熊本市中央区大江5-2-1", "P29_006": "4", "P29_007": "1", "P29_008": "00", "P29_009": null }, "geometry": { "type": "Point", "coordinates": [ 130.721108335982052, 32.797490420653084 ] } },
{ "type": "Feature", "properties": { "P29_001": "43101", "P29_002": "C143310000023", "P29_003": "16002", "P29_004": "尚絅中学校", "P29_005": "熊本県熊本市中央区九品寺2-6-78", "P29_006": "4", "P29_007": "1", "P29_008": "00", "P29_009": null }, "geometry": { "type": "Point", "coordinates": [ 130.717905602854898, 32.797613902095989 ] } },
{ "type": "Feature", "properties": { "P29_001": "43101", "P29_002": "C143310000032", "P29_003": "16002", "P29_004": "ルーテル学院中学校", "P29_005": "熊本県熊本市中央区黒髪3-12-16", "P29_006": "4", "P29_007": "1", "P29_008": "00", "P29_009": null }, "geometry": { "type": "Point", "coordinates": [ 130.722106946002896, 32.819936890441944 ] } },
{ "type": "Feature", "properties": { "P29_001": "43101", "P29_002": "C143310000041", "P29_003": "16002", "P29_004": "熊本信愛女学院中学校", "P29_005": "熊本県熊本市中央区上林町3-18", "P29_006": "4", "P29_007": "1", "P29_008": "00", "P29_009": null }, "geometry": { "type": "Point", "coordinates": [ 130.710910996767126, 32.808304000371201 ] } },
{ "type": "Feature", "properties": { "P29_001": "43101", "P29_002": "C143310000050", "P29_003": "16002", "P29_004": "真和中学校", "P29_005": "熊本県熊本市中央区九品寺3-1-1", "P29_006": "4", "P29_007": "1", "P29_008": "00", "P29_009": null }, "geometry": { "type": "Point", "coordinates": [ 130.719704277039313, 32.795900897327272 ] } },
{ "type": "Feature", "properties": { "P29_001": "43102", "P29_002": "C143310000069", "P29_003": "16002", "P29_004": "熊本マリスト学園中学校", "P29_005": "熊本県熊本市東区健軍2-11-54", "P29_006": "4", "P29_007": "1", "P29_008": "00", "P29_009": null }, "geometry": { "type": "Point", "coordinates": [ 130.750607021373668, 32.783032739025842 ] } },
{ "type": "Feature", "properties": { "P29_001": "43103", "P29_002": "C143310000078", "P29_003": "16002", "P29_004": "文徳中学校", "P29_005": "熊本県熊本市西区池田4-22-2", "P29_006": "4", "P29_007": "1", "P29_008": "00", "P29_009": null }, "geometry": { "type": "Point", "coordinates": [ 130.696152669457717, 32.83239118385324 ] } },
{ "type": "Feature", "properties": { "P29_001": "43101", "P29_002": "C143310000087", "P29_003": "16002", "P29_004": "熊本学園大学付属中学校", "P29_005": "熊本県熊本市中央区大江2-1-21", "P29_006": "4", "P29_007": "1", "P29_008": "00", "P29_009": null }, "geometry": { "type": "Point", "coordinates": [ 130.727045684669037, 32.80552169509636 ] } }
]
}
