{
"type": "FeatureCollection",
"name": "geo_43_地域密着型特定施設入居者生活介護（有料老人ホーム）",
"crs": { "type": "name", "properties": { "name": "urn:ogc:def:crs:OGC:1.3:CRS84" } },
"features": [
{ "type": "Feature", "properties": { "内容": "地域密着型特定施設入居者生活介護　彩【地域密着型特定施設入居者生活介護（有料老人ホーム）】熊本市南区富合町廻江５９９－１彩", "url": "https://www.kaigokensaku.mhlw.go.jp/43/index.php?action_kouhyou_detail_004_kani=true&JigyosyoCd=4392300077-00&ServiceCd=361&Type=search", "url2": "http://wasoukai.com" }, "geometry": { "type": "Point", "coordinates": [ 130.681969714155571, 32.716702945112274 ] } },
{ "type": "Feature", "properties": { "内容": "グッドライフ本町【地域密着型特定施設入居者生活介護（有料老人ホーム）】八代市本町１丁目１－６０", "url": "https://www.kaigokensaku.mhlw.go.jp/43/index.php?action_kouhyou_detail_004_kani=true&JigyosyoCd=4390200188-00&ServiceCd=361&Type=search", "url2": "http://www.goodlife-h.jp/" }, "geometry": { "type": "Point", "coordinates": [ 130.604554300000018, 32.5058068 ] } },
{ "type": "Feature", "properties": { "内容": "尚光苑【地域密着型特定施設入居者生活介護（有料老人ホーム）】熊本県水俣市深川1020番地3", "url": "https://www.kaigokensaku.mhlw.go.jp/43/index.php?action_kouhyou_detail_004_kani=true&JigyosyoCd=4390500116-00&ServiceCd=361&Type=search", "url2": "http://shoukouen.wix.com/shoukouen" }, "geometry": { "type": "Point", "coordinates": [ 130.446634875048829, 32.180883946543112 ] } },
{ "type": "Feature", "properties": { "内容": "特定施設入居者生活介護たいめい苑【地域密着型特定施設入居者生活介護（有料老人ホーム）】熊本県玉名市岱明町古閑402番地1", "url": "https://www.kaigokensaku.mhlw.go.jp/43/index.php?action_kouhyou_detail_004_kani=true&JigyosyoCd=4390600049-00&ServiceCd=361&Type=search", "url2": "http://ww7.tiki.ne.jp/~taimeien" }, "geometry": { "type": "Point", "coordinates": [ 130.506154437434333, 32.931538782734314 ] } },
{ "type": "Feature", "properties": { "内容": "有料老人ホーム　シルバードリーム寿里【地域密着型特定施設入居者生活介護（有料老人ホーム）】熊本県上天草市松島町阿村821-1", "url": "https://www.kaigokensaku.mhlw.go.jp/43/index.php?action_kouhyou_detail_004_kani=true&JigyosyoCd=4391200021-00&ServiceCd=361&Type=search", "url2": null }, "geometry": { "type": "Point", "coordinates": [ 130.447914800000035, 32.5180027 ] } },
{ "type": "Feature", "properties": { "内容": "介護付き有料老人ホーム　ヒカリエ【地域密着型特定施設入居者生活介護（有料老人ホーム）】熊本県上天草市大矢野町中1177-1", "url": "https://www.kaigokensaku.mhlw.go.jp/43/index.php?action_kouhyou_detail_004_kani=true&JigyosyoCd=4391200245-00&ServiceCd=361&Type=search", "url2": null }, "geometry": { "type": "Point", "coordinates": [ 130.425886484655763, 32.57930771100083 ] } },
{ "type": "Feature", "properties": { "内容": "グランドホーム　フォーシーズン【地域密着型特定施設入居者生活介護（有料老人ホーム）】熊本県宇城市松橋町両仲間781-1", "url": "https://www.kaigokensaku.mhlw.go.jp/43/index.php?action_kouhyou_detail_004_kani=true&JigyosyoCd=4371300171-00&ServiceCd=361&Type=search", "url2": "http://fo-season.jp/" }, "geometry": { "type": "Point", "coordinates": [ 130.698029, 32.6331237 ] } },
{ "type": "Feature", "properties": { "内容": "コミュニティハウス　みんなの家【地域密着型特定施設入居者生活介護（有料老人ホーム）】熊本県下益城郡美里町土喰4番地", "url": "https://www.kaigokensaku.mhlw.go.jp/43/index.php?action_kouhyou_detail_004_kani=true&JigyosyoCd=4392300051-00&ServiceCd=361&Type=search", "url2": "https://senjukai.jp/" }, "geometry": { "type": "Point", "coordinates": [ 130.866713200000049, 32.617932 ] } },
{ "type": "Feature", "properties": { "内容": "リハセンターみどりの里【地域密着型特定施設入居者生活介護（有料老人ホーム）】熊本県阿蘇郡小国町宮原４２５番地５", "url": "https://www.kaigokensaku.mhlw.go.jp/43/index.php?action_kouhyou_detail_004_kani=true&JigyosyoCd=4392700078-00&ServiceCd=361&Type=search", "url2": "http://www.daitokukai.info/" }, "geometry": { "type": "Point", "coordinates": [ 131.084794950331883, 33.12219469753159 ] } },
{ "type": "Feature", "properties": { "内容": "ゆうあいの家【地域密着型特定施設入居者生活介護（有料老人ホーム）】熊本県葦北郡芦北町大字芦北2324-1", "url": "https://www.kaigokensaku.mhlw.go.jp/43/index.php?action_kouhyou_detail_004_kani=true&JigyosyoCd=4393000049-00&ServiceCd=361&Type=search", "url2": null }, "geometry": { "type": "Point", "coordinates": [ 130.49365934047546, 32.290999513101646 ] } },
{ "type": "Feature", "properties": { "内容": "ＪＡくま福祉の里木綿葉　別館　西棟【地域密着型特定施設入居者生活介護（有料老人ホーム）】熊本県球磨郡あさぎり町須恵字丸尾1219-2", "url": "https://www.kaigokensaku.mhlw.go.jp/43/index.php?action_kouhyou_detail_004_kani=true&JigyosyoCd=4393100187-00&ServiceCd=361&Type=search", "url2": null }, "geometry": { "type": "Point", "coordinates": [ 130.900772800000027, 32.2672328 ] } }
]
}
