{
"type": "FeatureCollection",
"name": "geo_43_短期入所生活介護",
"crs": { "type": "name", "properties": { "name": "urn:ogc:def:crs:OGC:1.3:CRS84" } },
"features": [
{ "type": "Feature", "properties": { "内容": "向山つくし庵短期入所生活介護【短期入所生活介護】熊本市中央区本山1丁目6-17", "url": "https://www.kaigokensaku.mhlw.go.jp/43/index.php?action_kouhyou_detail_004_kani=true&JigyosyoCd=4370108864-00&ServiceCd=210&Type=search", "url2": "http://www.sanko-kai.or.jp/kouzan/pr/" }, "geometry": { "type": "Point", "coordinates": [ 130.698414599999978, 32.7907095 ] } },
{ "type": "Feature", "properties": { "内容": "併設型ユニット型短期入所生活介護　リデルホーム【短期入所生活介護】熊本市中央区黒髪５丁目２３番１号", "url": "https://www.kaigokensaku.mhlw.go.jp/43/index.php?action_kouhyou_detail_004_kani=true&JigyosyoCd=4370101992-00&ServiceCd=210&Type=search", "url2": "http://www.riddell-wright.com/" }, "geometry": { "type": "Point", "coordinates": [ 130.73079789999997, 32.8189855 ] } },
{ "type": "Feature", "properties": { "内容": "慈愛園パウラスホーム短期入所生活介護事業所【短期入所生活介護】熊本県熊本市中央区神水1丁目14番1号", "url": "https://www.kaigokensaku.mhlw.go.jp/43/index.php?action_kouhyou_detail_004_kani=true&JigyosyoCd=4370100812-00&ServiceCd=210&Type=search", "url2": "http://jiaien.or.jp" }, "geometry": { "type": "Point", "coordinates": [ 130.74294277923741, 32.784957958643687 ] } },
{ "type": "Feature", "properties": { "内容": "花みずき　介護老人福祉施設【短期入所生活介護】熊本市中央区出水7丁目９０－１", "url": "https://www.kaigokensaku.mhlw.go.jp/43/index.php?action_kouhyou_detail_004_kani=true&JigyosyoCd=4370101984-00&ServiceCd=210&Type=search", "url2": "http://www.yuriekai.jp/" }, "geometry": { "type": "Point", "coordinates": [ 130.7280309, 32.773660100000015 ] } },
{ "type": "Feature", "properties": { "内容": "たくまの里【短期入所生活介護】熊本市東区御領1丁目１３－２６", "url": "https://www.kaigokensaku.mhlw.go.jp/43/index.php?action_kouhyou_detail_004_kani=true&JigyosyoCd=4370106009-00&ServiceCd=210&Type=search", "url2": "http://www.takumanosato.com/" }, "geometry": { "type": "Point", "coordinates": [ 130.76161060000004, 32.8217797 ] } },
{ "type": "Feature", "properties": { "内容": "指定介護老人福祉施設　るり苑【短期入所生活介護】熊本市東区上南部1丁目16-36", "url": "https://www.kaigokensaku.mhlw.go.jp/43/index.php?action_kouhyou_detail_004_kani=true&JigyosyoCd=4370103758-00&ServiceCd=210&Type=search", "url2": "http://www.rurien.jimusho.jp" }, "geometry": { "type": "Point", "coordinates": [ 130.7663351, 32.8354729 ] } },
{ "type": "Feature", "properties": { "内容": "ショートステイハーモニー【短期入所生活介護】熊本市東区秋津町秋田171-3", "url": "https://www.kaigokensaku.mhlw.go.jp/43/index.php?action_kouhyou_detail_004_kani=true&JigyosyoCd=4370101778-00&ServiceCd=210&Type=search", "url2": "http://harmony-k.or.jp/" }, "geometry": { "type": "Point", "coordinates": [ 130.766274399999929, 32.7660569 ] } },
{ "type": "Feature", "properties": { "内容": "短期入所生活介護　ヴィラ・ながみね【短期入所生活介護】熊本県熊本市東区長嶺南4丁目12番65号", "url": "https://www.kaigokensaku.mhlw.go.jp/43/index.php?action_kouhyou_detail_004_kani=true&JigyosyoCd=4370100705-00&ServiceCd=210&Type=search", "url2": "http://www.vira.or.jp/" }, "geometry": { "type": "Point", "coordinates": [ 130.7749126, 32.8077953 ] } },
{ "type": "Feature", "properties": { "内容": "特別養護老人ホーム　シルバーピアさくら樹【短期入所生活介護】熊本市東区佐土原３丁目１２－２６", "url": "https://www.kaigokensaku.mhlw.go.jp/43/index.php?action_kouhyou_detail_004_kani=true&JigyosyoCd=4370105050-00&ServiceCd=210&Type=search", "url2": "http://www.108kai.com" }, "geometry": { "type": "Point", "coordinates": [ 130.782317700000021, 32.7952965 ] } },
{ "type": "Feature", "properties": { "内容": "託麻苑　指定短期入所生活介護事業所【短期入所生活介護】熊本県熊本市東区戸島町460番1", "url": "https://www.kaigokensaku.mhlw.go.jp/43/index.php?action_kouhyou_detail_004_kani=true&JigyosyoCd=4370112189-00&ServiceCd=210&Type=search", "url2": "http://www.takumakai.or.jp/index.html" }, "geometry": { "type": "Point", "coordinates": [ 130.819897493292956, 32.829070837667906 ] } },
{ "type": "Feature", "properties": { "内容": "風の木苑【短期入所生活介護】熊本市東区西原1丁目１１－６３", "url": "https://www.kaigokensaku.mhlw.go.jp/43/index.php?action_kouhyou_detail_004_kani=true&JigyosyoCd=4370106322-00&ServiceCd=210&Type=search", "url2": "http://www.eikou.or.jp" }, "geometry": { "type": "Point", "coordinates": [ 130.751452800000038, 32.8150942 ] } },
{ "type": "Feature", "properties": { "内容": "ショートステイこもれび桜木東【短期入所生活介護】佐土原二丁目7番20号", "url": "https://www.kaigokensaku.mhlw.go.jp/43/index.php?action_kouhyou_detail_004_kani=true&JigyosyoCd=4370116164-00&ServiceCd=210&Type=search", "url2": "http://shinseiki.jp/" }, "geometry": { "type": "Point", "coordinates": [ 130.7812505, 32.792882 ] } },
{ "type": "Feature", "properties": { "内容": "短期入所生活介護　ツバキ【短期入所生活介護】小山町1781", "url": "https://www.kaigokensaku.mhlw.go.jp/43/index.php?action_kouhyou_detail_004_kani=true&JigyosyoCd=4370112627-00&ServiceCd=210&Type=search", "url2": "http://www.k-nisseikai.jp" }, "geometry": { "type": "Point", "coordinates": [ 130.812225500000068, 32.8317956 ] } },
{ "type": "Feature", "properties": { "内容": "画図重富苑ショートステイ【短期入所生活介護】画図町重富968番地", "url": "https://www.kaigokensaku.mhlw.go.jp/43/index.php?action_kouhyou_detail_004_kani=true&JigyosyoCd=4370113542-00&ServiceCd=210&Type=search", "url2": "https//k-zennrinnkai.or.jp/" }, "geometry": { "type": "Point", "coordinates": [ 130.733489601031664, 32.756116009520049 ] } },
{ "type": "Feature", "properties": { "内容": "短期入所生活介護事業所　白川の里【短期入所生活介護】熊本市東区小山町２４９３番地", "url": "https://www.kaigokensaku.mhlw.go.jp/43/index.php?action_kouhyou_detail_004_kani=true&JigyosyoCd=4370106819-00&ServiceCd=210&Type=search", "url2": "http://shirakawa.ed.jp/group/grouplist/shirakawanosato/" }, "geometry": { "type": "Point", "coordinates": [ 130.8104506, 32.834578600000015 ] } },
{ "type": "Feature", "properties": { "内容": "リバーサイド熊本　ユニットホーム　短期入所生活介護【短期入所生活介護】熊本市西区河内町野出１９３６－１", "url": "https://www.kaigokensaku.mhlw.go.jp/43/index.php?action_kouhyou_detail_004_kani=true&JigyosyoCd=4370110522-00&ServiceCd=210&Type=search", "url2": "http://www.kumamotokousei.jp" }, "geometry": { "type": "Point", "coordinates": [ 130.62728919999995, 32.8264693 ] } },
{ "type": "Feature", "properties": { "内容": "おとなの学校　八角堂校【短期入所生活介護】熊本市西区花園2丁目10-16", "url": "https://www.kaigokensaku.mhlw.go.jp/43/index.php?action_kouhyou_detail_004_kani=true&JigyosyoCd=4370106645-00&ServiceCd=210&Type=search", "url2": "https://shoukei-kai.com/" }, "geometry": { "type": "Point", "coordinates": [ 130.692653599999971, 32.8156488 ] } },
{ "type": "Feature", "properties": { "内容": "短期入所生活介護事業所　上熊本苑【短期入所生活介護】熊本県熊本市西区上熊本３丁目１２番２４号", "url": "https://www.kaigokensaku.mhlw.go.jp/43/index.php?action_kouhyou_detail_004_kani=true&JigyosyoCd=4370108922-00&ServiceCd=210&Type=search", "url2": "http://www.shafuku-aiseikai.or.jp/" }, "geometry": { "type": "Point", "coordinates": [ 130.701811099999986, 32.82339 ] } },
{ "type": "Feature", "properties": { "内容": "短期入所生活介護事業所　小島苑【短期入所生活介護】熊本県熊本市西区小島5丁目15番45号", "url": "https://www.kaigokensaku.mhlw.go.jp/43/index.php?action_kouhyou_detail_004_kani=true&JigyosyoCd=4370115091-00&ServiceCd=210&Type=search", "url2": "https://www.shafuku-aiseikai.or.jp/facilities/oshima/" }, "geometry": { "type": "Point", "coordinates": [ 130.6381753, 32.7802451 ] } },
{ "type": "Feature", "properties": { "内容": "リバーサイド熊本　短期入所生活介護【短期入所生活介護】熊本市西区河内町野出１９３６－１", "url": "https://www.kaigokensaku.mhlw.go.jp/43/index.php?action_kouhyou_detail_004_kani=true&JigyosyoCd=4370101307-00&ServiceCd=210&Type=search", "url2": "https://shunkokai.jp" }, "geometry": { "type": "Point", "coordinates": [ 130.627433600000018, 32.8263721 ] } },
{ "type": "Feature", "properties": { "内容": "社会福祉法人聖母会　聖母の丘指定短期入所生活介護事業所【短期入所生活介護】熊本市西区島崎６丁目１－２７", "url": "https://www.kaigokensaku.mhlw.go.jp/43/index.php?action_kouhyou_detail_004_kani=true&JigyosyoCd=4370102016-00&ServiceCd=210&Type=search", "url2": "seibonooka.sakura.ne.jp/" }, "geometry": { "type": "Point", "coordinates": [ 130.688853900000026, 32.8116157 ] } },
{ "type": "Feature", "properties": { "内容": "特別養護老人ホーム　　みかんの丘【短期入所生活介護】熊本市西区河内町白浜字堀切１４４０－２", "url": "https://www.kaigokensaku.mhlw.go.jp/43/index.php?action_kouhyou_detail_004_kani=true&JigyosyoCd=4370104632-00&ServiceCd=210&Type=search", "url2": "https://mikan-oka.com" }, "geometry": { "type": "Point", "coordinates": [ 130.601529364926137, 32.845409275686414 ] } },
{ "type": "Feature", "properties": { "内容": "さくらの苑短期入所生活介護事業所【短期入所生活介護】熊本市西区松尾町近津1361番地", "url": "https://www.kaigokensaku.mhlw.go.jp/43/index.php?action_kouhyou_detail_004_kani=true&JigyosyoCd=4370102602-00&ServiceCd=210&Type=search", "url2": "http://ryowakai.com" }, "geometry": { "type": "Point", "coordinates": [ 130.606182600000011, 32.8025355 ] } },
{ "type": "Feature", "properties": { "内容": "三和荘短期入所生活介護事業所【短期入所生活介護】熊本県熊本市西区城山大塘4-1-15", "url": "https://www.kaigokensaku.mhlw.go.jp/43/index.php?action_kouhyou_detail_004_kani=true&JigyosyoCd=4370102008-00&ServiceCd=210&Type=search", "url2": "http://sanwaso.jp/" }, "geometry": { "type": "Point", "coordinates": [ 130.651416, 32.7848791 ] } },
{ "type": "Feature", "properties": { "内容": "ショートステイ　グッドライフ熊本駅前【短期入所生活介護】熊本県熊本市西区春日２丁目１－２４", "url": "https://www.kaigokensaku.mhlw.go.jp/43/index.php?action_kouhyou_detail_004_kani=true&JigyosyoCd=4370110027-00&ServiceCd=210&Type=search", "url2": "http://www.seishoukai-gl.jp/" }, "geometry": { "type": "Point", "coordinates": [ 130.6912125, 32.7888678 ] } },
{ "type": "Feature", "properties": { "内容": "長寿の里短期入所生活介護事業所【短期入所生活介護】熊本市西区城山薬師2丁目10番10号", "url": "https://www.kaigokensaku.mhlw.go.jp/43/index.php?action_kouhyou_detail_004_kani=true&JigyosyoCd=4370116735-00&ServiceCd=210&Type=search", "url2": "https://ksfj.jp/senior/welfare-chouju" }, "geometry": { "type": "Point", "coordinates": [ 130.6459463, 32.7715038 ] } },
{ "type": "Feature", "properties": { "内容": "特別養護老人ホーム　輝祥苑【短期入所生活介護】熊本県熊本市西区戸坂町23番35号", "url": "https://www.kaigokensaku.mhlw.go.jp/43/index.php?action_kouhyou_detail_004_kani=true&JigyosyoCd=4370112593-00&ServiceCd=210&Type=search", "url2": "http://www.rissi.or.jp" }, "geometry": { "type": "Point", "coordinates": [ 130.682129600000053, 32.79980010000002 ] } },
{ "type": "Feature", "properties": { "内容": "短期入所生活介護かわしり御蔵【短期入所生活介護】熊本市南区南高江7丁目3番", "url": "https://www.kaigokensaku.mhlw.go.jp/43/index.php?action_kouhyou_detail_004_kani=true&JigyosyoCd=4370113906-00&ServiceCd=210&Type=search", "url2": "あり" }, "geometry": { "type": "Point", "coordinates": [ 130.686540499999978, 32.7447094 ] } },
{ "type": "Feature", "properties": { "内容": "みゆき東館【短期入所生活介護】熊本市南区御幸笛⽥６－６－７１", "url": "https://www.kaigokensaku.mhlw.go.jp/43/index.php?action_kouhyou_detail_004_kani=true&JigyosyoCd=4370109474-00&ServiceCd=210&Type=search", "url2": "http://www.miyukinosato.or.jp/" }, "geometry": { "type": "Point", "coordinates": [ 130.709042599999947, 32.7577045 ] } },
{ "type": "Feature", "properties": { "内容": "介護付き有料老人ホーム　ローズヴィラマツモト【短期入所生活介護】熊本県熊本市南区野田２丁目３１番６号", "url": "https://www.kaigokensaku.mhlw.go.jp/43/index.php?action_kouhyou_detail_004_kani=true&JigyosyoCd=4370101943-00&ServiceCd=210&Type=search", "url2": "http://rosevillamatsumoto.com" }, "geometry": { "type": "Point", "coordinates": [ 130.685803699999951, 32.732395 ] } },
{ "type": "Feature", "properties": { "内容": "天寿園ショートステイ「ふれんど」【短期入所生活介護】熊本市南区奥古閑町４３７５番１", "url": "https://www.kaigokensaku.mhlw.go.jp/43/index.php?action_kouhyou_detail_004_kani=true&JigyosyoCd=4370101968-00&ServiceCd=210&Type=search", "url2": "https://fuku-juryo.jp" }, "geometry": { "type": "Point", "coordinates": [ 130.620838899999967, 32.7294554 ] } },
{ "type": "Feature", "properties": { "内容": "力合つくし庵【短期入所生活介護】熊本市南区合志４丁目３番５０号", "url": "https://www.kaigokensaku.mhlw.go.jp/43/index.php?action_kouhyou_detail_004_kani=true&JigyosyoCd=4370105746-00&ServiceCd=210&Type=search", "url2": "http://www.sanko-kai.or.jp/" }, "geometry": { "type": "Point", "coordinates": [ 130.674662200000057, 32.7549347 ] } },
{ "type": "Feature", "properties": { "内容": "特別養護老人ホーム　みゆき園【短期入所生活介護】熊本県熊本市南区御幸笛田6丁目6番71号", "url": "https://www.kaigokensaku.mhlw.go.jp/43/index.php?action_kouhyou_detail_004_kani=true&JigyosyoCd=4370101927-00&ServiceCd=210&Type=search", "url2": "http://www.miyukinosato.or.jp" }, "geometry": { "type": "Point", "coordinates": [ 130.710595199999943, 32.7585072 ] } },
{ "type": "Feature", "properties": { "内容": "シルバー日吉ショートステイサービス【短期入所生活介護】熊本市南区平成2丁目6番9号", "url": "https://www.kaigokensaku.mhlw.go.jp/43/index.php?action_kouhyou_detail_004_kani=true&JigyosyoCd=4370101976-00&ServiceCd=210&Type=search", "url2": "http://care-net.biz/43/silver" }, "geometry": { "type": "Point", "coordinates": [ 130.702675699999986, 32.7781719 ] } },
{ "type": "Feature", "properties": { "内容": "ショートステイ　ゆうとぴあ【短期入所生活介護】熊本県熊本市南区富合町古閑９９４番地１", "url": "https://www.kaigokensaku.mhlw.go.jp/43/index.php?action_kouhyou_detail_004_kani=true&JigyosyoCd=4372300717-00&ServiceCd=210&Type=search", "url2": "wasoukai.com" }, "geometry": { "type": "Point", "coordinates": [ 130.676527800000031, 32.7093357 ] } },
{ "type": "Feature", "properties": { "内容": "祥麟館ショートステイ【短期入所生活介護】熊本県熊本市南区城南町沈目１５１３", "url": "https://www.kaigokensaku.mhlw.go.jp/43/index.php?action_kouhyou_detail_004_kani=true&JigyosyoCd=4372300683-00&ServiceCd=210&Type=search", "url2": "http://www.k-group.jp/shorin/index.html" }, "geometry": { "type": "Point", "coordinates": [ 130.750692299999969, 32.697002 ] } },
{ "type": "Feature", "properties": { "内容": "こぼり苑短期入所生活介護事業所【短期入所生活介護】熊本市南区護藤町１５８６", "url": "https://www.kaigokensaku.mhlw.go.jp/43/index.php?action_kouhyou_detail_004_kani=true&JigyosyoCd=4370101760-00&ServiceCd=210&Type=search", "url2": "http://www.koborien.or.jp" }, "geometry": { "type": "Point", "coordinates": [ 130.673526873016357, 32.74900194940269 ] } },
{ "type": "Feature", "properties": { "内容": "短期入所生活介護事業所　はるの里【短期入所生活介護】熊本県熊本市南区城南町舞原253番地-１", "url": "https://www.kaigokensaku.mhlw.go.jp/43/index.php?action_kouhyou_detail_004_kani=true&JigyosyoCd=4370109714-00&ServiceCd=210&Type=search", "url2": "https://kayuukai.xsrv.jp/" }, "geometry": { "type": "Point", "coordinates": [ 130.746578199999931, 32.7090176 ] } },
{ "type": "Feature", "properties": { "内容": "短期入所生活介護事業所　黎明館【短期入所生活介護】熊本県熊本市北区植木町豊田１８７", "url": "https://www.kaigokensaku.mhlw.go.jp/43/index.php?action_kouhyou_detail_004_kani=true&JigyosyoCd=4372500605-00&ServiceCd=210&Type=search", "url2": "http://www.sanpo-fukushi.com/kanri/" }, "geometry": { "type": "Point", "coordinates": [ 130.706834500000014, 32.9407694 ] } },
{ "type": "Feature", "properties": { "内容": "ショートステイ　スープ徳王【短期入所生活介護】熊本県熊本市北区徳王１丁目１１番６５号", "url": "https://www.kaigokensaku.mhlw.go.jp/43/index.php?action_kouhyou_detail_004_kani=true&JigyosyoCd=4370116107-00&ServiceCd=210&Type=search", "url2": "https://www.s-brillant.co.jp" }, "geometry": { "type": "Point", "coordinates": [ 130.7060395, 32.8390991 ] } },
{ "type": "Feature", "properties": { "内容": "短期入所生活介護事業所つるのはら【短期入所生活介護】熊本県熊本市北区梶尾町1779番7", "url": "https://www.kaigokensaku.mhlw.go.jp/43/index.php?action_kouhyou_detail_004_kani=true&JigyosyoCd=4370112791-00&ServiceCd=210&Type=search", "url2": "http//www.syafuku-aiseikai.or.jp" }, "geometry": { "type": "Point", "coordinates": [ 130.728917200000069, 32.8676505 ] } },
{ "type": "Feature", "properties": { "内容": "コスモス・ファミリー熊本短期入所生活介護事業所【短期入所生活介護】熊本市北区太郎迫町144-1", "url": "https://www.kaigokensaku.mhlw.go.jp/43/index.php?action_kouhyou_detail_004_kani=true&JigyosyoCd=4370101935-00&ServiceCd=210&Type=search", "url2": "http://www.shafuku-aiseikai.or.jp/" }, "geometry": { "type": "Point", "coordinates": [ 130.672385299999974, 32.8600058 ] } },
{ "type": "Feature", "properties": { "内容": "ショートステイ高平【短期入所生活介護】熊本県熊本市北区大窪３丁目１１番４７号", "url": "https://www.kaigokensaku.mhlw.go.jp/43/index.php?action_kouhyou_detail_004_kani=true&JigyosyoCd=4370107197-00&ServiceCd=210&Type=search", "url2": "http://www.ikueikai-kumamoto.or.jp/sunvillage/index.htm" }, "geometry": { "type": "Point", "coordinates": [ 130.712835, 32.8504879 ] } },
{ "type": "Feature", "properties": { "内容": "くわのみ荘短期入所介護事業所【短期入所生活介護】熊本県熊本市北区鹿子木町４０５", "url": "https://www.kaigokensaku.mhlw.go.jp/43/index.php?action_kouhyou_detail_004_kani=true&JigyosyoCd=4370101117-00&ServiceCd=210&Type=search", "url2": "http://www.kuwa.or.jp" }, "geometry": { "type": "Point", "coordinates": [ 130.696330200000034, 32.8722271 ] } },
{ "type": "Feature", "properties": { "内容": "指定短期入所生活介護事業所あいこう【短期入所生活介護】熊本県熊本市北区清水新地三丁目５番３３号", "url": "https://www.kaigokensaku.mhlw.go.jp/43/index.php?action_kouhyou_detail_004_kani=true&JigyosyoCd=4370102446-00&ServiceCd=210&Type=search", "url2": "http://www.aikou.or.jp" }, "geometry": { "type": "Point", "coordinates": [ 130.7395113, 32.847944 ] } },
{ "type": "Feature", "properties": { "内容": "ショートステイさわらび【短期入所生活介護】熊本県熊本市北区弓削４丁目８番１号", "url": "https://www.kaigokensaku.mhlw.go.jp/43/index.php?action_kouhyou_detail_004_kani=true&JigyosyoCd=4370103113-00&ServiceCd=210&Type=search", "url2": "http://kumamotokikujyukai.or.jp/" }, "geometry": { "type": "Point", "coordinates": [ 130.781776, 32.8542981 ] } },
{ "type": "Feature", "properties": { "内容": "天望庵短期入所生活介護事業所【短期入所生活介護】熊本県熊本市北区龍田陳内1丁目3番30号", "url": "https://www.kaigokensaku.mhlw.go.jp/43/index.php?action_kouhyou_detail_004_kani=true&JigyosyoCd=4370101786-00&ServiceCd=210&Type=search", "url2": "https://jiyukai.or.jp/" }, "geometry": { "type": "Point", "coordinates": [ 130.745561299999963, 32.8227796 ] } },
{ "type": "Feature", "properties": { "内容": "くまもと龍田翔裕園【短期入所生活介護】熊本県熊本市北区弓削6丁目6番31号", "url": "https://www.kaigokensaku.mhlw.go.jp/43/index.php?action_kouhyou_detail_004_kani=true&JigyosyoCd=4370111355-00&ServiceCd=210&Type=search", "url2": "http://www.genkimuragroup.jp/" }, "geometry": { "type": "Point", "coordinates": [ 130.77407850651548, 32.848870068002121 ] } },
{ "type": "Feature", "properties": { "内容": "かなんの杜　ショートステイサービス【短期入所生活介護】熊本県熊本市北区植木町植木４３２", "url": "https://www.kaigokensaku.mhlw.go.jp/43/index.php?action_kouhyou_detail_004_kani=true&JigyosyoCd=4370110654-00&ServiceCd=210&Type=search", "url2": "http://kanan.or.jp" }, "geometry": { "type": "Point", "coordinates": [ 130.6906083, 32.8949277 ] } },
{ "type": "Feature", "properties": { "内容": "田原の郷短期入所生活介護事業所【短期入所生活介護】熊本県熊本市北区植木町鞍掛１５２２－１", "url": "https://www.kaigokensaku.mhlw.go.jp/43/index.php?action_kouhyou_detail_004_kani=true&JigyosyoCd=4370110472-00&ServiceCd=210&Type=search", "url2": "http://tabarunosato.com/" }, "geometry": { "type": "Point", "coordinates": [ 130.676535410975674, 32.90268021116519 ] } },
{ "type": "Feature", "properties": { "内容": "特別養護老人ホーム行楽園【短期入所生活介護】熊本県八代市日奈久塩北町２９０５番地", "url": "https://www.kaigokensaku.mhlw.go.jp/43/index.php?action_kouhyou_detail_004_kani=true&JigyosyoCd=4370200661-00&ServiceCd=210&Type=search", "url2": null }, "geometry": { "type": "Point", "coordinates": [ 130.583623799999941, 32.4329216 ] } },
{ "type": "Feature", "properties": { "内容": "ユニット型　特別養護老人ホーム　安寿の里【短期入所生活介護】熊本県八代市鏡町両出８８０番地の１", "url": "https://www.kaigokensaku.mhlw.go.jp/43/index.php?action_kouhyou_detail_004_kani=true&JigyosyoCd=4370202642-00&ServiceCd=210&Type=search", "url2": null }, "geometry": { "type": "Point", "coordinates": [ 130.635468, 32.5486717 ] } },
{ "type": "Feature", "properties": { "内容": "地域密着型特別養護老人ホーム　サテライト　安寿の里【短期入所生活介護】熊本県八代市鏡町内田742番2", "url": "https://www.kaigokensaku.mhlw.go.jp/43/index.php?action_kouhyou_detail_004_kani=true&JigyosyoCd=4370203020-00&ServiceCd=210&Type=search", "url2": null }, "geometry": { "type": "Point", "coordinates": [ 130.6563688, 32.567396 ] } },
{ "type": "Feature", "properties": { "内容": "あさひ園みやじ短期入所生活介護事業所【短期入所生活介護】熊本県八代市宮地町１６９番地１", "url": "https://www.kaigokensaku.mhlw.go.jp/43/index.php?action_kouhyou_detail_004_kani=true&JigyosyoCd=4370203277-00&ServiceCd=210&Type=search", "url2": "http://www.kyoujukai.jp" }, "geometry": { "type": "Point", "coordinates": [ 130.6376697, 32.4987071 ] } },
{ "type": "Feature", "properties": { "内容": "あさひ園短期入所生活介護事業所【短期入所生活介護】八代市上日置町２３４５番地", "url": "https://www.kaigokensaku.mhlw.go.jp/43/index.php?action_kouhyou_detail_004_kani=true&JigyosyoCd=4370200653-00&ServiceCd=210&Type=search", "url2": "http://www.kyoujukai.jp" }, "geometry": { "type": "Point", "coordinates": [ 130.62780829999997, 32.5094994 ] } },
{ "type": "Feature", "properties": { "内容": "すずらんの里【短期入所生活介護】熊本県八代市葭牟田町435番地", "url": "https://www.kaigokensaku.mhlw.go.jp/43/index.php?action_kouhyou_detail_004_kani=true&JigyosyoCd=4370200596-00&ServiceCd=210&Type=search", "url2": "http://www.tenryuukai.jp" }, "geometry": { "type": "Point", "coordinates": [ 130.578960677909919, 32.493585087434383 ] } },
{ "type": "Feature", "properties": { "内容": "ま心苑ショートステイ【短期入所生活介護】熊本県八代市敷川内町２２５１番地の１", "url": "https://www.kaigokensaku.mhlw.go.jp/43/index.php?action_kouhyou_detail_004_kani=true&JigyosyoCd=4370200638-00&ServiceCd=210&Type=search", "url2": "http://magokoroen.jp" }, "geometry": { "type": "Point", "coordinates": [ 130.599076500000024, 32.4574889 ] } },
{ "type": "Feature", "properties": { "内容": "みやび園短期入所生活介護事業所【短期入所生活介護】熊本県八代市高島町４２２１番地", "url": "https://www.kaigokensaku.mhlw.go.jp/43/index.php?action_kouhyou_detail_004_kani=true&JigyosyoCd=4370200646-00&ServiceCd=210&Type=search", "url2": "http://www.tagata-group.jp/miyabien/" }, "geometry": { "type": "Point", "coordinates": [ 130.582869800000026, 32.5238325 ] } },
{ "type": "Feature", "properties": { "内容": "地域密着型介護老人福祉施設　希望【短期入所生活介護】熊本県八代市興善寺町495番地1", "url": "https://www.kaigokensaku.mhlw.go.jp/43/index.php?action_kouhyou_detail_004_kani=true&JigyosyoCd=4370201784-00&ServiceCd=210&Type=search", "url2": "http://www.ryuhou-kibou.com" }, "geometry": { "type": "Point", "coordinates": [ 130.659274, 32.5275912 ] } },
{ "type": "Feature", "properties": { "内容": "八代草短期入所生活介護【短期入所生活介護】熊本県八代市海士江町2833番地1", "url": "https://www.kaigokensaku.mhlw.go.jp/43/index.php?action_kouhyou_detail_004_kani=true&JigyosyoCd=4370202501-00&ServiceCd=210&Type=search", "url2": "http://yatsushirosou.or.jp" }, "geometry": { "type": "Point", "coordinates": [ 130.621897159658403, 32.523870747603645 ] } },
{ "type": "Feature", "properties": { "内容": "短期入所生活介護事業所　キャッスル麦島【短期入所生活介護】熊本県八代市古城町１９３８－１", "url": "https://www.kaigokensaku.mhlw.go.jp/43/index.php?action_kouhyou_detail_004_kani=true&JigyosyoCd=4370202600-00&ServiceCd=210&Type=search", "url2": null }, "geometry": { "type": "Point", "coordinates": [ 130.597443800000036, 32.500045800000024 ] } },
{ "type": "Feature", "properties": { "内容": "康和苑【短期入所生活介護】熊本県八代市千丁町太牟田1300番地8", "url": "https://www.kaigokensaku.mhlw.go.jp/43/index.php?action_kouhyou_detail_004_kani=true&JigyosyoCd=4372900383-00&ServiceCd=210&Type=search", "url2": null }, "geometry": { "type": "Point", "coordinates": [ 130.647698399999967, 32.5417423 ] } },
{ "type": "Feature", "properties": { "内容": "ひかわの里ショートステイサービス【短期入所生活介護】熊本県八代市東陽町南７５２－１", "url": "https://www.kaigokensaku.mhlw.go.jp/43/index.php?action_kouhyou_detail_004_kani=true&JigyosyoCd=4372900599-00&ServiceCd=210&Type=search", "url2": "http://wwwtousen-kai.or.jp" }, "geometry": { "type": "Point", "coordinates": [ 130.710577199999989, 32.5482855 ] } },
{ "type": "Feature", "properties": { "内容": "特別養護老人ホーム　安寿の里【短期入所生活介護】熊本県八代市鏡町両出８８０－１", "url": "https://www.kaigokensaku.mhlw.go.jp/43/index.php?action_kouhyou_detail_004_kani=true&JigyosyoCd=4372900664-00&ServiceCd=210&Type=search", "url2": "http://www.kaigonet.net/anju/" }, "geometry": { "type": "Point", "coordinates": [ 130.635468, 32.5486717 ] } },
{ "type": "Feature", "properties": { "内容": "聖心園【短期入所生活介護】熊本県人吉市寺町９番地5", "url": "https://www.kaigokensaku.mhlw.go.jp/43/index.php?action_kouhyou_detail_004_kani=true&JigyosyoCd=4370300370-00&ServiceCd=210&Type=search", "url2": null }, "geometry": { "type": "Point", "coordinates": [ 130.761740700000018, 32.2067298 ] } },
{ "type": "Feature", "properties": { "内容": "ショートステイ　アゼリア【短期入所生活介護】熊本県人吉市蟹作町3690番地", "url": "https://www.kaigokensaku.mhlw.go.jp/43/index.php?action_kouhyou_detail_004_kani=true&JigyosyoCd=4370300990-00&ServiceCd=210&Type=search", "url2": "http://www.kaiseikai-azelea.com" }, "geometry": { "type": "Point", "coordinates": [ 130.774873541633639, 32.195857413442297 ] } },
{ "type": "Feature", "properties": { "内容": "ユニット型オレンジヒル短期入所生活介護事業所【短期入所生活介護】熊本県荒尾市樺２５１６番地", "url": "https://www.kaigokensaku.mhlw.go.jp/43/index.php?action_kouhyou_detail_004_kani=true&JigyosyoCd=4370401343-00&ServiceCd=210&Type=search", "url2": "http://ks-orange.jp" }, "geometry": { "type": "Point", "coordinates": [ 130.5002538, 32.9662332 ] } },
{ "type": "Feature", "properties": { "内容": "白寿園【短期入所生活介護】熊本県荒尾市一部字鴻巣２１２２番地", "url": "https://www.kaigokensaku.mhlw.go.jp/43/index.php?action_kouhyou_detail_004_kani=true&JigyosyoCd=4370400352-00&ServiceCd=210&Type=search", "url2": "http://www.hakujuen.jp" }, "geometry": { "type": "Point", "coordinates": [ 130.457218428063925, 32.971288093237845 ] } },
{ "type": "Feature", "properties": { "内容": "オレンジヒル短期入所生活介護事業所【短期入所生活介護】熊本県荒尾市樺２５１６番地", "url": "https://www.kaigokensaku.mhlw.go.jp/43/index.php?action_kouhyou_detail_004_kani=true&JigyosyoCd=4370400402-00&ServiceCd=210&Type=search", "url2": "http://ks-orange.jp/" }, "geometry": { "type": "Point", "coordinates": [ 130.5002538, 32.9662332 ] } },
{ "type": "Feature", "properties": { "内容": "白梅荘短期入所生活介護事業所【短期入所生活介護】熊本県水俣市古賀町２丁目５番３１号", "url": "https://www.kaigokensaku.mhlw.go.jp/43/index.php?action_kouhyou_detail_004_kani=true&JigyosyoCd=4370500466-00&ServiceCd=210&Type=search", "url2": "http://www.shiraumesou.com" }, "geometry": { "type": "Point", "coordinates": [ 130.398154120959902, 32.212986553683486 ] } },
{ "type": "Feature", "properties": { "内容": "白梅の杜短期入所生活介護事業所【短期入所生活介護】熊本県水俣市古賀町２丁目５－３２", "url": "https://www.kaigokensaku.mhlw.go.jp/43/index.php?action_kouhyou_detail_004_kani=true&JigyosyoCd=4370500847-00&ServiceCd=210&Type=search", "url2": "http://www.shiraumesou.com/" }, "geometry": { "type": "Point", "coordinates": [ 130.398248800000033, 32.212699100000016 ] } },
{ "type": "Feature", "properties": { "内容": "特別養護老人ホーム　有明ホーム　ユニット陽だまり　空床型ショート【短期入所生活介護】熊本県玉名市天水町部田見440番地", "url": "https://www.kaigokensaku.mhlw.go.jp/43/index.php?action_kouhyou_detail_004_kani=true&JigyosyoCd=4370601256-00&ServiceCd=210&Type=search", "url2": "http://www.ariakehome.jp/" }, "geometry": { "type": "Point", "coordinates": [ 130.569768699999941, 32.885413 ] } },
{ "type": "Feature", "properties": { "内容": "短期入所生活介護事業所岱山苑ショートステイ【短期入所生活介護】玉名市築地兎町1596番地1", "url": "https://www.kaigokensaku.mhlw.go.jp/43/index.php?action_kouhyou_detail_004_kani=true&JigyosyoCd=4370600431-00&ServiceCd=210&Type=search", "url2": "http://www.taizanen.com" }, "geometry": { "type": "Point", "coordinates": [ 130.530841499999951, 32.933123 ] } },
{ "type": "Feature", "properties": { "内容": "さくら苑【短期入所生活介護】熊本県玉名市伊倉北方1533番地", "url": "https://www.kaigokensaku.mhlw.go.jp/43/index.php?action_kouhyou_detail_004_kani=true&JigyosyoCd=4370600449-00&ServiceCd=210&Type=search", "url2": "https://www.sakura-en.com/" }, "geometry": { "type": "Point", "coordinates": [ 130.574748, 32.9141274 ] } },
{ "type": "Feature", "properties": { "内容": "特別養護老人ホーム　もやい処【短期入所生活介護】玉名市築地64番地1特別養護老人ホーム　もやい処", "url": "https://www.kaigokensaku.mhlw.go.jp/43/index.php?action_kouhyou_detail_004_kani=true&JigyosyoCd=4370601124-00&ServiceCd=210&Type=search", "url2": "http://www.ariakehome.jp/" }, "geometry": { "type": "Point", "coordinates": [ 130.5338941, 32.931948100000035 ] } },
{ "type": "Feature", "properties": { "内容": "ケアビレッジたがの里　短期入所生活介護事業所【短期入所生活介護】熊本県玉名市天水町小天字権現下６６３３番地１", "url": "https://www.kaigokensaku.mhlw.go.jp/43/index.php?action_kouhyou_detail_004_kani=true&JigyosyoCd=4370601397-00&ServiceCd=210&Type=search", "url2": "taganosato@tensui.or.jp" }, "geometry": { "type": "Point", "coordinates": [ 130.594230899999957, 32.8590633 ] } },
{ "type": "Feature", "properties": { "内容": "慈幸苑短期入所生活介護事業所【短期入所生活介護】熊本県玉名市横島町横島2381-1", "url": "https://www.kaigokensaku.mhlw.go.jp/43/index.php?action_kouhyou_detail_004_kani=true&JigyosyoCd=4372400707-00&ServiceCd=210&Type=search", "url2": "https://souyukai.or.jp/" }, "geometry": { "type": "Point", "coordinates": [ 130.561586300000045, 32.8793661 ] } },
{ "type": "Feature", "properties": { "内容": "ショートステイサービスたいめい苑【短期入所生活介護】熊本県玉名市岱明町古閑３８８番地", "url": "https://www.kaigokensaku.mhlw.go.jp/43/index.php?action_kouhyou_detail_004_kani=true&JigyosyoCd=4372400749-00&ServiceCd=210&Type=search", "url2": "http://ww7.tiki.ne.jp/~taimeien" }, "geometry": { "type": "Point", "coordinates": [ 130.506009799999987, 32.9304732 ] } },
{ "type": "Feature", "properties": { "内容": "有明ホームショートステイ【短期入所生活介護】熊本県玉名市天水町部田見440番地", "url": "https://www.kaigokensaku.mhlw.go.jp/43/index.php?action_kouhyou_detail_004_kani=true&JigyosyoCd=4372400756-00&ServiceCd=210&Type=search", "url2": "http://www.ariakehome.jp/" }, "geometry": { "type": "Point", "coordinates": [ 130.569768699999941, 32.885413 ] } },
{ "type": "Feature", "properties": { "内容": "特別養護老人ホーム　一本松荘ショートステイ【短期入所生活介護】熊本県山鹿市鹿本町津袋４５０", "url": "https://www.kaigokensaku.mhlw.go.jp/43/index.php?action_kouhyou_detail_004_kani=true&JigyosyoCd=4372500613-00&ServiceCd=210&Type=search", "url2": "http://www.ipponmatu.com/" }, "geometry": { "type": "Point", "coordinates": [ 130.7541235, 33.0114931 ] } },
{ "type": "Feature", "properties": { "内容": "社会福祉法人愛隣園　愛隣の家短期入所生活介護事業所【短期入所生活介護】熊本県山鹿市津留2027", "url": "https://www.kaigokensaku.mhlw.go.jp/43/index.php?action_kouhyou_detail_004_kani=true&JigyosyoCd=4370800411-00&ServiceCd=210&Type=search", "url2": "http://aileans.com/ie/" }, "geometry": { "type": "Point", "coordinates": [ 130.685555600000043, 33.0557909 ] } },
{ "type": "Feature", "properties": { "内容": "矢筈荘短期入所生活介護事業所【短期入所生活介護】熊本県山鹿市菊鹿町長502番地", "url": "https://www.kaigokensaku.mhlw.go.jp/43/index.php?action_kouhyou_detail_004_kani=true&JigyosyoCd=4372500340-00&ServiceCd=210&Type=search", "url2": "http://yahazusou.com/" }, "geometry": { "type": "Point", "coordinates": [ 130.761955299999954, 33.0422239 ] } },
{ "type": "Feature", "properties": { "内容": "あやすぎショートステイセンター【短期入所生活介護】熊本県山鹿市鹿北町岩野５４９７番地２", "url": "https://www.kaigokensaku.mhlw.go.jp/43/index.php?action_kouhyou_detail_004_kani=true&JigyosyoCd=4372500597-00&ServiceCd=210&Type=search", "url2": "http://www.ayasugisou.com" }, "geometry": { "type": "Point", "coordinates": [ 130.68947270000001, 33.1082473 ] } },
{ "type": "Feature", "properties": { "内容": "短期入所生活介護事業所　あいさと【短期入所生活介護】熊本県山鹿市合里1039番地", "url": "https://www.kaigokensaku.mhlw.go.jp/43/index.php?action_kouhyou_detail_004_kani=true&JigyosyoCd=4372500654-00&ServiceCd=210&Type=search", "url2": "http://www.keisyo-kai.jp/" }, "geometry": { "type": "Point", "coordinates": [ 130.6753808, 32.9794559 ] } },
{ "type": "Feature", "properties": { "内容": "ユニット型特別養護老人ホーム　一本松荘ショートステイ【短期入所生活介護】熊本県山鹿市鹿本町津袋450", "url": "https://www.kaigokensaku.mhlw.go.jp/43/index.php?action_kouhyou_detail_004_kani=true&JigyosyoCd=4370801096-00&ServiceCd=210&Type=search", "url2": "http://www.ipponmatu.com/" }, "geometry": { "type": "Point", "coordinates": [ 130.7541235, 33.0114931 ] } },
{ "type": "Feature", "properties": { "内容": "チブサン荘短期入所生活介護事業所【短期入所生活介護】熊本県山鹿市鍋田1888番地の1", "url": "https://www.kaigokensaku.mhlw.go.jp/43/index.php?action_kouhyou_detail_004_kani=true&JigyosyoCd=4370800437-00&ServiceCd=210&Type=search", "url2": "http://tibusansou.com/" }, "geometry": { "type": "Point", "coordinates": [ 130.666685899999948, 33.0219495 ] } },
{ "type": "Feature", "properties": { "内容": "地域密着型特別養護老人ホーム清泉【短期入所生活介護】熊本県菊池市七城町亀尾2429番地", "url": "https://www.kaigokensaku.mhlw.go.jp/43/index.php?action_kouhyou_detail_004_kani=true&JigyosyoCd=4371000961-00&ServiceCd=210&Type=search", "url2": "http://www9.ocn.ne.jp/~seisen" }, "geometry": { "type": "Point", "coordinates": [ 130.768224, 32.9553711 ] } },
{ "type": "Feature", "properties": { "内容": "ユニット型泗水苑ショートステイ事業所【短期入所生活介護】熊本県菊池市泗水町永１０２１番地", "url": "https://www.kaigokensaku.mhlw.go.jp/43/index.php?action_kouhyou_detail_004_kani=true&JigyosyoCd=4371000979-00&ServiceCd=210&Type=search", "url2": "http://www.sisuien.com" }, "geometry": { "type": "Point", "coordinates": [ 130.802902300000028, 32.9260092 ] } },
{ "type": "Feature", "properties": { "内容": "ケアホームともづなショートステイ【短期入所生活介護】熊本県菊池市西寺1590", "url": "https://www.kaigokensaku.mhlw.go.jp/43/index.php?action_kouhyou_detail_004_kani=true&JigyosyoCd=4371001118-00&ServiceCd=210&Type=search", "url2": "http://www.tomoduna.co.jp" }, "geometry": { "type": "Point", "coordinates": [ 130.798462500000028, 32.9695416 ] } },
{ "type": "Feature", "properties": { "内容": "特別養護老人ホーム清泉【短期入所生活介護】熊本県菊池市七城町亀尾2429", "url": "https://www.kaigokensaku.mhlw.go.jp/43/index.php?action_kouhyou_detail_004_kani=true&JigyosyoCd=4372600363-00&ServiceCd=210&Type=search", "url2": "https://seisen-aikei.wixsite.com/seisen" }, "geometry": { "type": "Point", "coordinates": [ 130.768224, 32.9553711 ] } },
{ "type": "Feature", "properties": { "内容": "泗水苑ショートステイ事業所【短期入所生活介護】菊池市泗水町永１０２１番地", "url": "https://www.kaigokensaku.mhlw.go.jp/43/index.php?action_kouhyou_detail_004_kani=true&JigyosyoCd=4372600959-00&ServiceCd=210&Type=search", "url2": "https://www.sisuien.com" }, "geometry": { "type": "Point", "coordinates": [ 130.802902300000028, 32.9260092 ] } },
{ "type": "Feature", "properties": { "内容": "社会福祉法人東康会特別養護老人ホームつまごめ荘短期入所生活介護事業所（ユニット型）【短期入所生活介護】熊本県菊池市今５８番地", "url": "https://www.kaigokensaku.mhlw.go.jp/43/index.php?action_kouhyou_detail_004_kani=true&JigyosyoCd=4371001175-00&ServiceCd=210&Type=search", "url2": null }, "geometry": { "type": "Point", "coordinates": [ 130.8148683, 32.9710317 ] } },
{ "type": "Feature", "properties": { "内容": "特別養護老人ホームわいふ桜座　ショートステイ【短期入所生活介護】熊本県菊池市隈府114-3", "url": "https://www.kaigokensaku.mhlw.go.jp/43/index.php?action_kouhyou_detail_004_kani=true&JigyosyoCd=4371001183-00&ServiceCd=210&Type=search", "url2": null }, "geometry": { "type": "Point", "coordinates": [ 130.808417100000014, 32.9825955 ] } },
{ "type": "Feature", "properties": { "内容": "照古苑ショートステーション【短期入所生活介護】熊本県宇土市南段原町１６１－２", "url": "https://www.kaigokensaku.mhlw.go.jp/43/index.php?action_kouhyou_detail_004_kani=true&JigyosyoCd=4371100415-00&ServiceCd=210&Type=search", "url2": "http://www.hakujitsukai.jp" }, "geometry": { "type": "Point", "coordinates": [ 130.663190699999973, 32.6800134 ] } },
{ "type": "Feature", "properties": { "内容": "ショートステイ西城園【短期入所生活介護】熊本県宇土市下網田町1905", "url": "https://www.kaigokensaku.mhlw.go.jp/43/index.php?action_kouhyou_detail_004_kani=true&JigyosyoCd=4371100761-00&ServiceCd=210&Type=search", "url2": "http://seijyo-en.com/" }, "geometry": { "type": "Point", "coordinates": [ 130.550365156730663, 32.66807154551956 ] } },
{ "type": "Feature", "properties": { "内容": "照古苑ひまわりホーム　ショートステイ【短期入所生活介護】熊本県宇土市松山町1988", "url": "https://www.kaigokensaku.mhlw.go.jp/43/index.php?action_kouhyou_detail_004_kani=true&JigyosyoCd=4371100795-00&ServiceCd=210&Type=search", "url2": "http://hakujitsukai.jp/" }, "geometry": { "type": "Point", "coordinates": [ 129.8631557, 32.7741344 ] } },
{ "type": "Feature", "properties": { "内容": "翔洋苑短期入所生活介護事業所【短期入所生活介護】熊本県上天草市姫戸町姫浦字西成川内3055番地106", "url": "https://www.kaigokensaku.mhlw.go.jp/43/index.php?action_kouhyou_detail_004_kani=true&JigyosyoCd=4373201047-00&ServiceCd=210&Type=search", "url2": "http://www.shoyoen.or.jp/" }, "geometry": { "type": "Point", "coordinates": [ 130.417805600000065, 32.4555463 ] } },
{ "type": "Feature", "properties": { "内容": "南風苑短期入所サービスセンター【短期入所生活介護】熊本県上天草市大矢野町登立8531番地", "url": "https://www.kaigokensaku.mhlw.go.jp/43/index.php?action_kouhyou_detail_004_kani=true&JigyosyoCd=4373201070-00&ServiceCd=210&Type=search", "url2": "https://nanpuen.com/" }, "geometry": { "type": "Point", "coordinates": [ 130.432776200000035, 32.5935828 ] } },
{ "type": "Feature", "properties": { "内容": "短期入所生活介護ひかりの園【短期入所生活介護】熊本県上天草市松島町今泉1004-1", "url": "https://www.kaigokensaku.mhlw.go.jp/43/index.php?action_kouhyou_detail_004_kani=true&JigyosyoCd=4373201096-00&ServiceCd=210&Type=search", "url2": "http.//hikarinosono1995.com" }, "geometry": { "type": "Point", "coordinates": [ 130.4234735, 32.4900876 ] } },
{ "type": "Feature", "properties": { "内容": "相生荘ショートステイ事業所【短期入所生活介護】熊本県上天草市龍ヶ岳町大道158番地", "url": "https://www.kaigokensaku.mhlw.go.jp/43/index.php?action_kouhyou_detail_004_kani=true&JigyosyoCd=4373201120-00&ServiceCd=210&Type=search", "url2": null }, "geometry": { "type": "Point", "coordinates": [ 130.351240599999983, 32.3947693 ] } },
{ "type": "Feature", "properties": { "内容": "ユニット豊洋短期入所生活介護事業所【短期入所生活介護】熊本県宇城市三角町里浦２８５５番５", "url": "https://www.kaigokensaku.mhlw.go.jp/43/index.php?action_kouhyou_detail_004_kani=true&JigyosyoCd=4371300817-00&ServiceCd=210&Type=search", "url2": null }, "geometry": { "type": "Point", "coordinates": [ 130.553989300000012, 32.6234886 ] } },
{ "type": "Feature", "properties": { "内容": "特別養護老人ホーム　水晶苑【短期入所生活介護】熊本県宇城市豊野町糸石２５１３", "url": "https://www.kaigokensaku.mhlw.go.jp/43/index.php?action_kouhyou_detail_004_kani=true&JigyosyoCd=4371300114-00&ServiceCd=210&Type=search", "url2": "http://www.suisyouen.info/" }, "geometry": { "type": "Point", "coordinates": [ 130.754839400000037, 32.6319636 ] } },
{ "type": "Feature", "properties": { "内容": "サテライトしらぬい荘【短期入所生活介護】熊本県宇城市松橋町曲野35番地の1", "url": "https://www.kaigokensaku.mhlw.go.jp/43/index.php?action_kouhyou_detail_004_kani=true&JigyosyoCd=4371300841-00&ServiceCd=210&Type=search", "url2": "http://www.shiranuiso.or.jp" }, "geometry": { "type": "Point", "coordinates": [ 130.68848730000002, 32.651316199999989 ] } },
{ "type": "Feature", "properties": { "内容": "特別養護老人ホーム蕉夢苑【短期入所生活介護】熊本県宇城市不知火町長崎740番地", "url": "https://www.kaigokensaku.mhlw.go.jp/43/index.php?action_kouhyou_detail_004_kani=true&JigyosyoCd=4372200313-00&ServiceCd=210&Type=search", "url2": "https://shoumuen" }, "geometry": { "type": "Point", "coordinates": [ 130.64654280000002, 32.6424023 ] } },
{ "type": "Feature", "properties": { "内容": "豊洋園短期入所生活介護事業所【短期入所生活介護】熊本県宇城市三角町里浦２８５５番５", "url": "https://www.kaigokensaku.mhlw.go.jp/43/index.php?action_kouhyou_detail_004_kani=true&JigyosyoCd=4372200339-00&ServiceCd=210&Type=search", "url2": "http://houyouen.jp/" }, "geometry": { "type": "Point", "coordinates": [ 130.553989300000012, 32.6234886 ] } },
{ "type": "Feature", "properties": { "内容": "しらぬい荘短期入所サービス【短期入所生活介護】熊本県宇城市松橋町竹崎1142番地の1", "url": "https://www.kaigokensaku.mhlw.go.jp/43/index.php?action_kouhyou_detail_004_kani=true&JigyosyoCd=4372300725-00&ServiceCd=210&Type=search", "url2": "http://www.shiranuiso.or.jp/" }, "geometry": { "type": "Point", "coordinates": [ 130.710812578573609, 32.627563414014567 ] } },
{ "type": "Feature", "properties": { "内容": "特別養護老人ホームひだけ荘ショートステイ【短期入所生活介護】熊本県宇城市小川町南海東２０３０番地", "url": "https://www.kaigokensaku.mhlw.go.jp/43/index.php?action_kouhyou_detail_004_kani=true&JigyosyoCd=4372300733-00&ServiceCd=210&Type=search", "url2": "http:hidakekai.hippy.jp" }, "geometry": { "type": "Point", "coordinates": [ 130.742853400000058, 32.5815799 ] } },
{ "type": "Feature", "properties": { "内容": "短期入所生活介護きらら【短期入所生活介護】熊本県宇城市松橋町きらら1丁目9番地3", "url": "https://www.kaigokensaku.mhlw.go.jp/43/index.php?action_kouhyou_detail_004_kani=true&JigyosyoCd=4371300890-00&ServiceCd=210&Type=search", "url2": "seikaien.jp" }, "geometry": { "type": "Point", "coordinates": [ 130.676760400000035, 32.6457248 ] } },
{ "type": "Feature", "properties": { "内容": "特別養護老人ホーム阿蘇みやま荘【短期入所生活介護】熊本県阿蘇市黒川１３６５", "url": "https://www.kaigokensaku.mhlw.go.jp/43/index.php?action_kouhyou_detail_004_kani=true&JigyosyoCd=4372700395-00&ServiceCd=210&Type=search", "url2": null }, "geometry": { "type": "Point", "coordinates": [ 131.071320600000035, 32.9324458 ] } },
{ "type": "Feature", "properties": { "内容": "ショートステイあその杜【短期入所生活介護】熊本県阿蘇市乙姫1776番地", "url": "https://www.kaigokensaku.mhlw.go.jp/43/index.php?action_kouhyou_detail_004_kani=true&JigyosyoCd=4371400476-00&ServiceCd=210&Type=search", "url2": "http://www.yamanami.or.jp" }, "geometry": { "type": "Point", "coordinates": [ 131.044068737434401, 32.936426537748218 ] } },
{ "type": "Feature", "properties": { "内容": "あそん里短期入所生活介護事業所【短期入所生活介護】熊本県阿蘇市一の宮町坂梨字八千場２３６５番１", "url": "https://www.kaigokensaku.mhlw.go.jp/43/index.php?action_kouhyou_detail_004_kani=true&JigyosyoCd=4372700817-00&ServiceCd=210&Type=search", "url2": "http://www.yamanami.ne.jp/asonsato/" }, "geometry": { "type": "Point", "coordinates": [ 131.137965039070195, 32.934684658405288 ] } },
{ "type": "Feature", "properties": { "内容": "短期入所生活介護あその杜【短期入所生活介護】熊本県阿蘇市乙姫1776番地", "url": "https://www.kaigokensaku.mhlw.go.jp/43/index.php?action_kouhyou_detail_004_kani=true&JigyosyoCd=4371400492-00&ServiceCd=210&Type=search", "url2": "http:/www.yamanami.or.jp" }, "geometry": { "type": "Point", "coordinates": [ 131.0440499, 32.9364474 ] } },
{ "type": "Feature", "properties": { "内容": "地域密着型特別養護老人ホーム聖和園【短期入所生活介護】熊本県天草市下浦町2081-7", "url": "https://www.kaigokensaku.mhlw.go.jp/43/index.php?action_kouhyou_detail_004_kani=true&JigyosyoCd=4371500762-00&ServiceCd=210&Type=search", "url2": null }, "geometry": { "type": "Point", "coordinates": [ 130.223434871658355, 32.424779384238136 ] } },
{ "type": "Feature", "properties": { "内容": "地域密着型特別養護老人ホーム　悠ほーむ【短期入所生活介護】久玉町1411番4", "url": "https://www.kaigokensaku.mhlw.go.jp/43/index.php?action_kouhyou_detail_004_kani=true&JigyosyoCd=4371500754-00&ServiceCd=210&Type=search", "url2": "http://ensoukai.amakusa-web.jp" }, "geometry": { "type": "Point", "coordinates": [ 130.033011816810557, 32.216960252718145 ] } },
{ "type": "Feature", "properties": { "内容": "ショートステイ明照園【短期入所生活介護】熊本県天草市久玉町1273番地1", "url": "https://www.kaigokensaku.mhlw.go.jp/43/index.php?action_kouhyou_detail_004_kani=true&JigyosyoCd=4370900385-00&ServiceCd=210&Type=search", "url2": "http://meishoen.com" }, "geometry": { "type": "Point", "coordinates": [ 130.028691821287566, 32.2182309432322 ] } },
{ "type": "Feature", "properties": { "内容": "ショートステイ葉山苑天領の杜【短期入所生活介護】熊本県天草市本町下河内2234番地", "url": "https://www.kaigokensaku.mhlw.go.jp/43/index.php?action_kouhyou_detail_004_kani=true&JigyosyoCd=4371500911-00&ServiceCd=210&Type=search", "url2": "http://www.hayamaen.com/" }, "geometry": { "type": "Point", "coordinates": [ 130.16577100705706, 32.47409472603951 ] } },
{ "type": "Feature", "properties": { "内容": "梅寿荘ショートステイ【短期入所生活介護】熊本県天草市栖本町湯船原661番地", "url": "https://www.kaigokensaku.mhlw.go.jp/43/index.php?action_kouhyou_detail_004_kani=true&JigyosyoCd=4373201013-00&ServiceCd=210&Type=search", "url2": "http://www.baijuso.sakura.ne.jp/" }, "geometry": { "type": "Point", "coordinates": [ 130.277093899999954, 32.4164203 ] } },
{ "type": "Feature", "properties": { "内容": "短期入所生活介護事業所麗洋苑【短期入所生活介護】熊本県天草市有明町須子１９６４番地", "url": "https://www.kaigokensaku.mhlw.go.jp/43/index.php?action_kouhyou_detail_004_kani=true&JigyosyoCd=4373201021-00&ServiceCd=210&Type=search", "url2": "https://reiyouen0477.jp" }, "geometry": { "type": "Point", "coordinates": [ 130.3431597, 32.5107371 ] } },
{ "type": "Feature", "properties": { "内容": "実相園短期入所サービスセンター【短期入所生活介護】熊本県天草市河浦町河浦1971", "url": "https://www.kaigokensaku.mhlw.go.jp/43/index.php?action_kouhyou_detail_004_kani=true&JigyosyoCd=4373201039-00&ServiceCd=210&Type=search", "url2": "https://jissouen.sakura.ne.jp" }, "geometry": { "type": "Point", "coordinates": [ 130.065644803041067, 32.306535672093815 ] } },
{ "type": "Feature", "properties": { "内容": "ショートステイ　新和苑【短期入所生活介護】熊本県天草市新和町小宮地７６３番地２", "url": "https://www.kaigokensaku.mhlw.go.jp/43/index.php?action_kouhyou_detail_004_kani=true&JigyosyoCd=4373201062-00&ServiceCd=210&Type=search", "url2": "http://www.shinwaen.net/" }, "geometry": { "type": "Point", "coordinates": [ 130.18584450000003, 32.3715869 ] } },
{ "type": "Feature", "properties": { "内容": "ショートステイ御所浦苑【短期入所生活介護】熊本県天草市御所浦町御所浦4393番地1", "url": "https://www.kaigokensaku.mhlw.go.jp/43/index.php?action_kouhyou_detail_004_kani=true&JigyosyoCd=4373201088-00&ServiceCd=210&Type=search", "url2": "http://tensuikai.com" }, "geometry": { "type": "Point", "coordinates": [ 130.33466020000003, 32.3374782 ] } },
{ "type": "Feature", "properties": { "内容": "紫明寮ショートステイ事業所【短期入所生活介護】熊本県天草市五和町二江４６６８番地", "url": "https://www.kaigokensaku.mhlw.go.jp/43/index.php?action_kouhyou_detail_004_kani=true&JigyosyoCd=4373201112-00&ServiceCd=210&Type=search", "url2": "https://shimeiryo.com/" }, "geometry": { "type": "Point", "coordinates": [ 130.119359, 32.5482454 ] } },
{ "type": "Feature", "properties": { "内容": "地域密着型特別養護老人ホーム　シャトー天草【短期入所生活介護】熊本県天草市今釜町８番５８号", "url": "https://www.kaigokensaku.mhlw.go.jp/43/index.php?action_kouhyou_detail_004_kani=true&JigyosyoCd=4371500796-00&ServiceCd=210&Type=search", "url2": "https://www.chateau-amakusa.com" }, "geometry": { "type": "Point", "coordinates": [ 130.191741634779419, 32.462598112099421 ] } },
{ "type": "Feature", "properties": { "内容": "特別養護老人ホーム春光苑【短期入所生活介護】熊本県天草市天草町高浜北633番地", "url": "https://www.kaigokensaku.mhlw.go.jp/43/index.php?action_kouhyou_detail_004_kani=true&JigyosyoCd=4373200494-00&ServiceCd=210&Type=search", "url2": "http://www.airin-syunkouen.com" }, "geometry": { "type": "Point", "coordinates": [ 129.996483099999978, 32.3845792 ] } },
{ "type": "Feature", "properties": { "内容": "ショートステイ愛愛園【短期入所生活介護】熊本県天草市倉岳町棚底　８５０番地　１０５", "url": "https://www.kaigokensaku.mhlw.go.jp/43/index.php?action_kouhyou_detail_004_kani=true&JigyosyoCd=4373201054-00&ServiceCd=210&Type=search", "url2": null }, "geometry": { "type": "Point", "coordinates": [ 130.345764700000018, 32.416664 ] } },
{ "type": "Feature", "properties": { "内容": "むべの里ショートステイ合志【短期入所生活介護】熊本県合志市豊岡1900-59", "url": "https://www.kaigokensaku.mhlw.go.jp/43/index.php?action_kouhyou_detail_004_kani=true&JigyosyoCd=4371600836-00&ServiceCd=210&Type=search", "url2": "https://mubekouei.com/koreisha/" }, "geometry": { "type": "Point", "coordinates": [ 130.7586873, 32.8733297 ] } },
{ "type": "Feature", "properties": { "内容": "紀水ナーシングホーム　指定短期入所生活介護事業所【短期入所生活介護】熊本県合志市竹迫2224番地", "url": "https://www.kaigokensaku.mhlw.go.jp/43/index.php?action_kouhyou_detail_004_kani=true&JigyosyoCd=4372600868-00&ServiceCd=210&Type=search", "url2": null }, "geometry": { "type": "Point", "coordinates": [ 130.783729699999981, 32.8791078 ] } },
{ "type": "Feature", "properties": { "内容": "菊香園ショートステイ【短期入所生活介護】熊本県合志市御代志718-4", "url": "https://www.kaigokensaku.mhlw.go.jp/43/index.php?action_kouhyou_detail_004_kani=true&JigyosyoCd=4372600892-00&ServiceCd=210&Type=search", "url2": "http://www.sanshikaikikukaen.or.jp" }, "geometry": { "type": "Point", "coordinates": [ 130.757281199999966, 32.9017336 ] } },
{ "type": "Feature", "properties": { "内容": "ショートステイ　大地の里　えがお【短期入所生活介護】熊本県合志市須屋2670番地3", "url": "https://www.kaigokensaku.mhlw.go.jp/43/index.php?action_kouhyou_detail_004_kani=true&JigyosyoCd=4371600349-00&ServiceCd=210&Type=search", "url2": "daichi-egao.com" }, "geometry": { "type": "Point", "coordinates": [ 130.746621300663747, 32.877286470787205 ] } },
{ "type": "Feature", "properties": { "内容": "陽光園東館短期入所生活介護事業所【短期入所生活介護】熊本県下益城郡美里町二和田1233", "url": "https://www.kaigokensaku.mhlw.go.jp/43/index.php?action_kouhyou_detail_004_kani=true&JigyosyoCd=4372301491-00&ServiceCd=210&Type=search", "url2": "youkouen.com" }, "geometry": { "type": "Point", "coordinates": [ 130.863585699999931, 32.6197483 ] } },
{ "type": "Feature", "properties": { "内容": "ショートステイ　こもれび　二番館【短期入所生活介護】熊本県下益城郡美里町佐俣338番地", "url": "https://www.kaigokensaku.mhlw.go.jp/43/index.php?action_kouhyou_detail_004_kani=true&JigyosyoCd=4372301483-00&ServiceCd=210&Type=search", "url2": "http://shinseiki.jp" }, "geometry": { "type": "Point", "coordinates": [ 130.821077400000036, 32.622175 ] } },
{ "type": "Feature", "properties": { "内容": "陽光園短期入所生活介護事業者【短期入所生活介護】熊本県下益城郡美里町二和田１２３３", "url": "https://www.kaigokensaku.mhlw.go.jp/43/index.php?action_kouhyou_detail_004_kani=true&JigyosyoCd=4372300410-00&ServiceCd=210&Type=search", "url2": "https://senjukai.jp" }, "geometry": { "type": "Point", "coordinates": [ 130.863585699999931, 32.6197483 ] } },
{ "type": "Feature", "properties": { "内容": "ショートステイ　こもれび一番館【短期入所生活介護】熊本県下益城郡美里町佐俣338番地", "url": "https://www.kaigokensaku.mhlw.go.jp/43/index.php?action_kouhyou_detail_004_kani=true&JigyosyoCd=4372300808-00&ServiceCd=210&Type=search", "url2": "http://shinseiki.jp" }, "geometry": { "type": "Point", "coordinates": [ 130.821077400000036, 32.622175 ] } },
{ "type": "Feature", "properties": { "内容": "ショートステイ葉山苑【短期入所生活介護】熊本県玉名郡玉東町大字木葉３４８番地", "url": "https://www.kaigokensaku.mhlw.go.jp/43/index.php?action_kouhyou_detail_004_kani=true&JigyosyoCd=4372400905-00&ServiceCd=210&Type=search", "url2": "http://www.hayamaen.com" }, "geometry": { "type": "Point", "coordinates": [ 130.620382799999987, 32.914261 ] } },
{ "type": "Feature", "properties": { "内容": "延寿荘短期入所生活介護事業所【短期入所生活介護】熊本県玉名郡南関町大字小原１７７０番地", "url": "https://www.kaigokensaku.mhlw.go.jp/43/index.php?action_kouhyou_detail_004_kani=true&JigyosyoCd=4372401614-00&ServiceCd=210&Type=search", "url2": "mikawa-fukusikai" }, "geometry": { "type": "Point", "coordinates": [ 130.530902400000059, 33.0294074 ] } },
{ "type": "Feature", "properties": { "内容": "サポートハウスきらきら　短期入所事業所【短期入所生活介護】熊本県玉名郡南関町関町355番地", "url": "https://www.kaigokensaku.mhlw.go.jp/43/index.php?action_kouhyou_detail_004_kani=true&JigyosyoCd=4372401788-00&ServiceCd=210&Type=search", "url2": "https://shafuku-kirakira.com/" }, "geometry": { "type": "Point", "coordinates": [ 130.546512799999988, 33.0661836 ] } },
{ "type": "Feature", "properties": { "内容": "短期入所生活介護事業所　月華苑【短期入所生活介護】熊本県玉名郡長洲町清源寺1060", "url": "https://www.kaigokensaku.mhlw.go.jp/43/index.php?action_kouhyou_detail_004_kani=true&JigyosyoCd=4372400764-00&ServiceCd=210&Type=search", "url2": "https://gekka-en.com/" }, "geometry": { "type": "Point", "coordinates": [ 130.464740095106407, 32.929761652566931 ] } },
{ "type": "Feature", "properties": { "内容": "和楽荘短期入所生活介護事業所【短期入所生活介護】熊本県玉名郡和水町平野１３００番地", "url": "https://www.kaigokensaku.mhlw.go.jp/43/index.php?action_kouhyou_detail_004_kani=true&JigyosyoCd=4372400731-00&ServiceCd=210&Type=search", "url2": "https://mikawa-fukusikai.com/" }, "geometry": { "type": "Point", "coordinates": [ 130.621654900000067, 33.0372555 ] } },
{ "type": "Feature", "properties": { "内容": "つつじ山荘短期入所生活介護【短期入所生活介護】熊本県菊池郡大津町大字大津2061番地", "url": "https://www.kaigokensaku.mhlw.go.jp/43/index.php?action_kouhyou_detail_004_kani=true&JigyosyoCd=4372600819-00&ServiceCd=210&Type=search", "url2": "https://www.tutuji-sanso.jp" }, "geometry": { "type": "Point", "coordinates": [ 130.87615, 32.8820814 ] } },
{ "type": "Feature", "properties": { "内容": "社会福祉法人　光進会　ショートステイ　喜寿園【短期入所生活介護】熊本県菊池郡大津町大字室1713番地", "url": "https://www.kaigokensaku.mhlw.go.jp/43/index.php?action_kouhyou_detail_004_kani=true&JigyosyoCd=4372601981-00&ServiceCd=210&Type=search", "url2": "http://koshin-kai.jp/" }, "geometry": { "type": "Point", "coordinates": [ 130.855681713014292, 32.887741403561542 ] } },
{ "type": "Feature", "properties": { "内容": "きほう苑短期入所生活介護事業所【短期入所生活介護】熊本県菊池郡菊陽町大字辛川1929番地", "url": "https://www.kaigokensaku.mhlw.go.jp/43/index.php?action_kouhyou_detail_004_kani=true&JigyosyoCd=4372600876-00&ServiceCd=210&Type=search", "url2": "http://seiyou-kai.net/" }, "geometry": { "type": "Point", "coordinates": [ 130.806525599999986, 32.8473718 ] } },
{ "type": "Feature", "properties": { "内容": "地域密着型特別養護老人ホームきほう苑きらら【短期入所生活介護】熊本県菊池郡菊陽町辛川1936-1", "url": "https://www.kaigokensaku.mhlw.go.jp/43/index.php?action_kouhyou_detail_004_kani=true&JigyosyoCd=4372601882-00&ServiceCd=210&Type=search", "url2": "http://seiyou-kai.net/" }, "geometry": { "type": "Point", "coordinates": [ 130.806177022354149, 32.848108079309647 ] } },
{ "type": "Feature", "properties": { "内容": "悠清苑短期入所生活介護事業所【短期入所生活介護】熊本県阿蘇郡南小国町大字満願寺5854-1特別養護老人ホーム悠清苑", "url": "https://www.kaigokensaku.mhlw.go.jp/43/index.php?action_kouhyou_detail_004_kani=true&JigyosyoCd=4372700825-00&ServiceCd=210&Type=search", "url2": "https://yuseien.grupo.jp/" }, "geometry": { "type": "Point", "coordinates": [ 131.126451125165886, 33.072556918613358 ] } },
{ "type": "Feature", "properties": { "内容": "ショートステイ　なでしこの里【短期入所生活介護】熊本県阿蘇郡産山村大字田尻618番地２", "url": "https://www.kaigokensaku.mhlw.go.jp/43/index.php?action_kouhyou_detail_004_kani=true&JigyosyoCd=4372701229-00&ServiceCd=210&Type=search", "url2": "http://www.yamanami.or.jp" }, "geometry": { "type": "Point", "coordinates": [ 131.173896199999945, 33.0310628 ] } },
{ "type": "Feature", "properties": { "内容": "梅香苑短期入所生活介護【短期入所生活介護】熊本県阿蘇郡高森町高森3175番地", "url": "https://www.kaigokensaku.mhlw.go.jp/43/index.php?action_kouhyou_detail_004_kani=true&JigyosyoCd=4372700767-00&ServiceCd=210&Type=search", "url2": "http://gakujyukai.com" }, "geometry": { "type": "Point", "coordinates": [ 131.14368909999996, 32.8440417 ] } },
{ "type": "Feature", "properties": { "内容": "ひめゆりショートステイ【短期入所生活介護】熊本県阿蘇郡高森町高森993番地8", "url": "https://www.kaigokensaku.mhlw.go.jp/43/index.php?action_kouhyou_detail_004_kani=true&JigyosyoCd=4372701310-00&ServiceCd=210&Type=search", "url2": "http://baikouen.com" }, "geometry": { "type": "Point", "coordinates": [ 131.1225445, 32.8161852 ] } },
{ "type": "Feature", "properties": { "内容": "ユニット型短期入所生活介護みどりの館【短期入所生活介護】熊本県阿蘇郡西原村布田897番地1", "url": "https://www.kaigokensaku.mhlw.go.jp/43/index.php?action_kouhyou_detail_004_kani=true&JigyosyoCd=4372701419-00&ServiceCd=210&Type=search", "url2": "http://www16.ocn.ne.jp/~midori-h/" }, "geometry": { "type": "Point", "coordinates": [ 130.883587, 32.8294945 ] } },
{ "type": "Feature", "properties": { "内容": "みどりの館短期入所生活介護事業所【短期入所生活介護】熊本県阿蘇郡西原村布田897番地1", "url": "https://www.kaigokensaku.mhlw.go.jp/43/index.php?action_kouhyou_detail_004_kani=true&JigyosyoCd=4372700783-00&ServiceCd=210&Type=search", "url2": "https://seijinkai-midori.org/" }, "geometry": { "type": "Point", "coordinates": [ 130.883587, 32.8294945 ] } },
{ "type": "Feature", "properties": { "内容": "水生苑短期入所生活介護事業所【短期入所生活介護】熊本県阿蘇郡南阿蘇村一関1282番地", "url": "https://www.kaigokensaku.mhlw.go.jp/43/index.php?action_kouhyou_detail_004_kani=true&JigyosyoCd=4372700809-00&ServiceCd=210&Type=search", "url2": "suiseien.com" }, "geometry": { "type": "Point", "coordinates": [ 131.072139600000014, 32.8358056 ] } },
{ "type": "Feature", "properties": { "内容": "特別養護老人ホーム陽ノ丘荘【短期入所生活介護】熊本県阿蘇郡南阿蘇村大字河陽字水溜4463番地", "url": "https://www.kaigokensaku.mhlw.go.jp/43/index.php?action_kouhyou_detail_004_kani=true&JigyosyoCd=4372700833-00&ServiceCd=210&Type=search", "url2": "http://www.hinooka1990.or.jp" }, "geometry": { "type": "Point", "coordinates": [ 131.0314376, 32.8219819 ] } },
{ "type": "Feature", "properties": { "内容": "ショートステイセンター　グリーンヒルみふね【短期入所生活介護】熊本県上益城郡御船町辺田見840-9", "url": "https://www.kaigokensaku.mhlw.go.jp/43/index.php?action_kouhyou_detail_004_kani=true&JigyosyoCd=4372800674-00&ServiceCd=210&Type=search", "url2": "http://greenhillmifune.com" }, "geometry": { "type": "Point", "coordinates": [ 130.812443600000051, 32.7146991 ] } },
{ "type": "Feature", "properties": { "内容": "悠優かしま短期入所生活介護事業所【短期入所生活介護】熊本県上益城郡嘉島町上仲間151-1", "url": "https://www.kaigokensaku.mhlw.go.jp/43/index.php?action_kouhyou_detail_004_kani=true&JigyosyoCd=4372801425-00&ServiceCd=210&Type=search", "url2": "https://senjukai.jp/" }, "geometry": { "type": "Point", "coordinates": [ 130.735832840436586, 32.740542682180894 ] } },
{ "type": "Feature", "properties": { "内容": "介護老人福祉施設　康寿苑【短期入所生活介護】熊本県上益城郡嘉島町北甘木2073番地", "url": "https://www.kaigokensaku.mhlw.go.jp/43/index.php?action_kouhyou_detail_004_kani=true&JigyosyoCd=4372800625-00&ServiceCd=210&Type=search", "url2": "kayuukai.xsrv.jp" }, "geometry": { "type": "Point", "coordinates": [ 130.771016599999939, 32.7488365 ] } },
{ "type": "Feature", "properties": { "内容": "ひろやす荘短期入所生活介護事業所【短期入所生活介護】熊本県上益城郡益城町大字安永1080番地", "url": "https://www.kaigokensaku.mhlw.go.jp/43/index.php?action_kouhyou_detail_004_kani=true&JigyosyoCd=4372800658-00&ServiceCd=210&Type=search", "url2": "http://www.ｊikou-kai.com/hiroyasu" }, "geometry": { "type": "Point", "coordinates": [ 130.811785, 32.7908609 ] } },
{ "type": "Feature", "properties": { "内容": "ショートステイセンター　花へんろ【短期入所生活介護】熊本県上益城郡益城町惣領1670", "url": "https://www.kaigokensaku.mhlw.go.jp/43/index.php?action_kouhyou_detail_004_kani=true&JigyosyoCd=4372801375-00&ServiceCd=210&Type=search", "url2": "https://www.hanahenro.jp/" }, "geometry": { "type": "Point", "coordinates": [ 130.800635899999946, 32.7876333 ] } },
{ "type": "Feature", "properties": { "内容": "ショートステイ　いこいの里【短期入所生活介護】熊本県上益城郡益城町福原1988番地1", "url": "https://www.kaigokensaku.mhlw.go.jp/43/index.php?action_kouhyou_detail_004_kani=true&JigyosyoCd=4372801581-00&ServiceCd=210&Type=search", "url2": "https://kinko-kai.jp" }, "geometry": { "type": "Point", "coordinates": [ 130.8319672, 32.7829726 ] } },
{ "type": "Feature", "properties": { "内容": "ユニット型ひろやす荘短期入所生活介護事業所【短期入所生活介護】熊本県上益城郡益城町大字安永1080番地", "url": "https://www.kaigokensaku.mhlw.go.jp/43/index.php?action_kouhyou_detail_004_kani=true&JigyosyoCd=4372801714-00&ServiceCd=210&Type=search", "url2": "https://jikou-kai.com/" }, "geometry": { "type": "Point", "coordinates": [ 130.811785, 32.7908609 ] } },
{ "type": "Feature", "properties": { "内容": "ユニット型桜の丘短期入所生活介護事業所【短期入所生活介護】熊本県上益城郡甲佐町1161番地", "url": "https://www.kaigokensaku.mhlw.go.jp/43/index.php?action_kouhyou_detail_004_kani=true&JigyosyoCd=4372801706-00&ServiceCd=210&Type=search", "url2": "http://www.sakuranooka.or.jp" }, "geometry": { "type": "Point", "coordinates": [ 130.809591, 32.6451805 ] } },
{ "type": "Feature", "properties": { "内容": "桜の丘綾の家　短期入所生活介護事業所【短期入所生活介護】熊本県上益城郡甲佐町大字岩下194番地1", "url": "https://www.kaigokensaku.mhlw.go.jp/43/index.php?action_kouhyou_detail_004_kani=true&JigyosyoCd=4372801268-00&ServiceCd=210&Type=search", "url2": "http://www.sakuranooka.or.jp" }, "geometry": { "type": "Point", "coordinates": [ 130.808210199999962, 32.6518104 ] } },
{ "type": "Feature", "properties": { "内容": "桜の丘短期入所生活介護事業所【短期入所生活介護】熊本県上益城郡甲佐町大字西寒野1161番地", "url": "https://www.kaigokensaku.mhlw.go.jp/43/index.php?action_kouhyou_detail_004_kani=true&JigyosyoCd=4372800617-00&ServiceCd=210&Type=search", "url2": "http://www.sakuranooka.or.jp" }, "geometry": { "type": "Point", "coordinates": [ 130.812210700000037, 32.6387062 ] } },
{ "type": "Feature", "properties": { "内容": "特別養護老人ホーム　蘇望苑【短期入所生活介護】熊本県上益城郡山都町滝上２２３－１", "url": "https://www.kaigokensaku.mhlw.go.jp/43/index.php?action_kouhyou_detail_004_kani=true&JigyosyoCd=4372700411-00&ServiceCd=210&Type=search", "url2": "https://www.sobouen.com" }, "geometry": { "type": "Point", "coordinates": [ 131.140247899999963, 32.6886658 ] } },
{ "type": "Feature", "properties": { "内容": "矢部大矢荘　短期入所生活介護事業所【短期入所生活介護】熊本県上益城郡山都町北中島2684-2", "url": "https://www.kaigokensaku.mhlw.go.jp/43/index.php?action_kouhyou_detail_004_kani=true&JigyosyoCd=4372800666-00&ServiceCd=210&Type=search", "url2": "http：//www.ooyasou.com" }, "geometry": { "type": "Point", "coordinates": [ 130.937666400000012, 32.7334379 ] } },
{ "type": "Feature", "properties": { "内容": "短期入所生活介護事業所　そよ風の里“ほたる”【短期入所生活介護】熊本県上益城郡山都町今322-1", "url": "https://www.kaigokensaku.mhlw.go.jp/43/index.php?action_kouhyou_detail_004_kani=true&JigyosyoCd=4372801524-00&ServiceCd=210&Type=search", "url2": "www.soyokazenosato-hotaru.com" }, "geometry": { "type": "Point", "coordinates": [ 131.165296200000057, 32.7296424 ] } },
{ "type": "Feature", "properties": { "内容": "短期入所生活介護事業所　風ノ木【短期入所生活介護】熊本県上益城郡山都町千滝211", "url": "https://www.kaigokensaku.mhlw.go.jp/43/index.php?action_kouhyou_detail_004_kani=true&JigyosyoCd=4372801557-00&ServiceCd=210&Type=search", "url2": "fu-noki@iaa.itkeeper.ne.jp" }, "geometry": { "type": "Point", "coordinates": [ 130.98372489999997, 32.6809223 ] } },
{ "type": "Feature", "properties": { "内容": "やすらぎ荘短期入所生活介護事業所【短期入所生活介護】熊本県八代郡氷川町鹿島945番地", "url": "https://www.kaigokensaku.mhlw.go.jp/43/index.php?action_kouhyou_detail_004_kani=true&JigyosyoCd=4372900342-00&ServiceCd=210&Type=search", "url2": "http://www.8910kai.jp/" }, "geometry": { "type": "Point", "coordinates": [ 130.668122899999958, 32.5799116 ] } },
{ "type": "Feature", "properties": { "内容": "早尾園短期入所生活介護事業所【短期入所生活介護】熊本県八代郡氷川町早尾132特別養護老人ホーム　早尾園", "url": "https://www.kaigokensaku.mhlw.go.jp/43/index.php?action_kouhyou_detail_004_kani=true&JigyosyoCd=4372900656-00&ServiceCd=210&Type=search", "url2": "https://hayaoen.org/" }, "geometry": { "type": "Point", "coordinates": [ 130.676483157256627, 32.549464875586608 ] } },
{ "type": "Feature", "properties": { "内容": "特別養護老人ホーム　田の浦荘【短期入所生活介護】熊本県葦北郡芦北町大字田浦町８７０－１", "url": "https://www.kaigokensaku.mhlw.go.jp/43/index.php?action_kouhyou_detail_004_kani=true&JigyosyoCd=4373000340-00&ServiceCd=210&Type=search", "url2": "https://eiwafukusikai.com/" }, "geometry": { "type": "Point", "coordinates": [ 130.505413, 32.3643631 ] } },
{ "type": "Feature", "properties": { "内容": "五松園短期入所生活介護事業所【短期入所生活介護】熊本県葦北郡芦北町大字花岡1118番地", "url": "https://www.kaigokensaku.mhlw.go.jp/43/index.php?action_kouhyou_detail_004_kani=true&JigyosyoCd=4373000472-00&ServiceCd=210&Type=search", "url2": "http://jiyukai.com" }, "geometry": { "type": "Point", "coordinates": [ 130.5103153, 32.2953284 ] } },
{ "type": "Feature", "properties": { "内容": "ショートステイ　なんてん【短期入所生活介護】熊本県葦北郡芦北町大字花岡1846番地3", "url": "https://www.kaigokensaku.mhlw.go.jp/43/index.php?action_kouhyou_detail_004_kani=true&JigyosyoCd=4373000795-00&ServiceCd=210&Type=search", "url2": "http://www.miyajima-iin.or.jp/" }, "geometry": { "type": "Point", "coordinates": [ 130.500338581292453, 32.3061601959337 ] } },
{ "type": "Feature", "properties": { "内容": "ショートステイ　つなぎの里【短期入所生活介護】熊本県葦北郡津奈木町小津奈木2120-62", "url": "https://www.kaigokensaku.mhlw.go.jp/43/index.php?action_kouhyou_detail_004_kani=true&JigyosyoCd=4373000811-00&ServiceCd=210&Type=search", "url2": "https://tunaginosato.wixsite.com/koueikai" }, "geometry": { "type": "Point", "coordinates": [ 130.4369131132446, 32.231096219035024 ] } },
{ "type": "Feature", "properties": { "内容": "社会福祉法人清風会　あけぼの苑【短期入所生活介護】熊本県葦北郡津奈木町大字岩城1520番地", "url": "https://www.kaigokensaku.mhlw.go.jp/43/index.php?action_kouhyou_detail_004_kani=true&JigyosyoCd=4373000456-00&ServiceCd=210&Type=search", "url2": "akebonoenn.or.jp" }, "geometry": { "type": "Point", "coordinates": [ 130.455284300000017, 32.2282589 ] } },
{ "type": "Feature", "properties": { "内容": "錦寿豊苑空床型短期入所生活介護事業所【短期入所生活介護】熊本県球磨郡錦町大字一武字原田川１２３４番地", "url": "https://www.kaigokensaku.mhlw.go.jp/43/index.php?action_kouhyou_detail_004_kani=true&JigyosyoCd=4373101445-00&ServiceCd=210&Type=search", "url2": "http://nishiki-juhouen.com" }, "geometry": { "type": "Point", "coordinates": [ 130.832120916722516, 32.203684372099985 ] } },
{ "type": "Feature", "properties": { "内容": "にしき園短期入所生活介護事業所【短期入所生活介護】熊本県球磨郡錦町大字木上北150番地1", "url": "https://www.kaigokensaku.mhlw.go.jp/43/index.php?action_kouhyou_detail_004_kani=true&JigyosyoCd=4373100736-00&ServiceCd=210&Type=search", "url2": "http://nisikien.com/" }, "geometry": { "type": "Point", "coordinates": [ 130.8131244, 32.2267016 ] } },
{ "type": "Feature", "properties": { "内容": "錦寿豊苑短期入所生活介護事業所【短期入所生活介護】熊本県球磨郡錦町大字一武原田川1234番地", "url": "https://www.kaigokensaku.mhlw.go.jp/43/index.php?action_kouhyou_detail_004_kani=true&JigyosyoCd=4373101197-00&ServiceCd=210&Type=search", "url2": "http://www.nishiki-juhouen.com" }, "geometry": { "type": "Point", "coordinates": [ 130.841114800000014, 32.2011966 ] } },
{ "type": "Feature", "properties": { "内容": "ユニット型あずみ野【短期入所生活介護】熊本県球磨郡多良木町多良木257-1", "url": "https://www.kaigokensaku.mhlw.go.jp/43/index.php?action_kouhyou_detail_004_kani=true&JigyosyoCd=4373101320-00&ServiceCd=210&Type=search", "url2": "http://azumino.k-vihara.jp" }, "geometry": { "type": "Point", "coordinates": [ 130.943863400000026, 32.2666918 ] } },
{ "type": "Feature", "properties": { "内容": "あずみ野【短期入所生活介護】熊本県球磨郡多良木町多良木２５７－１", "url": "https://www.kaigokensaku.mhlw.go.jp/43/index.php?action_kouhyou_detail_004_kani=true&JigyosyoCd=4373100629-00&ServiceCd=210&Type=search", "url2": "http://azumino.k-vihara.jp" }, "geometry": { "type": "Point", "coordinates": [ 130.943863400000026, 32.2666918 ] } },
{ "type": "Feature", "properties": { "内容": "特別養護老人ホーム福寿荘　短期入所生活介護施設【短期入所生活介護】熊本県球磨郡湯前町836番地", "url": "https://www.kaigokensaku.mhlw.go.jp/43/index.php?action_kouhyou_detail_004_kani=true&JigyosyoCd=4373101494-00&ServiceCd=210&Type=search", "url2": "https://fukuzyusou.com" }, "geometry": { "type": "Point", "coordinates": [ 130.9808998, 32.276183 ] } },
{ "type": "Feature", "properties": { "内容": "ショートステイ桜の里【短期入所生活介護】熊本県球磨郡水上村大字岩野2658番地1", "url": "https://www.kaigokensaku.mhlw.go.jp/43/index.php?action_kouhyou_detail_004_kani=true&JigyosyoCd=4373100900-00&ServiceCd=210&Type=search", "url2": "oyakuen-g.or.jp" }, "geometry": { "type": "Point", "coordinates": [ 131.009545900000035, 32.3143423 ] } },
{ "type": "Feature", "properties": { "内容": "地域密着型川辺川園短期入所生活介護【短期入所生活介護】熊本県球磨郡相良村大字川辺1771番地", "url": "https://www.kaigokensaku.mhlw.go.jp/43/index.php?action_kouhyou_detail_004_kani=true&JigyosyoCd=4373101312-00&ServiceCd=210&Type=search", "url2": "http://www.pe-toru.or.jp" }, "geometry": { "type": "Point", "coordinates": [ 130.81556, 32.2568712 ] } },
{ "type": "Feature", "properties": { "内容": "川辺川園短期入所事業所【短期入所生活介護】熊本県球磨郡相良村大字川辺1771番地", "url": "https://www.kaigokensaku.mhlw.go.jp/43/index.php?action_kouhyou_detail_004_kani=true&JigyosyoCd=4373100538-00&ServiceCd=210&Type=search", "url2": "www.pe-toru.or.jp" }, "geometry": { "type": "Point", "coordinates": [ 130.81556, 32.2568712 ] } },
{ "type": "Feature", "properties": { "内容": "特別養護老人ホーム千寿園　短期入所生活介護【短期入所生活介護】熊本県球磨郡球磨村大字渡乙880番地21", "url": "https://www.kaigokensaku.mhlw.go.jp/43/index.php?action_kouhyou_detail_004_kani=true&JigyosyoCd=4373100785-00&ServiceCd=210&Type=search", "url2": "https://www.jiaikai1010.or.jp/" }, "geometry": { "type": "Point", "coordinates": [ 130.704689474251524, 32.234215413284943 ] } },
{ "type": "Feature", "properties": { "内容": "あさぎりホームユニット短期入所生活介護事業所【短期入所生活介護】熊本県球磨郡あさぎり町岡原南77番地1", "url": "https://www.kaigokensaku.mhlw.go.jp/43/index.php?action_kouhyou_detail_004_kani=true&JigyosyoCd=4373101403-00&ServiceCd=210&Type=search", "url2": "http://nisikien.com/" }, "geometry": { "type": "Point", "coordinates": [ 130.920297, 32.2344247 ] } },
{ "type": "Feature", "properties": { "内容": "鐘ヶ丘ホーム【短期入所生活介護】熊本県球磨郡あさぎり町上西字清水８３５番地", "url": "https://www.kaigokensaku.mhlw.go.jp/43/index.php?action_kouhyou_detail_004_kani=true&JigyosyoCd=4373100728-00&ServiceCd=210&Type=search", "url2": "http://kanegaoka.com/" }, "geometry": { "type": "Point", "coordinates": [ 130.889127599999938, 32.2188071 ] } },
{ "type": "Feature", "properties": { "内容": "ショートステイ　りゅうきんか【短期入所生活介護】熊本県球磨郡あさぎり町免田東3333番地3", "url": "https://www.kaigokensaku.mhlw.go.jp/43/index.php?action_kouhyou_detail_004_kani=true&JigyosyoCd=4373101221-00&ServiceCd=210&Type=search", "url2": "http://ryukinka.to-yo-kai.com/" }, "geometry": { "type": "Point", "coordinates": [ 130.894585399999983, 32.235894 ] } },
{ "type": "Feature", "properties": { "内容": "翠光園【短期入所生活介護】熊本県球磨郡あさぎり町深田東410番地", "url": "https://www.kaigokensaku.mhlw.go.jp/43/index.php?action_kouhyou_detail_004_kani=true&JigyosyoCd=4373100355-00&ServiceCd=210&Type=search", "url2": "suikou-en.com" }, "geometry": { "type": "Point", "coordinates": [ 130.873425499999939, 32.2456232 ] } },
{ "type": "Feature", "properties": { "内容": "ショートステイ楽洋【短期入所生活介護】上津深江230番地1", "url": "https://www.kaigokensaku.mhlw.go.jp/43/index.php?action_kouhyou_detail_004_kani=true&JigyosyoCd=4373201286-00&ServiceCd=210&Type=search", "url2": "http://jiseikai.amakusa-web.jp" }, "geometry": { "type": "Point", "coordinates": [ 130.0675115, 32.5148842 ] } }
]
}
