{
"type": "FeatureCollection",
"name": "geo_43_大学",
"crs": { "type": "name", "properties": { "name": "urn:ogc:def:crs:EPSG::6668" } },
"features": [
{ "type": "Feature", "properties": { "P29_001": "43101", "P29_002": "F143110111295", "P29_003": "16007", "P29_004": "熊本大学", "P29_005": "熊本県熊本市中央区黒髪2-39-1", "P29_006": "1", "P29_007": "0", "P29_008": "01", "P29_009": "黒髪南地区" }, "geometry": { "type": "Point", "coordinates": [ 130.72778062590578, 32.817583955521066 ] } },
{ "type": "Feature", "properties": { "P29_001": "43102", "P29_002": "F143210111300", "P29_003": "16007", "P29_004": "熊本県立大学", "P29_005": "熊本県熊本市東区月出3-1-100", "P29_006": "2", "P29_007": "0", "P29_008": "00", "P29_009": null }, "geometry": { "type": "Point", "coordinates": [ 130.764463640706367, 32.806380862696059 ] } },
{ "type": "Feature", "properties": { "P29_001": "43103", "P29_002": "F143310111317", "P29_003": "16007", "P29_004": "崇城大学", "P29_005": "熊本県熊本市西区池田4-22-1", "P29_006": "4", "P29_007": "0", "P29_008": "00", "P29_009": null }, "geometry": { "type": "Point", "coordinates": [ 130.696158284644468, 32.830468376601388 ] } },
{ "type": "Feature", "properties": { "P29_001": "43101", "P29_002": "F143310111326", "P29_003": "16007", "P29_004": "熊本学園大学", "P29_005": "熊本県熊本市中央区大江2-5-1", "P29_006": "4", "P29_007": "0", "P29_008": "00", "P29_009": null }, "geometry": { "type": "Point", "coordinates": [ 130.728434316645547, 32.804147876765541 ] } },
{ "type": "Feature", "properties": { "P29_001": "43101", "P29_002": "F143310111335", "P29_003": "16007", "P29_004": "尚絅大学", "P29_005": "熊本県熊本市中央区九品寺2-6-78", "P29_006": "4", "P29_007": "0", "P29_008": "01", "P29_009": "九品寺キャンパス" }, "geometry": { "type": "Point", "coordinates": [ 130.717085173500578, 32.797692272660321 ] } },
{ "type": "Feature", "properties": { "P29_001": "43101", "P29_002": "F143310111344", "P29_003": "16007", "P29_004": "九州ルーテル学院大学", "P29_005": "熊本県熊本市中央区黒髪3-12-16", "P29_006": "4", "P29_007": "0", "P29_008": "00", "P29_009": null }, "geometry": { "type": "Point", "coordinates": [ 130.723097110871294, 32.820785098884656 ] } },
{ "type": "Feature", "properties": { "P29_001": "43206", "P29_002": "F143310111353", "P29_003": "16007", "P29_004": "九州看護福祉大学", "P29_005": "熊本県玉名市富尾888", "P29_006": "4", "P29_007": "0", "P29_008": "00", "P29_009": null }, "geometry": { "type": "Point", "coordinates": [ 130.553249260894091, 32.946398761578621 ] } },
{ "type": "Feature", "properties": { "P29_001": "43441", "P29_002": "F143310111362", "P29_003": "16007", "P29_004": "平成音楽大学", "P29_005": "熊本県上益城郡御船町大字滝川字東原1658", "P29_006": "4", "P29_007": "0", "P29_008": "00", "P29_009": null }, "geometry": { "type": "Point", "coordinates": [ 130.790193022235968, 32.711816223662026 ] } },
{ "type": "Feature", "properties": { "P29_001": "43105", "P29_002": "F143310111371", "P29_003": "16007", "P29_004": "熊本保健科学大学", "P29_005": "熊本県熊本市北区和泉町亀の甲325", "P29_006": "4", "P29_007": "0", "P29_008": "00", "P29_009": null }, "geometry": { "type": "Point", "coordinates": [ 130.697244777783084, 32.853768580913176 ] } },
{ "type": "Feature", "properties": { "P29_001": "43102", "P29_002": "F113310103233", "P29_003": "16007", "P29_004": "東海大学", "P29_005": "熊本県熊本市中央区渡鹿9-1-1", "P29_006": "4", "P29_007": "0", "P29_008": "06", "P29_009": "熊本キャンパス" }, "geometry": { "type": "Point", "coordinates": [ 130.743200653834322, 32.811257154328011 ] } },
{ "type": "Feature", "properties": { "P29_001": "43101", "P29_002": "F143110111295", "P29_003": "16007", "P29_004": "熊本大学", "P29_005": "熊本県熊本市中央区九品寺4-24-1", "P29_006": "1", "P29_007": "0", "P29_008": "02", "P29_009": "本荘南地区" }, "geometry": { "type": "Point", "coordinates": [ 130.714548517378773, 32.792715634100404 ] } },
{ "type": "Feature", "properties": { "P29_001": "43101", "P29_002": "F143110111295", "P29_003": "16007", "P29_004": "熊本大学", "P29_005": "熊本県熊本市中央区本荘1-1-1", "P29_006": "1", "P29_007": "0", "P29_008": "03", "P29_009": "本荘北地区" }, "geometry": { "type": "Point", "coordinates": [ 130.711659879904914, 32.797277903038236 ] } },
{ "type": "Feature", "properties": { "P29_001": "43101", "P29_002": "F143110111295", "P29_003": "16007", "P29_004": "熊本大学", "P29_005": "熊本県熊本市中央区黒髪2-40-1", "P29_006": "1", "P29_007": "0", "P29_008": "04", "P29_009": "黒髪北地区" }, "geometry": { "type": "Point", "coordinates": [ 130.728342786271355, 32.815967685693231 ] } },
{ "type": "Feature", "properties": { "P29_001": "43101", "P29_002": "F143110111295", "P29_003": "16007", "P29_004": "熊本大学", "P29_005": "熊本県熊本市中央区大江本町5-1", "P29_006": "1", "P29_007": "0", "P29_008": "05", "P29_009": "大江地区" }, "geometry": { "type": "Point", "coordinates": [ 130.721, 32.795 ] } },
{ "type": "Feature", "properties": { "P29_001": "43404", "P29_002": "F143310111335", "P29_003": "16007", "P29_004": "尚絅大学", "P29_005": "熊本県菊池郡菊陽町武蔵ヶ丘北2-8-1", "P29_006": "4", "P29_007": "0", "P29_008": "02", "P29_009": "武蔵ヶ丘キャンパス" }, "geometry": { "type": "Point", "coordinates": [ 130.76114351888404, 32.857433011710746 ] } }
]
}
