{
"type": "FeatureCollection",
"name": "geo_43_訪問リハビリテーション",
"crs": { "type": "name", "properties": { "name": "urn:ogc:def:crs:OGC:1.3:CRS84" } },
"features": [
{ "type": "Feature", "properties": { "内容": "十善病院【訪問リハビリテーション】熊本市中央区南熊本3丁目6番34号", "url": "https://www.kaigokensaku.mhlw.go.jp/43/index.php?action_kouhyou_detail_004_kani=true&JigyosyoCd=4310127925-00&ServiceCd=140&Type=search", "url2": "http://www.asahino.or.jp/10zen/" }, "geometry": { "type": "Point", "coordinates": [ 130.713155, 32.786777 ] } },
{ "type": "Feature", "properties": { "内容": "前田内科医院【訪問リハビリテーション】熊本県熊本市中央区白山2丁目11番16号", "url": "https://www.kaigokensaku.mhlw.go.jp/43/index.php?action_kouhyou_detail_004_kani=true&JigyosyoCd=4310128667-00&ServiceCd=140&Type=search", "url2": "http://www.maedakai.com" }, "geometry": { "type": "Point", "coordinates": [ 130.722741686508243, 32.793091446799437 ] } },
{ "type": "Feature", "properties": { "内容": "介護老人保健施設なでしこ【訪問リハビリテーション】熊本市中央区北千反畑町2番5号", "url": "https://www.kaigokensaku.mhlw.go.jp/43/index.php?action_kouhyou_detail_004_kani=true&JigyosyoCd=4350180206-00&ServiceCd=140&Type=search", "url2": "http://www.kiseikai.or.jp" }, "geometry": { "type": "Point", "coordinates": [ 130.715976500000011, 32.8089667 ] } },
{ "type": "Feature", "properties": { "内容": "帯山中央病院　指定訪問リハビリテーション事業所【訪問リハビリテーション】熊本県熊本市中央区帯山4丁目5番18号", "url": "https://www.kaigokensaku.mhlw.go.jp/43/index.php?action_kouhyou_detail_004_kani=true&JigyosyoCd=4310123478-00&ServiceCd=140&Type=search", "url2": "http//obiyama-ct.com" }, "geometry": { "type": "Point", "coordinates": [ 130.749491799999987, 32.8001538 ] } },
{ "type": "Feature", "properties": { "内容": "介護老人保健施設　　のぞみ【訪問リハビリテーション】熊本県熊本市中央区本荘３丁目７番１８号", "url": "https://www.kaigokensaku.mhlw.go.jp/43/index.php?action_kouhyou_detail_004_kani=true&JigyosyoCd=4350180305-00&ServiceCd=140&Type=search", "url2": "http://sugimurakai.ｊｐ/" }, "geometry": { "type": "Point", "coordinates": [ 130.708707499999946, 32.7945623 ] } },
{ "type": "Feature", "properties": { "内容": "杉村病院【訪問リハビリテーション】熊本県熊本市中央区本荘3丁目7番18号", "url": "https://www.kaigokensaku.mhlw.go.jp/43/index.php?action_kouhyou_detail_004_kani=true&JigyosyoCd=4310116431-00&ServiceCd=140&Type=search", "url2": "http://sugimurakai.jp/" }, "geometry": { "type": "Point", "coordinates": [ 130.7085968, 32.7947706 ] } },
{ "type": "Feature", "properties": { "内容": "社会医療法人　芳和会　くわみず病院【訪問リハビリテーション】熊本県熊本市中央区神水1丁目14番41号", "url": "https://www.kaigokensaku.mhlw.go.jp/43/index.php?action_kouhyou_detail_004_kani=true&JigyosyoCd=4310116274-00&ServiceCd=140&Type=search", "url2": "https://www.kuwamizu.jp/" }, "geometry": { "type": "Point", "coordinates": [ 130.743298, 32.7863529 ] } },
{ "type": "Feature", "properties": { "内容": "せんだメディカルクリニック訪問リハビリテーション【訪問リハビリテーション】熊本市中央区島崎1丁目32-1", "url": "https://www.kaigokensaku.mhlw.go.jp/43/index.php?action_kouhyou_detail_004_kani=true&JigyosyoCd=4310126646-00&ServiceCd=140&Type=search", "url2": null }, "geometry": { "type": "Point", "coordinates": [ 130.691864900000013, 32.8025741 ] } },
{ "type": "Feature", "properties": { "内容": "水前寺とうや病院【訪問リハビリテーション】熊本市中央区水前寺5丁目２－２２", "url": "https://www.kaigokensaku.mhlw.go.jp/43/index.php?action_kouhyou_detail_004_kani=true&JigyosyoCd=4310118080-00&ServiceCd=140&Type=search", "url2": "http://www.tohya.or.jp" }, "geometry": { "type": "Point", "coordinates": [ 130.736203400000022, 32.7946821 ] } },
{ "type": "Feature", "properties": { "内容": "熊本託麻台リハビリテーション病院【訪問リハビリテーション】熊本市中央区帯山8-2-1", "url": "https://www.kaigokensaku.mhlw.go.jp/43/index.php?action_kouhyou_detail_004_kani=true&JigyosyoCd=4317110130-00&ServiceCd=140&Type=search", "url2": "http://www.horio-kai.or.jp/" }, "geometry": { "type": "Point", "coordinates": [ 130.759924599999977, 32.805345100000011 ] } },
{ "type": "Feature", "properties": { "内容": "医療法人社団NYC　あおぞらクリニック【訪問リハビリテーション】熊本県熊本市中央区京町1丁目11-7-2京町スクエアA-2階北", "url": "https://www.kaigokensaku.mhlw.go.jp/43/index.php?action_kouhyou_detail_004_kani=true&JigyosyoCd=4317110999-00&ServiceCd=140&Type=search", "url2": null }, "geometry": { "type": "Point", "coordinates": [ 130.705824500000034, 32.8126922 ] } },
{ "type": "Feature", "properties": { "内容": "湧心苑訪問リハビリテーション【訪問リハビリテーション】熊本市中央区出水４丁目１５－３０介護老人保健施設湧心苑", "url": "https://www.kaigokensaku.mhlw.go.jp/43/index.php?action_kouhyou_detail_004_kani=true&JigyosyoCd=4370103535-00&ServiceCd=140&Type=search", "url2": "https://www.toueikai.or.jp/" }, "geometry": { "type": "Point", "coordinates": [ 130.733551, 32.78095 ] } },
{ "type": "Feature", "properties": { "内容": "リハビリテーション「くらりは」【訪問リハビリテーション】本山1-5-16", "url": "https://www.kaigokensaku.mhlw.go.jp/43/index.php?action_kouhyou_detail_004_kani=true&JigyosyoCd=4310122967-00&ServiceCd=140&Type=search", "url2": null }, "geometry": { "type": "Point", "coordinates": [ 136.9642459, 35.1646234 ] } },
{ "type": "Feature", "properties": { "内容": "医療法人　杏友会　訪問リハビリテーションセンター【訪問リハビリテーション】熊本県熊本市中央区黒髪6-1-23野津原内科医院", "url": "https://www.kaigokensaku.mhlw.go.jp/43/index.php?action_kouhyou_detail_004_kani=true&JigyosyoCd=4310125150-00&ServiceCd=140&Type=search", "url2": "http://www.kyouyukai.or.jp" }, "geometry": { "type": "Point", "coordinates": [ 130.7344939, 32.8153322 ] } },
{ "type": "Feature", "properties": { "内容": "医療法人社団　仁風会　比企病院　訪問リハビリテーション【訪問リハビリテーション】熊本県熊本市東区尾ノ上3丁目1番34号比企病院", "url": "https://www.kaigokensaku.mhlw.go.jp/43/index.php?action_kouhyou_detail_004_kani=true&JigyosyoCd=4310120656-00&ServiceCd=140&Type=search", "url2": null }, "geometry": { "type": "Point", "coordinates": [ 130.7540227, 32.795737 ] } },
{ "type": "Feature", "properties": { "内容": "西日本ケアセンター【訪問リハビリテーション】熊本市東区八反田3丁目20番1号", "url": "https://www.kaigokensaku.mhlw.go.jp/43/index.php?action_kouhyou_detail_004_kani=true&JigyosyoCd=4310120730-00&ServiceCd=140&Type=search", "url2": "http://www.nishinihon.or.jp" }, "geometry": { "type": "Point", "coordinates": [ 130.7706627, 32.8211244 ] } },
{ "type": "Feature", "properties": { "内容": "介護医療院心ほか　訪問リハビリテーション【訪問リハビリテーション】熊本県熊本市東区新外3丁目9番1号", "url": "https://www.kaigokensaku.mhlw.go.jp/43/index.php?action_kouhyou_detail_004_kani=true&JigyosyoCd=43B0100037-00&ServiceCd=140&Type=search", "url2": "http://www.honjyo-hp.jp/" }, "geometry": { "type": "Point", "coordinates": [ 130.7631968, 32.7979225 ] } },
{ "type": "Feature", "properties": { "内容": "訪問リハビリテーション成仁【訪問リハビリテーション】熊本県熊本市東区戸島２丁目３番１５号", "url": "https://www.kaigokensaku.mhlw.go.jp/43/index.php?action_kouhyou_detail_004_kani=true&JigyosyoCd=4310118403-00&ServiceCd=140&Type=search", "url2": "https://seijin-kumamoto.or.jp" }, "geometry": { "type": "Point", "coordinates": [ 130.7929249, 32.8167057 ] } },
{ "type": "Feature", "properties": { "内容": "コスモピア熊本　訪問リハビリテーション【訪問リハビリテーション】熊本県熊本市東区尾ノ上1丁目3-12", "url": "https://www.kaigokensaku.mhlw.go.jp/43/index.php?action_kouhyou_detail_004_kani=true&JigyosyoCd=4370113096-00&ServiceCd=140&Type=search", "url2": "https://shinseiki.or.jp" }, "geometry": { "type": "Point", "coordinates": [ 130.750447300000019, 32.7892465 ] } },
{ "type": "Feature", "properties": { "内容": "メディエイト鶴翔苑【訪問リハビリテーション】熊本市東区保田窪本町10番112", "url": "https://www.kaigokensaku.mhlw.go.jp/43/index.php?action_kouhyou_detail_004_kani=true&JigyosyoCd=4350180164-00&ServiceCd=140&Type=search", "url2": "http://www.kakuyuukai.or.jp" }, "geometry": { "type": "Point", "coordinates": [ 130.74710570000002, 32.808017 ] } },
{ "type": "Feature", "properties": { "内容": "松原リウマチ科　整形外科【訪問リハビリテーション】東区月出５丁目３－１５", "url": "https://www.kaigokensaku.mhlw.go.jp/43/index.php?action_kouhyou_detail_004_kani=true&JigyosyoCd=4310125580-00&ServiceCd=140&Type=search", "url2": "htt://kmroc.jp/" }, "geometry": { "type": "Point", "coordinates": [ 130.773612700000058, 32.8033541 ] } },
{ "type": "Feature", "properties": { "内容": "仁誠会クリニックながみね訪問リハビリテーション事業所【訪問リハビリテーション】熊本県熊本市戸島西2丁目3-10", "url": "https://www.kaigokensaku.mhlw.go.jp/43/index.php?action_kouhyou_detail_004_kani=true&JigyosyoCd=4310125523-00&ServiceCd=140&Type=search", "url2": "http://www.jinseikai.or.jp" }, "geometry": { "type": "Point", "coordinates": [ 130.781067600000029, 32.8112451 ] } },
{ "type": "Feature", "properties": { "内容": "医療法人社団杏医会　緒方脳神経外科医院【訪問リハビリテーション】熊本県熊本市西区池田１丁目14-82", "url": "https://www.kaigokensaku.mhlw.go.jp/43/index.php?action_kouhyou_detail_004_kani=true&JigyosyoCd=4310120995-00&ServiceCd=140&Type=search", "url2": null }, "geometry": { "type": "Point", "coordinates": [ 130.705358, 32.8220652 ] } },
{ "type": "Feature", "properties": { "内容": "春日クリニック　訪問リハビリテーション【訪問リハビリテーション】熊本市春日西区３丁目２５－１", "url": "https://www.kaigokensaku.mhlw.go.jp/43/index.php?action_kouhyou_detail_004_kani=true&JigyosyoCd=4310122322-00&ServiceCd=140&Type=search", "url2": "http://www.seisinkai.or.jp" }, "geometry": { "type": "Point", "coordinates": [ 130.68761, 32.7896288 ] } },
{ "type": "Feature", "properties": { "内容": "聖ヶ塔病院【訪問リハビリテーション】熊本市西区河内町船津897", "url": "https://www.kaigokensaku.mhlw.go.jp/43/index.php?action_kouhyou_detail_004_kani=true&JigyosyoCd=4310121555-00&ServiceCd=140&Type=search", "url2": "http://www.seigatoh-hp.jp/" }, "geometry": { "type": "Point", "coordinates": [ 130.582307, 32.8358982 ] } },
{ "type": "Feature", "properties": { "内容": "医療法人社団芳仁会山口病院【訪問リハビリテーション】熊本市西区田崎3丁目1－17", "url": "https://www.kaigokensaku.mhlw.go.jp/43/index.php?action_kouhyou_detail_004_kani=true&JigyosyoCd=4310122553-00&ServiceCd=140&Type=search", "url2": null }, "geometry": { "type": "Point", "coordinates": [ 130.683269, 32.7809768 ] } },
{ "type": "Feature", "properties": { "内容": "青磁野リハビリテーション病院【訪問リハビリテーション】熊本県熊本市西区島崎2丁目22-15", "url": "https://www.kaigokensaku.mhlw.go.jp/43/index.php?action_kouhyou_detail_004_kani=true&JigyosyoCd=4310117108-00&ServiceCd=140&Type=search", "url2": "https://www.seijino.or.jp" }, "geometry": { "type": "Point", "coordinates": [ 130.691387, 32.807905 ] } },
{ "type": "Feature", "properties": { "内容": "熊本田崎クリニック　訪問リハビリテーション【訪問リハビリテーション】熊本県熊本市西区田崎2丁目5-30", "url": "https://www.kaigokensaku.mhlw.go.jp/43/index.php?action_kouhyou_detail_004_kani=true&JigyosyoCd=4317310169-00&ServiceCd=140&Type=search", "url2": "https://www.k-heiseikai.com" }, "geometry": { "type": "Point", "coordinates": [ 130.67943120000001, 32.782658500000011 ] } },
{ "type": "Feature", "properties": { "内容": "上代成城訪問リハビリテーション事業所【訪問リハビリテーション】熊本県熊本市西区上代2丁目2-25", "url": "https://www.kaigokensaku.mhlw.go.jp/43/index.php?action_kouhyou_detail_004_kani=true&JigyosyoCd=4317310144-00&ServiceCd=140&Type=search", "url2": "http://www.kamidai-seijo.jp/" }, "geometry": { "type": "Point", "coordinates": [ 130.6743142, 32.7811818 ] } },
{ "type": "Feature", "properties": { "内容": "あけぼのクリニック【訪問リハビリテーション】熊本県熊本市南区白藤5丁目1番1号", "url": "https://www.kaigokensaku.mhlw.go.jp/43/index.php?action_kouhyou_detail_004_kani=true&JigyosyoCd=4310120581-00&ServiceCd=140&Type=search", "url2": "http://www.matusita-kai.or.jp/" }, "geometry": { "type": "Point", "coordinates": [ 130.674662200000057, 32.7544458 ] } },
{ "type": "Feature", "properties": { "内容": "介護療養型老人保健施設　ゆずりは【訪問リハビリテーション】熊本市南区城南町高1099", "url": "https://www.kaigokensaku.mhlw.go.jp/43/index.php?action_kouhyou_detail_004_kani=true&JigyosyoCd=4350180255-00&ServiceCd=140&Type=search", "url2": "http://yzuriha-or.jp" }, "geometry": { "type": "Point", "coordinates": [ 130.708510400000023, 32.7341955 ] } },
{ "type": "Feature", "properties": { "内容": "訪問リハビリテーションゆずりは【訪問リハビリテーション】熊本県熊本市南区城南町高1099番地", "url": "https://www.kaigokensaku.mhlw.go.jp/43/index.php?action_kouhyou_detail_004_kani=true&JigyosyoCd=43B0100052-00&ServiceCd=140&Type=search", "url2": "http://yuzuriha-k.or.jp/" }, "geometry": { "type": "Point", "coordinates": [ 130.708387600000037, 32.7341937 ] } },
{ "type": "Feature", "properties": { "内容": "医療法人　城南ヘルスケアグループ　くまもと南部広域病院【訪問リハビリテーション】熊本県熊本市南区城南町舞原無番地", "url": "https://www.kaigokensaku.mhlw.go.jp/43/index.php?action_kouhyou_detail_004_kani=true&JigyosyoCd=4312310925-00&ServiceCd=140&Type=search", "url2": "http://www.ksr-hospital.jp" }, "geometry": { "type": "Point", "coordinates": [ 130.746578199999931, 32.7090176 ] } },
{ "type": "Feature", "properties": { "内容": "熊本第一病院　訪問リハビリ【訪問リハビリテーション】熊本県熊本市南区田迎町田井島224番地", "url": "https://www.kaigokensaku.mhlw.go.jp/43/index.php?action_kouhyou_detail_004_kani=true&JigyosyoCd=4310116399-00&ServiceCd=140&Type=search", "url2": null }, "geometry": { "type": "Point", "coordinates": [ 130.7228274, 32.7538989 ] } },
{ "type": "Feature", "properties": { "内容": "あきた病院【訪問リハビリテーション】熊本県熊本市南区会富町１１２０", "url": "https://www.kaigokensaku.mhlw.go.jp/43/index.php?action_kouhyou_detail_004_kani=true&JigyosyoCd=4310121373-00&ServiceCd=140&Type=search", "url2": "http://www.akita-hospital.or.jp" }, "geometry": { "type": "Point", "coordinates": [ 130.654111300000068, 32.7521377 ] } },
{ "type": "Feature", "properties": { "内容": "平成とうや病院　訪問リハビリテーションセンター【訪問リハビリテーション】熊本県熊本市南区出仲間8-2-15", "url": "https://www.kaigokensaku.mhlw.go.jp/43/index.php?action_kouhyou_detail_004_kani=true&JigyosyoCd=4310128915-00&ServiceCd=140&Type=search", "url2": "http://www.tohya.or.jp/heisei/guidereha/accessreha.php" }, "geometry": { "type": "Point", "coordinates": [ 130.718809, 32.7668784 ] } },
{ "type": "Feature", "properties": { "内容": "医療法人　相生会　にしくまもと病院　訪問リハビリテーション事業所【訪問リハビリテーション】熊本県熊本市南区富合町古閑1012番地", "url": "https://www.kaigokensaku.mhlw.go.jp/43/index.php?action_kouhyou_detail_004_kani=true&JigyosyoCd=4317410084-00&ServiceCd=140&Type=search", "url2": "https://www.nishikuma.com" }, "geometry": { "type": "Point", "coordinates": [ 130.675185520762625, 32.709307192450034 ] } },
{ "type": "Feature", "properties": { "内容": "Let'sイエリハ！桜十字【訪問リハビリテーション】南区御幸木部1-1-1", "url": "https://www.kaigokensaku.mhlw.go.jp/43/index.php?action_kouhyou_detail_004_kani=true&JigyosyoCd=4310117280-00&ServiceCd=140&Type=search", "url2": "http://www.sakurajyuji.or.jp/" }, "geometry": { "type": "Point", "coordinates": [ 130.715425800000048, 32.7512164 ] } },
{ "type": "Feature", "properties": { "内容": "ひまわり在宅クリニック【訪問リハビリテーション】熊本市南区江越2丁目14番26号", "url": "https://www.kaigokensaku.mhlw.go.jp/43/index.php?action_kouhyou_detail_004_kani=true&JigyosyoCd=4310129129-00&ServiceCd=140&Type=search", "url2": "https://himawari-clinic.info/" }, "geometry": { "type": "Point", "coordinates": [ 130.7024762, 32.7721767 ] } },
{ "type": "Feature", "properties": { "内容": "医療法人　博光会　御幸病院【訪問リハビリテーション】熊本市南区御幸笛田６丁目７－４０", "url": "https://www.kaigokensaku.mhlw.go.jp/43/index.php?action_kouhyou_detail_004_kani=true&JigyosyoCd=4310119625-00&ServiceCd=140&Type=search", "url2": "http://www.miyukinosato.or.jp" }, "geometry": { "type": "Point", "coordinates": [ 130.710725700000012, 32.7590766 ] } },
{ "type": "Feature", "properties": { "内容": "小林病院訪問リハビリテーション【訪問リハビリテーション】熊本県熊本市南区城南町隈庄５７４小林病院", "url": "https://www.kaigokensaku.mhlw.go.jp/43/index.php?action_kouhyou_detail_004_kani=true&JigyosyoCd=4310128188-00&ServiceCd=140&Type=search", "url2": "http://k-group.jp/kobayashihp/" }, "geometry": { "type": "Point", "coordinates": [ 130.7288534, 32.7043594 ] } },
{ "type": "Feature", "properties": { "内容": "医療法人社団　郁栄会　北部脳神経外科・神経内科【訪問リハビリテーション】熊本県熊本市北区楠野町1067-1", "url": "https://www.kaigokensaku.mhlw.go.jp/43/index.php?action_kouhyou_detail_004_kani=true&JigyosyoCd=4310126406-00&ServiceCd=140&Type=search", "url2": "http://www.ikueikai-kumamoto.or.jp" }, "geometry": { "type": "Point", "coordinates": [ 130.701854799999978, 32.8775407 ] } },
{ "type": "Feature", "properties": { "内容": "訪問リハビリテーション　みつぐ苑【訪問リハビリテーション】熊本市北区貢町135番地", "url": "https://www.kaigokensaku.mhlw.go.jp/43/index.php?action_kouhyou_detail_004_kani=true&JigyosyoCd=4370105944-00&ServiceCd=140&Type=search", "url2": "http://www.iseikai.info" }, "geometry": { "type": "Point", "coordinates": [ 130.702508978573633, 32.842869307701989 ] } },
{ "type": "Feature", "properties": { "内容": "医療法人社団　原武会　北部病院【訪問リハビリテーション】熊本県熊本市北区四方寄町1281-3", "url": "https://www.kaigokensaku.mhlw.go.jp/43/index.php?action_kouhyou_detail_004_kani=true&JigyosyoCd=4310121522-00&ServiceCd=140&Type=search", "url2": "https://hkb.or.jp/hkb/" }, "geometry": { "type": "Point", "coordinates": [ 130.708444899999989, 32.8645773 ] } },
{ "type": "Feature", "properties": { "内容": "なかがわ整形の訪問リハビリテーション【訪問リハビリテーション】熊本県熊本市北区武蔵ヶ丘２－２－２", "url": "https://www.kaigokensaku.mhlw.go.jp/43/index.php?action_kouhyou_detail_004_kani=true&JigyosyoCd=4310125358-00&ServiceCd=140&Type=search", "url2": "http://www.nakagawaseikei.com/houmonreha/" }, "geometry": { "type": "Point", "coordinates": [ 130.764065399999936, 32.8517131 ] } },
{ "type": "Feature", "properties": { "内容": "医療法人　寺尾会　寺尾病院【訪問リハビリテーション】熊本市北区小糸山町759", "url": "https://www.kaigokensaku.mhlw.go.jp/43/index.php?action_kouhyou_detail_004_kani=true&JigyosyoCd=4310121480-00&ServiceCd=140&Type=search", "url2": "http://www.terao.or.jp" }, "geometry": { "type": "Point", "coordinates": [ 130.693319200000019, 32.8928502 ] } },
{ "type": "Feature", "properties": { "内容": "医療法人社団　原武会　北部病院【訪問リハビリテーション】熊本市北区四方寄町1281-3", "url": "https://www.kaigokensaku.mhlw.go.jp/43/index.php?action_kouhyou_detail_004_kani=true&JigyosyoCd=4310125341-00&ServiceCd=140&Type=search", "url2": "https://hkb.or.jp/hkb/" }, "geometry": { "type": "Point", "coordinates": [ 130.7083906, 32.8645549 ] } },
{ "type": "Feature", "properties": { "内容": "訪問リハビリテーションセンター清雅苑【訪問リハビリテーション】熊本県熊本市北区山室六丁目8番1号", "url": "https://www.kaigokensaku.mhlw.go.jp/43/index.php?action_kouhyou_detail_004_kani=true&JigyosyoCd=4370105464-00&ServiceCd=140&Type=search", "url2": "http://ｗｗｗ.juryo.or.jp" }, "geometry": { "type": "Point", "coordinates": [ 130.71835139999996, 32.846842 ] } },
{ "type": "Feature", "properties": { "内容": "成城訪問リハビリテーション事業所【訪問リハビリテーション】熊本県熊本市北区室園町10-17", "url": "https://www.kaigokensaku.mhlw.go.jp/43/index.php?action_kouhyou_detail_004_kani=true&JigyosyoCd=4310118528-00&ServiceCd=140&Type=search", "url2": "http://www.k-seijo.or.jp" }, "geometry": { "type": "Point", "coordinates": [ 130.7231842, 32.8236739 ] } },
{ "type": "Feature", "properties": { "内容": "武蔵ヶ丘訪問リハビリテーション【訪問リハビリテーション】熊本市楠７丁目１５－１", "url": "https://www.kaigokensaku.mhlw.go.jp/43/index.php?action_kouhyou_detail_004_kani=true&JigyosyoCd=4310118437-00&ServiceCd=140&Type=search", "url2": "http://www.tanakakai.com/" }, "geometry": { "type": "Point", "coordinates": [ 130.7625655, 32.8460761 ] } },
{ "type": "Feature", "properties": { "内容": "萬生会在宅療養支援診療所【訪問リハビリテーション】熊本県熊本市北区清水亀井町1-26", "url": "https://www.kaigokensaku.mhlw.go.jp/43/index.php?action_kouhyou_detail_004_kani=true&JigyosyoCd=4310128840-00&ServiceCd=140&Type=search", "url2": "http://vansay.jp/kumamoto" }, "geometry": { "type": "Point", "coordinates": [ 130.72072940000001, 32.8366263 ] } },
{ "type": "Feature", "properties": { "内容": "医療法人　朝日野会　朝日野総合病院【訪問リハビリテーション】熊本市北区室園町12番10号", "url": "https://www.kaigokensaku.mhlw.go.jp/43/index.php?action_kouhyou_detail_004_kani=true&JigyosyoCd=4310119872-00&ServiceCd=140&Type=search", "url2": "http://www.asahino.or.jp" }, "geometry": { "type": "Point", "coordinates": [ 130.724723590807343, 32.82333844471723 ] } },
{ "type": "Feature", "properties": { "内容": "よもぎクリニック【訪問リハビリテーション】熊本県熊本市北区四方寄町1411-9", "url": "https://www.kaigokensaku.mhlw.go.jp/43/index.php?action_kouhyou_detail_004_kani=true&JigyosyoCd=4310126935-00&ServiceCd=140&Type=search", "url2": "https://www.matsumikai.info" }, "geometry": { "type": "Point", "coordinates": [ 130.706567300000017, 32.867423 ] } },
{ "type": "Feature", "properties": { "内容": "医療法人室原会　菊南病院【訪問リハビリテーション】北区鶴羽田3丁目1番53号", "url": "https://www.kaigokensaku.mhlw.go.jp/43/index.php?action_kouhyou_detail_004_kani=true&JigyosyoCd=4310121472-00&ServiceCd=140&Type=search", "url2": "http://www.kikunan-hospital.com" }, "geometry": { "type": "Point", "coordinates": [ 130.727120099999979, 32.8588041 ] } },
{ "type": "Feature", "properties": { "内容": "Let'sイエリハ！八代【訪問リハビリテーション】熊本県八代市本町2丁目4番33号桜十字八代リハビリテーション病院", "url": "https://www.kaigokensaku.mhlw.go.jp/43/index.php?action_kouhyou_detail_004_kani=true&JigyosyoCd=4311710133-00&ServiceCd=140&Type=search", "url2": "https://www.sj-yatsushiro-reha.jp/" }, "geometry": { "type": "Point", "coordinates": [ 130.5996327, 32.5040562 ] } },
{ "type": "Feature", "properties": { "内容": "訪問リハビリテーションかがみ苑【訪問リハビリテーション】熊本県八代市鏡町塩浜235番地", "url": "https://www.kaigokensaku.mhlw.go.jp/43/index.php?action_kouhyou_detail_004_kani=true&JigyosyoCd=4352980025-00&ServiceCd=140&Type=search", "url2": "https://www.kagamien-kumamoto.com" }, "geometry": { "type": "Point", "coordinates": [ 130.617998220515148, 32.561772280311054 ] } },
{ "type": "Feature", "properties": { "内容": "Let’sイエリハ！八代北【訪問リハビリテーション】熊本県八代市古閑浜町西塩浜3401番地", "url": "https://www.kaigokensaku.mhlw.go.jp/43/index.php?action_kouhyou_detail_004_kani=true&JigyosyoCd=4350280030-00&ServiceCd=140&Type=search", "url2": "https://rehareat-yatsushiro.jp/" }, "geometry": { "type": "Point", "coordinates": [ 130.599782195939724, 32.537553708929259 ] } },
{ "type": "Feature", "properties": { "内容": "訪問リハビリテーション　峯苫医院【訪問リハビリテーション】熊本県八代市渡町1717峯苫医院", "url": "https://www.kaigokensaku.mhlw.go.jp/43/index.php?action_kouhyou_detail_004_kani=true&JigyosyoCd=4311711735-00&ServiceCd=140&Type=search", "url2": "http://www.minetoma-hos.jp" }, "geometry": { "type": "Point", "coordinates": [ 130.623769569975281, 32.491876006398414 ] } },
{ "type": "Feature", "properties": { "内容": "医療法人　社団　健成会　ひとよし内科【訪問リハビリテーション】熊本県　人吉市　七地町28-1", "url": "https://www.kaigokensaku.mhlw.go.jp/43/index.php?action_kouhyou_detail_004_kani=true&JigyosyoCd=4310310810-00&ServiceCd=140&Type=search", "url2": "http://www.kenseikai.jp" }, "geometry": { "type": "Point", "coordinates": [ 130.774164499999983, 32.2088299 ] } },
{ "type": "Feature", "properties": { "内容": "医療法人蘇春堂　球磨病院【訪問リハビリテーション】熊本県人吉市上青井町176", "url": "https://www.kaigokensaku.mhlw.go.jp/43/index.php?action_kouhyou_detail_004_kani=true&JigyosyoCd=4310310539-00&ServiceCd=140&Type=search", "url2": "http://www.soshundo.jp" }, "geometry": { "type": "Point", "coordinates": [ 130.756479399999989, 32.2138674 ] } },
{ "type": "Feature", "properties": { "内容": "医療法人回生会　堤病院【訪問リハビリテーション】熊本県人吉市下林町232", "url": "https://www.kaigokensaku.mhlw.go.jp/43/index.php?action_kouhyou_detail_004_kani=true&JigyosyoCd=4310310505-00&ServiceCd=140&Type=search", "url2": "http://www.tsutsumi-hospital.jp" }, "geometry": { "type": "Point", "coordinates": [ 130.735603500000025, 32.2178835 ] } },
{ "type": "Feature", "properties": { "内容": "愛生記念病院訪問リハビリテーション事業所【訪問リハビリテーション】熊本県人吉市南泉田町８９愛生記念病院", "url": "https://www.kaigokensaku.mhlw.go.jp/43/index.php?action_kouhyou_detail_004_kani=true&JigyosyoCd=4310310554-00&ServiceCd=140&Type=search", "url2": "http://www16.ocn.ne.jp/~crtoyama/index.html" }, "geometry": { "type": "Point", "coordinates": [ 130.762613800000054, 32.2166154 ] } },
{ "type": "Feature", "properties": { "内容": "人吉リハビリテーション病院【訪問リハビリテーション】熊本県人吉市下新町３５９番地", "url": "https://www.kaigokensaku.mhlw.go.jp/43/index.php?action_kouhyou_detail_004_kani=true&JigyosyoCd=4310311347-00&ServiceCd=140&Type=search", "url2": "http://oyakuen-g.or.jp/dsk/index.html" }, "geometry": { "type": "Point", "coordinates": [ 130.769106500000021, 32.2150068 ] } },
{ "type": "Feature", "properties": { "内容": "医療法人外山胃腸病院　訪問リハビリテーション【訪問リハビリテーション】熊本県人吉市南泉田町１番地", "url": "https://www.kaigokensaku.mhlw.go.jp/43/index.php?action_kouhyou_detail_004_kani=true&JigyosyoCd=4310310927-00&ServiceCd=140&Type=search", "url2": "http://www.gh-toyama.or.jp/" }, "geometry": { "type": "Point", "coordinates": [ 130.7607127, 32.2178756 ] } },
{ "type": "Feature", "properties": { "内容": "介護老人保健施設　平成ドリーム館【訪問リハビリテーション】熊本県荒尾市水野１５５６番地", "url": "https://www.kaigokensaku.mhlw.go.jp/43/index.php?action_kouhyou_detail_004_kani=true&JigyosyoCd=4350480028-00&ServiceCd=140&Type=search", "url2": "http://www.heiseikai.jp" }, "geometry": { "type": "Point", "coordinates": [ 130.449793600000021, 32.9622716 ] } },
{ "type": "Feature", "properties": { "内容": "荒尾中央病院【訪問リハビリテーション】熊本県荒尾市増永１５４４番地１", "url": "https://www.kaigokensaku.mhlw.go.jp/43/index.php?action_kouhyou_detail_004_kani=true&JigyosyoCd=4310410859-00&ServiceCd=140&Type=search", "url2": "http://www.senshinkai.or.jp/chuoh/" }, "geometry": { "type": "Point", "coordinates": [ 130.4408803, 32.9729398 ] } },
{ "type": "Feature", "properties": { "内容": "ふれあいクリニック【訪問リハビリテーション】熊本県荒尾市川登１７６１番地２４", "url": "https://www.kaigokensaku.mhlw.go.jp/43/index.php?action_kouhyou_detail_004_kani=true&JigyosyoCd=4310411196-00&ServiceCd=140&Type=search", "url2": null }, "geometry": { "type": "Point", "coordinates": [ 130.467817200000013, 32.9702266 ] } },
{ "type": "Feature", "properties": { "内容": "医療法人吉水会吉田整形外科クリニック【訪問リハビリテーション】牛水670-6", "url": "https://www.kaigokensaku.mhlw.go.jp/43/index.php?action_kouhyou_detail_004_kani=true&JigyosyoCd=4310411550-00&ServiceCd=140&Type=search", "url2": "http://www.yoshida-seikeigeka.info/" }, "geometry": { "type": "Point", "coordinates": [ 130.436336500000039, 32.9529366 ] } },
{ "type": "Feature", "properties": { "内容": "新生翠病院訪問リハビリテーション事業所【訪問リハビリテーション】熊本県荒尾市増永2620", "url": "https://www.kaigokensaku.mhlw.go.jp/43/index.php?action_kouhyou_detail_004_kani=true&JigyosyoCd=4310410651-00&ServiceCd=140&Type=search", "url2": "http://www.konoe-net.jp" }, "geometry": { "type": "Point", "coordinates": [ 130.457501099999945, 32.9717372 ] } },
{ "type": "Feature", "properties": { "内容": "ふれあいクリニック【訪問リハビリテーション】熊本県荒尾市川登1761番地24", "url": "https://www.kaigokensaku.mhlw.go.jp/43/index.php?action_kouhyou_detail_004_kani=true&JigyosyoCd=4370401608-00&ServiceCd=140&Type=search", "url2": null }, "geometry": { "type": "Point", "coordinates": [ 130.467784300000034, 32.9702656 ] } },
{ "type": "Feature", "properties": { "内容": "水俣協立病院【訪問リハビリテーション】熊本県水俣市桜井町2－2－12", "url": "https://www.kaigokensaku.mhlw.go.jp/43/index.php?action_kouhyou_detail_004_kani=true&JigyosyoCd=4310510625-00&ServiceCd=140&Type=search", "url2": "https://minamata-kyouritsu.com/" }, "geometry": { "type": "Point", "coordinates": [ 130.395968700000026, 32.2059247 ] } },
{ "type": "Feature", "properties": { "内容": "医療法人善哉会　山田クリニック【訪問リハビリテーション】熊本県水俣市旭町２丁目２番５号", "url": "https://www.kaigokensaku.mhlw.go.jp/43/index.php?action_kouhyou_detail_004_kani=true&JigyosyoCd=4310510732-00&ServiceCd=140&Type=search", "url2": "http://yamadakurinikku.hp.gogo.jp" }, "geometry": { "type": "Point", "coordinates": [ 130.401929, 32.208994 ] } },
{ "type": "Feature", "properties": { "内容": "渕上クリニック【訪問リハビリテーション】熊本県水俣市塩浜町2番47号", "url": "https://www.kaigokensaku.mhlw.go.jp/43/index.php?action_kouhyou_detail_004_kani=true&JigyosyoCd=4310511003-00&ServiceCd=140&Type=search", "url2": null }, "geometry": { "type": "Point", "coordinates": [ 130.3957354, 32.2126169 ] } },
{ "type": "Feature", "properties": { "内容": "訪問リハビリテーション　やすらぎ苑【訪問リハビリテーション】熊本県水俣市浜4051番地", "url": "https://www.kaigokensaku.mhlw.go.jp/43/index.php?action_kouhyou_detail_004_kani=true&JigyosyoCd=4350580017-00&ServiceCd=140&Type=search", "url2": "http://www.m-a-ishikai.com/" }, "geometry": { "type": "Point", "coordinates": [ 130.397817900000035, 32.223701800000015 ] } },
{ "type": "Feature", "properties": { "内容": "医療法人　岡部病院　訪問リハビリテーション【訪問リハビリテーション】熊本県水俣市桜井町3丁目3番3号", "url": "https://www.kaigokensaku.mhlw.go.jp/43/index.php?action_kouhyou_detail_004_kani=true&JigyosyoCd=4310510443-00&ServiceCd=140&Type=search", "url2": "http://www.okabehospital.jp/" }, "geometry": { "type": "Point", "coordinates": [ 130.3982628, 32.2075052 ] } },
{ "type": "Feature", "properties": { "内容": "訪問リハビリテーション　樹心台【訪問リハビリテーション】熊本県玉名市伊倉北方272-3", "url": "https://www.kaigokensaku.mhlw.go.jp/43/index.php?action_kouhyou_detail_004_kani=true&JigyosyoCd=4350680015-00&ServiceCd=140&Type=search", "url2": "https://www.i-shinwa.com/jushindai/" }, "geometry": { "type": "Point", "coordinates": [ 130.5624148, 32.9123578 ] } },
{ "type": "Feature", "properties": { "内容": "医療法人　悠紀会病院【訪問リハビリテーション】熊本県玉名市上小田１０６３番地", "url": "https://www.kaigokensaku.mhlw.go.jp/43/index.php?action_kouhyou_detail_004_kani=true&JigyosyoCd=4310611167-00&ServiceCd=140&Type=search", "url2": "http://www.yukikai.or.jp" }, "geometry": { "type": "Point", "coordinates": [ 130.586976700000037, 32.9521215 ] } },
{ "type": "Feature", "properties": { "内容": "介護老人保健施設　希望の園【訪問リハビリテーション】熊本県山鹿市山鹿３６９番地", "url": "https://www.kaigokensaku.mhlw.go.jp/43/index.php?action_kouhyou_detail_004_kani=true&JigyosyoCd=4350880011-00&ServiceCd=140&Type=search", "url2": null }, "geometry": { "type": "Point", "coordinates": [ 130.693258799999967, 33.0146309 ] } },
{ "type": "Feature", "properties": { "内容": "山鹿温泉リハビリテーション病院【訪問リハビリテーション】熊本県山鹿市新町1204", "url": "https://www.kaigokensaku.mhlw.go.jp/43/index.php?action_kouhyou_detail_004_kani=true&JigyosyoCd=4310810801-00&ServiceCd=140&Type=search", "url2": "http://www.yamaga-reha.jp" }, "geometry": { "type": "Point", "coordinates": [ 130.681751769311518, 33.01854952977321 ] } },
{ "type": "Feature", "properties": { "内容": "介護老人保健施設　山鹿リハビリセンター【訪問リハビリテーション】熊入町313番地", "url": "https://www.kaigokensaku.mhlw.go.jp/43/index.php?action_kouhyou_detail_004_kani=true&JigyosyoCd=4350880029-00&ServiceCd=140&Type=search", "url2": "http://seiei-kai.com/" }, "geometry": { "type": "Point", "coordinates": [ 130.6834422, 33.0287041 ] } },
{ "type": "Feature", "properties": { "内容": "山鹿中央訪問リハビリテーション事業所【訪問リハビリテーション】熊本県山鹿市山鹿1000番地", "url": "https://www.kaigokensaku.mhlw.go.jp/43/index.php?action_kouhyou_detail_004_kani=true&JigyosyoCd=4310810512-00&ServiceCd=140&Type=search", "url2": "http://www.yamagachuohp.jp/" }, "geometry": { "type": "Point", "coordinates": [ 130.6906619, 33.0151641 ] } },
{ "type": "Feature", "properties": { "内容": "太陽　訪問リハビリテーション【訪問リハビリテーション】熊本県山鹿市鹿本町津袋65４番地1", "url": "https://www.kaigokensaku.mhlw.go.jp/43/index.php?action_kouhyou_detail_004_kani=true&JigyosyoCd=4352580023-00&ServiceCd=140&Type=search", "url2": "http://www.taiyoyamaga.com/" }, "geometry": { "type": "Point", "coordinates": [ 130.745915599999989, 33.0153984 ] } },
{ "type": "Feature", "properties": { "内容": "後藤整形外科医院　訪問リハビリテーション【訪問リハビリテーション】熊本県菊池市隈府923", "url": "https://www.kaigokensaku.mhlw.go.jp/43/index.php?action_kouhyou_detail_004_kani=true&JigyosyoCd=4311610390-00&ServiceCd=140&Type=search", "url2": "https://www.gotoh.or.jp" }, "geometry": { "type": "Point", "coordinates": [ 130.812035899999955, 32.9821494 ] } },
{ "type": "Feature", "properties": { "内容": "金森医院【訪問リハビリテーション】熊本県宇土市本町６丁目５番地", "url": "https://www.kaigokensaku.mhlw.go.jp/43/index.php?action_kouhyou_detail_004_kani=true&JigyosyoCd=4311110730-00&ServiceCd=140&Type=search", "url2": "http://www.kanamori.or.jp" }, "geometry": { "type": "Point", "coordinates": [ 130.66461819999995, 32.6882264 ] } },
{ "type": "Feature", "properties": { "内容": "訪問リハビリテーション　けいが【訪問リハビリテーション】宇土市上網田町３６７６", "url": "https://www.kaigokensaku.mhlw.go.jp/43/index.php?action_kouhyou_detail_004_kani=true&JigyosyoCd=4351180023-00&ServiceCd=140&Type=search", "url2": "http://www.odakai.com" }, "geometry": { "type": "Point", "coordinates": [ 130.552869699999974, 32.6798616 ] } },
{ "type": "Feature", "properties": { "内容": "村上医院【訪問リハビリテーション】熊本県上天草市姫戸町姫浦2528-6", "url": "https://www.kaigokensaku.mhlw.go.jp/43/index.php?action_kouhyou_detail_004_kani=true&JigyosyoCd=4311210183-00&ServiceCd=140&Type=search", "url2": null }, "geometry": { "type": "Point", "coordinates": [ 130.4086528, 32.4397013 ] } },
{ "type": "Feature", "properties": { "内容": "済生会みすみ病院【訪問リハビリテーション】熊本県宇城市三角町波多775番地1", "url": "https://www.kaigokensaku.mhlw.go.jp/43/index.php?action_kouhyou_detail_004_kani=true&JigyosyoCd=4318212331-00&ServiceCd=140&Type=search", "url2": "http://www.sk-misumi.jp/" }, "geometry": { "type": "Point", "coordinates": [ 130.481870599999979, 32.6133544 ] } },
{ "type": "Feature", "properties": { "内容": "大阿蘇病院訪問リハビリテーション【訪問リハビリテーション】熊本県阿蘇市一の宮町宮地5833番地", "url": "https://www.kaigokensaku.mhlw.go.jp/43/index.php?action_kouhyou_detail_004_kani=true&JigyosyoCd=4312710983-00&ServiceCd=140&Type=search", "url2": "http://www.daitokukai.info/" }, "geometry": { "type": "Point", "coordinates": [ 131.111856499999931, 32.9333076 ] } },
{ "type": "Feature", "properties": { "内容": "訪問リハビリテーション事業所阿蘇温泉病院【訪問リハビリテーション】阿蘇市内牧1153-1", "url": "https://www.kaigokensaku.mhlw.go.jp/43/index.php?action_kouhyou_detail_004_kani=true&JigyosyoCd=4311510079-00&ServiceCd=140&Type=search", "url2": "http://www.asospahp.jp" }, "geometry": { "type": "Point", "coordinates": [ 131.044828400000029, 32.9723953 ] } },
{ "type": "Feature", "properties": { "内容": "阿蘇ハートクリニック【訪問リハビリテーション】熊本県阿蘇市小里249－2", "url": "https://www.kaigokensaku.mhlw.go.jp/43/index.php?action_kouhyou_detail_004_kani=true&JigyosyoCd=4312711411-00&ServiceCd=140&Type=search", "url2": "asoheart.com" }, "geometry": { "type": "Point", "coordinates": [ 131.039845600000035, 32.9784775 ] } },
{ "type": "Feature", "properties": { "内容": "ニュー天草病院【訪問リハビリテーション】熊本県天草市太田町2番地1", "url": "https://www.kaigokensaku.mhlw.go.jp/43/index.php?action_kouhyou_detail_004_kani=true&JigyosyoCd=4310711199-00&ServiceCd=140&Type=search", "url2": null }, "geometry": { "type": "Point", "coordinates": [ 130.198818699999947, 32.4490883 ] } },
{ "type": "Feature", "properties": { "内容": "独立行政法人地域医療機能推進機構天草中央総合病院附属介護老人保健施設訪問リハビリテーションセンター【訪問リハビリテーション】熊本県天草市東町101番地", "url": "https://www.kaigokensaku.mhlw.go.jp/43/index.php?action_kouhyou_detail_004_kani=true&JigyosyoCd=4350780021-00&ServiceCd=140&Type=search", "url2": "http//www.ach0011.com/sawayaka/index.html" }, "geometry": { "type": "Point", "coordinates": [ 130.200243600000022, 32.4493272 ] } },
{ "type": "Feature", "properties": { "内容": "医療法人社団　苓仁会　さかいクリニック【訪問リハビリテーション】熊本県天草市港町16番11号", "url": "https://www.kaigokensaku.mhlw.go.jp/43/index.php?action_kouhyou_detail_004_kani=true&JigyosyoCd=4310710993-00&ServiceCd=140&Type=search", "url2": "https://www.reijinkai.com" }, "geometry": { "type": "Point", "coordinates": [ 130.196107500000039, 32.4552767 ] } },
{ "type": "Feature", "properties": { "内容": "松本内科・眼科【訪問リハビリテーション】熊本県天草市久玉町5716-6", "url": "https://www.kaigokensaku.mhlw.go.jp/43/index.php?action_kouhyou_detail_004_kani=true&JigyosyoCd=4310910361-00&ServiceCd=140&Type=search", "url2": "http://www.matsumotonaikaganka.jp/" }, "geometry": { "type": "Point", "coordinates": [ 130.0278767, 32.2137431 ] } },
{ "type": "Feature", "properties": { "内容": "天草市立牛深市民病院【訪問リハビリテーション】熊本県天草市牛深町3050", "url": "https://www.kaigokensaku.mhlw.go.jp/43/index.php?action_kouhyou_detail_004_kani=true&JigyosyoCd=4318212083-00&ServiceCd=140&Type=search", "url2": "https://ushp.jp" }, "geometry": { "type": "Point", "coordinates": [ 130.017071399999963, 32.1949163 ] } },
{ "type": "Feature", "properties": { "内容": "国民健康保険天草市立河浦病院【訪問リハビリテーション】熊本県天草市河浦町白木河内２２３番地１１", "url": "https://www.kaigokensaku.mhlw.go.jp/43/index.php?action_kouhyou_detail_004_kani=true&JigyosyoCd=4318210061-00&ServiceCd=140&Type=search", "url2": "https://kawaura-hp.jp" }, "geometry": { "type": "Point", "coordinates": [ 130.0828362, 32.316697 ] } },
{ "type": "Feature", "properties": { "内容": "医療法人　社団　永寿会　天草第一病院　訪問リハビリテーション【訪問リハビリテーション】熊本県天草市今釜新町３４１３－６", "url": "https://www.kaigokensaku.mhlw.go.jp/43/index.php?action_kouhyou_detail_004_kani=true&JigyosyoCd=4312010103-00&ServiceCd=140&Type=search", "url2": "http://www.eijukai.or.jp/" }, "geometry": { "type": "Point", "coordinates": [ 130.194271299999969, 32.4598846 ] } },
{ "type": "Feature", "properties": { "内容": "特定医療法人　萬生会　合志第一病院【訪問リハビリテーション】熊本県合志市御代志812-2", "url": "https://www.kaigokensaku.mhlw.go.jp/43/index.php?action_kouhyou_detail_004_kani=true&JigyosyoCd=4312611215-00&ServiceCd=140&Type=search", "url2": "http://vansay.jp/koshi/" }, "geometry": { "type": "Point", "coordinates": [ 130.756831299999931, 32.8981589 ] } },
{ "type": "Feature", "properties": { "内容": "合志第一訪問リハビリテーション【訪問リハビリテーション】熊本県合志市御代志812番地2", "url": "https://www.kaigokensaku.mhlw.go.jp/43/index.php?action_kouhyou_detail_004_kani=true&JigyosyoCd=4311910196-00&ServiceCd=140&Type=search", "url2": "https://vansay.jp/koshi/" }, "geometry": { "type": "Point", "coordinates": [ 130.756246680950966, 32.898352216497486 ] } },
{ "type": "Feature", "properties": { "内容": "くまもと温石病院【訪問リハビリテーション】熊本県下益城郡美里町中小路835", "url": "https://www.kaigokensaku.mhlw.go.jp/43/index.php?action_kouhyou_detail_004_kani=true&JigyosyoCd=4312311220-00&ServiceCd=140&Type=search", "url2": "http://www.onjaku.jp" }, "geometry": { "type": "Point", "coordinates": [ 130.779276500000037, 32.6405328 ] } },
{ "type": "Feature", "properties": { "内容": "有明成仁病院【訪問リハビリテーション】熊本県玉名郡長洲町宮野2775番地", "url": "https://www.kaigokensaku.mhlw.go.jp/43/index.php?action_kouhyou_detail_004_kani=true&JigyosyoCd=4312410873-00&ServiceCd=140&Type=search", "url2": "http://www.ariakeseijin.or.jp" }, "geometry": { "type": "Point", "coordinates": [ 130.493275009123209, 32.951099514726621 ] } },
{ "type": "Feature", "properties": { "内容": "おおつかの郷訪問リハビリテーション【訪問リハビリテーション】熊本県菊池郡大字陣内1165番地", "url": "https://www.kaigokensaku.mhlw.go.jp/43/index.php?action_kouhyou_detail_004_kani=true&JigyosyoCd=4352680039-00&ServiceCd=140&Type=search", "url2": "http://www.tanakakai.com/otsuka/" }, "geometry": { "type": "Point", "coordinates": [ 130.873184, 32.8629719 ] } },
{ "type": "Feature", "properties": { "内容": "阿梨花病院大津訪問リハビリテーション【訪問リハビリテーション】熊本県菊池郡大津町室261-9", "url": "https://www.kaigokensaku.mhlw.go.jp/43/index.php?action_kouhyou_detail_004_kani=true&JigyosyoCd=4312611736-00&ServiceCd=140&Type=search", "url2": "https://www.arihanahospital.jp/" }, "geometry": { "type": "Point", "coordinates": [ 130.867834099999982, 32.8758817 ] } },
{ "type": "Feature", "properties": { "内容": "菊陽台病院訪問リハビリテーション【訪問リハビリテーション】熊本県菊池郡菊陽町久保田2984", "url": "https://www.kaigokensaku.mhlw.go.jp/43/index.php?action_kouhyou_detail_004_kani=true&JigyosyoCd=4312611272-00&ServiceCd=140&Type=search", "url2": "http://www.kikuyoudai-hosupital.com" }, "geometry": { "type": "Point", "coordinates": [ 130.834073, 32.8618431 ] } },
{ "type": "Feature", "properties": { "内容": "熊本セントラル病院訪問リハビリテーション事業所【訪問リハビリテーション】菊池郡菊陽町原水2921番地", "url": "https://www.kaigokensaku.mhlw.go.jp/43/index.php?action_kouhyou_detail_004_kani=true&JigyosyoCd=4312611496-00&ServiceCd=140&Type=search", "url2": "http://www.kchosp.or.jp/" }, "geometry": { "type": "Point", "coordinates": [ 130.849245715580253, 32.873494549719609 ] } },
{ "type": "Feature", "properties": { "内容": "熊本リハビリテーション病院　訪問リハビリテーション【訪問リハビリテーション】熊本県菊池郡菊陽町曲手760", "url": "https://www.kaigokensaku.mhlw.go.jp/43/index.php?action_kouhyou_detail_004_kani=true&JigyosyoCd=4312611140-00&ServiceCd=140&Type=search", "url2": "https://kumareha.net/" }, "geometry": { "type": "Point", "coordinates": [ 130.835323600000038, 32.8402701 ] } },
{ "type": "Feature", "properties": { "内容": "介護老人保健施設　リハセンターひばり【訪問リハビリテーション】熊本県阿蘇郡南阿蘇村吉田2044-2", "url": "https://www.kaigokensaku.mhlw.go.jp/43/index.php?action_kouhyou_detail_004_kani=true&JigyosyoCd=4352780003-00&ServiceCd=140&Type=search", "url2": "http://www.daitokukai.info/hibari/index.html" }, "geometry": { "type": "Point", "coordinates": [ 131.078592100000037, 32.8325254 ] } },
{ "type": "Feature", "properties": { "内容": "阿蘇立野病院【訪問リハビリテーション】熊本県阿蘇郡南阿蘇村立野185－1", "url": "https://www.kaigokensaku.mhlw.go.jp/43/index.php?action_kouhyou_detail_004_kani=true&JigyosyoCd=4312711114-00&ServiceCd=140&Type=search", "url2": "https://asotateno.ecgo.jp/" }, "geometry": { "type": "Point", "coordinates": [ 130.979971299999988, 32.8794784 ] } },
{ "type": "Feature", "properties": { "内容": "熊本回生会病院　訪問リハビリテーション【訪問リハビリテーション】熊本県上益城郡嘉島町大字鯰字皆根1880番地", "url": "https://www.kaigokensaku.mhlw.go.jp/43/index.php?action_kouhyou_detail_004_kani=true&JigyosyoCd=4312810809-00&ServiceCd=140&Type=search", "url2": "http://www.reha-kaiseikai.or.jp" }, "geometry": { "type": "Point", "coordinates": [ 130.737782054315034, 32.749348663953725 ] } },
{ "type": "Feature", "properties": { "内容": "おがた整形外科【訪問リハビリテーション】熊本県上益城郡益城町福富802-2", "url": "https://www.kaigokensaku.mhlw.go.jp/43/index.php?action_kouhyou_detail_004_kani=true&JigyosyoCd=4312811401-00&ServiceCd=140&Type=search", "url2": null }, "geometry": { "type": "Point", "coordinates": [ 130.796629612886022, 32.781528533781021 ] } },
{ "type": "Feature", "properties": { "内容": "指定訪問リハビリテーション事業所　平成唯仁館【訪問リハビリテーション】熊本県上益城郡益城町宮園1139-1", "url": "https://www.kaigokensaku.mhlw.go.jp/43/index.php?action_kouhyou_detail_004_kani=true&JigyosyoCd=4352880043-00&ServiceCd=140&Type=search", "url2": "https://seijin-kumamoto.or.jp" }, "geometry": { "type": "Point", "coordinates": [ 130.8092931, 32.8084191 ] } },
{ "type": "Feature", "properties": { "内容": "介護老人保健施設ケアポート益城【訪問リハビリテーション】熊本県上益城郡益城町安永1014", "url": "https://www.kaigokensaku.mhlw.go.jp/43/index.php?action_kouhyou_detail_004_kani=true&JigyosyoCd=4352880068-00&ServiceCd=140&Type=search", "url2": "https://jikou-kai.com/" }, "geometry": { "type": "Point", "coordinates": [ 130.810835200000014, 32.7916896 ] } },
{ "type": "Feature", "properties": { "内容": "荒瀬病院【訪問リハビリテーション】熊本県上益城郡甲佐町緑町331", "url": "https://www.kaigokensaku.mhlw.go.jp/43/index.php?action_kouhyou_detail_004_kani=true&JigyosyoCd=4312810684-00&ServiceCd=140&Type=search", "url2": "http://www.arase-hp.com/" }, "geometry": { "type": "Point", "coordinates": [ 130.8088242, 32.648994 ] } },
{ "type": "Feature", "properties": { "内容": "谷田病院訪問リハビリテーション【訪問リハビリテーション】熊本県上益城郡甲佐町岩下１２３", "url": "https://www.kaigokensaku.mhlw.go.jp/43/index.php?action_kouhyou_detail_004_kani=true&JigyosyoCd=4312810718-00&ServiceCd=140&Type=search", "url2": "https://www.yatsuda-kai.jp/" }, "geometry": { "type": "Point", "coordinates": [ 130.810163, 32.6509365 ] } },
{ "type": "Feature", "properties": { "内容": "山都町包括医療センターそよう病院【訪問リハビリテーション】熊本県上益城郡山都町滝上４７６番地２", "url": "https://www.kaigokensaku.mhlw.go.jp/43/index.php?action_kouhyou_detail_004_kani=true&JigyosyoCd=4318210053-00&ServiceCd=140&Type=search", "url2": "https://soyo-hospital.jimdo.com" }, "geometry": { "type": "Point", "coordinates": [ 131.149234839811697, 32.683227761596299 ] } },
{ "type": "Feature", "properties": { "内容": "彩雲苑　訪問リハビリテーション【訪問リハビリテーション】熊本県上益城郡山都町北中島2701", "url": "https://www.kaigokensaku.mhlw.go.jp/43/index.php?action_kouhyou_detail_004_kani=true&JigyosyoCd=4352880019-00&ServiceCd=140&Type=search", "url2": "http://saiunen.com/" }, "geometry": { "type": "Point", "coordinates": [ 130.938408, 32.7328352 ] } },
{ "type": "Feature", "properties": { "内容": "八祥苑訪問リハビリステーション【訪問リハビリテーション】熊本県八代郡氷川町早尾132番地", "url": "https://www.kaigokensaku.mhlw.go.jp/43/index.php?action_kouhyou_detail_004_kani=true&JigyosyoCd=4352980017-00&ServiceCd=140&Type=search", "url2": "http://www.8shouen.org/index.html" }, "geometry": { "type": "Point", "coordinates": [ 130.677047370849522, 32.550272702244534 ] } },
{ "type": "Feature", "properties": { "内容": "芦北クリニック訪問リハビリテーション【訪問リハビリテーション】熊本県葦北郡芦北町大字湯浦字生田417番地1", "url": "https://www.kaigokensaku.mhlw.go.jp/43/index.php?action_kouhyou_detail_004_kani=true&JigyosyoCd=4313010565-00&ServiceCd=140&Type=search", "url2": "https://mizobe-hospital.or.jp/" }, "geometry": { "type": "Point", "coordinates": [ 130.503431, 32.269528 ] } },
{ "type": "Feature", "properties": { "内容": "球磨郡公立多良木病院訪問リハビリテーション事業所【訪問リハビリテーション】熊本県球磨郡多良木町多良木4210", "url": "https://www.kaigokensaku.mhlw.go.jp/43/index.php?action_kouhyou_detail_004_kani=true&JigyosyoCd=4318212273-00&ServiceCd=140&Type=search", "url2": "http://www.taragihp.jp/" }, "geometry": { "type": "Point", "coordinates": [ 130.925573799999938, 32.2540896 ] } },
{ "type": "Feature", "properties": { "内容": "東病院　訪問リハビリテーション【訪問リハビリテーション】熊本県球磨郡あさぎり町岡原北944", "url": "https://www.kaigokensaku.mhlw.go.jp/43/index.php?action_kouhyou_detail_004_kani=true&JigyosyoCd=4313110837-00&ServiceCd=140&Type=search", "url2": "http://www.higashi-hp.com/" }, "geometry": { "type": "Point", "coordinates": [ 130.930197635829131, 32.239203694551833 ] } },
{ "type": "Feature", "properties": { "内容": "社会医療法人　稲穂会　天草慈恵病院【訪問リハビリテーション】熊本県天草郡苓北町上津深江278-10", "url": "https://www.kaigokensaku.mhlw.go.jp/43/index.php?action_kouhyou_detail_004_kani=true&JigyosyoCd=4313211809-00&ServiceCd=140&Type=search", "url2": "http://www.inahokai.com/" }, "geometry": { "type": "Point", "coordinates": [ 130.067922599999946, 32.5170923 ] } }
]
}
