{
"type": "FeatureCollection",
"name": "geo_43_通所リハビリテーション",
"crs": { "type": "name", "properties": { "name": "urn:ogc:def:crs:OGC:1.3:CRS84" } },
"features": [
{ "type": "Feature", "properties": { "内容": "せんだメディカルデイケアセンター　ディーバ【通所リハビリテーション】熊本市中央区島崎1丁目33-11", "url": "https://www.kaigokensaku.mhlw.go.jp/43/index.php?action_kouhyou_detail_004_kani=true&JigyosyoCd=4370110191-00&ServiceCd=160&Type=search", "url2": "http://www.ccr-net.com/smc/" }, "geometry": { "type": "Point", "coordinates": [ 130.690534399999933, 32.8023332 ] } },
{ "type": "Feature", "properties": { "内容": "老人保健施設　シルバーピア水前寺【通所リハビリテーション】熊本県熊本市中央区水前寺5丁目2番22号", "url": "https://www.kaigokensaku.mhlw.go.jp/43/index.php?action_kouhyou_detail_004_kani=true&JigyosyoCd=4350180156-00&ServiceCd=160&Type=search", "url2": "http://www.tohya.or.jp" }, "geometry": { "type": "Point", "coordinates": [ 130.736203400000022, 32.7946821 ] } },
{ "type": "Feature", "properties": { "内容": "井上整形外科クリニック【通所リハビリテーション】熊本県熊本市中央区琴平本町3-43", "url": "https://www.kaigokensaku.mhlw.go.jp/43/index.php?action_kouhyou_detail_004_kani=true&JigyosyoCd=4310123973-00&ServiceCd=160&Type=search", "url2": "http://www.inouehp.jp" }, "geometry": { "type": "Point", "coordinates": [ 130.702679, 32.7892323 ] } },
{ "type": "Feature", "properties": { "内容": "リハビリ処　江南の杜【通所リハビリテーション】熊本県熊本市中央区1丁目5-20", "url": "https://www.kaigokensaku.mhlw.go.jp/43/index.php?action_kouhyou_detail_004_kani=true&JigyosyoCd=4310122967-00&ServiceCd=160&Type=search", "url2": "https://kounan-no-mori.com/" }, "geometry": { "type": "Point", "coordinates": [ 130.699461152648183, 32.791076390232483 ] } },
{ "type": "Feature", "properties": { "内容": "通所リハビリテーション赤とんぼ黒髪【通所リハビリテーション】熊本県熊本市中央区黒髪6丁目29-37", "url": "https://www.kaigokensaku.mhlw.go.jp/43/index.php?action_kouhyou_detail_004_kani=true&JigyosyoCd=4310122454-00&ServiceCd=160&Type=search", "url2": "https://www.jinseikai.or.jp/" }, "geometry": { "type": "Point", "coordinates": [ 130.741421600000024, 32.816909800000019 ] } },
{ "type": "Feature", "properties": { "内容": "竹下外科整形外科医院　ASTRA　GYM【通所リハビリテーション】熊本市中央区大江5-4-24", "url": "https://www.kaigokensaku.mhlw.go.jp/43/index.php?action_kouhyou_detail_004_kani=true&JigyosyoCd=4310124252-00&ServiceCd=160&Type=search", "url2": "http://takeshitaort.byoinnavi.jp/pc/index.html" }, "geometry": { "type": "Point", "coordinates": [ 130.721995600000014, 32.7966269 ] } },
{ "type": "Feature", "properties": { "内容": "介護老人保健施設　湧心苑【通所リハビリテーション】熊本市中央区出水４丁目１５番３０号", "url": "https://www.kaigokensaku.mhlw.go.jp/43/index.php?action_kouhyou_detail_004_kani=true&JigyosyoCd=4350180099-00&ServiceCd=160&Type=search", "url2": "https://www.toueikai.or.jp/" }, "geometry": { "type": "Point", "coordinates": [ 130.733551, 32.78095 ] } },
{ "type": "Feature", "properties": { "内容": "通所リハビリテーション　南楓苑【通所リハビリテーション】熊本市中央区南熊本2丁目１１番１号", "url": "https://www.kaigokensaku.mhlw.go.jp/43/index.php?action_kouhyou_detail_004_kani=true&JigyosyoCd=4350180073-00&ServiceCd=160&Type=search", "url2": "https://nanpu-en.jp/" }, "geometry": { "type": "Point", "coordinates": [ 130.711980606745925, 32.788816252739643 ] } },
{ "type": "Feature", "properties": { "内容": "せんだメディカルクリニック【通所リハビリテーション】熊本県熊本市中央区島崎1-32-1", "url": "https://www.kaigokensaku.mhlw.go.jp/43/index.php?action_kouhyou_detail_004_kani=true&JigyosyoCd=4310126646-00&ServiceCd=160&Type=search", "url2": "www.ccr-net.com/" }, "geometry": { "type": "Point", "coordinates": [ 130.691839564418046, 32.802592318038691 ] } },
{ "type": "Feature", "properties": { "内容": "指定通所リハビリテーション事業所くわみず病院【通所リハビリテーション】熊本市中央区神水１丁目１４番４１号", "url": "https://www.kaigokensaku.mhlw.go.jp/43/index.php?action_kouhyou_detail_004_kani=true&JigyosyoCd=4310116274-00&ServiceCd=160&Type=search", "url2": "http://www.kuwamizu.jp/" }, "geometry": { "type": "Point", "coordinates": [ 130.743256, 32.7863134 ] } },
{ "type": "Feature", "properties": { "内容": "フォレスト熊本【通所リハビリテーション】熊本市中央区渡鹿５丁目１番３７号", "url": "https://www.kaigokensaku.mhlw.go.jp/43/index.php?action_kouhyou_detail_004_kani=true&JigyosyoCd=4350180172-00&ServiceCd=160&Type=search", "url2": "http://www.kyouninkai.jp/forest/index.html" }, "geometry": { "type": "Point", "coordinates": [ 130.730467739286809, 32.811382543533995 ] } },
{ "type": "Feature", "properties": { "内容": "介護老人保健施設　なでしこ【通所リハビリテーション】熊本市中央区北千反畑町２－５", "url": "https://www.kaigokensaku.mhlw.go.jp/43/index.php?action_kouhyou_detail_004_kani=true&JigyosyoCd=4350180206-00&ServiceCd=160&Type=search", "url2": "http://www.kiseikai.or.jp" }, "geometry": { "type": "Point", "coordinates": [ 130.715976500000011, 32.8089667 ] } },
{ "type": "Feature", "properties": { "内容": "熊本託麻台リハビリテーション病院【通所リハビリテーション】帯山8丁目2-1", "url": "https://www.kaigokensaku.mhlw.go.jp/43/index.php?action_kouhyou_detail_004_kani=true&JigyosyoCd=4317110130-00&ServiceCd=160&Type=search", "url2": "http://www.horio-kai.or.jp/020takuma/hor020.html" }, "geometry": { "type": "Point", "coordinates": [ 130.759886200000011, 32.8053716 ] } },
{ "type": "Feature", "properties": { "内容": "介護老人保健施設　のぞみ【通所リハビリテーション】熊本県熊本市中央区本荘３丁目７番１８号", "url": "https://www.kaigokensaku.mhlw.go.jp/43/index.php?action_kouhyou_detail_004_kani=true&JigyosyoCd=4350180149-00&ServiceCd=160&Type=search", "url2": "http://sugimurakai.jp/" }, "geometry": { "type": "Point", "coordinates": [ 130.7085968, 32.7947706 ] } },
{ "type": "Feature", "properties": { "内容": "九州記念病院通所リハビリテーション【通所リハビリテーション】熊本市中央区水前寺公園３－３８", "url": "https://www.kaigokensaku.mhlw.go.jp/43/index.php?action_kouhyou_detail_004_kani=true&JigyosyoCd=4310116704-00&ServiceCd=160&Type=search", "url2": "http://kkh.jp" }, "geometry": { "type": "Point", "coordinates": [ 130.731637, 32.7909574 ] } },
{ "type": "Feature", "properties": { "内容": "通所リハビリテーションふるり【通所リハビリテーション】熊本市中央区白山2丁目11番16号", "url": "https://www.kaigokensaku.mhlw.go.jp/43/index.php?action_kouhyou_detail_004_kani=true&JigyosyoCd=4310128667-00&ServiceCd=160&Type=search", "url2": "http://www.maedakai.com" }, "geometry": { "type": "Point", "coordinates": [ 130.722714964418003, 32.79309932287898 ] } },
{ "type": "Feature", "properties": { "内容": "医療法人　熊愛会　熊本脳神経外科病院　通所リハビリテーション【通所リハビリテーション】熊本市中央区本荘6丁目1-21", "url": "https://www.kaigokensaku.mhlw.go.jp/43/index.php?action_kouhyou_detail_004_kani=true&JigyosyoCd=4310128691-00&ServiceCd=160&Type=search", "url2": "http://www.knh.co.jp" }, "geometry": { "type": "Point", "coordinates": [ 130.7084309, 32.7932664 ] } },
{ "type": "Feature", "properties": { "内容": "きぬはら整形外科クリニック　通所リハビリテーション【通所リハビリテーション】熊本県熊本市中央区出水4丁目26-11", "url": "https://www.kaigokensaku.mhlw.go.jp/43/index.php?action_kouhyou_detail_004_kani=true&JigyosyoCd=4310127362-00&ServiceCd=160&Type=search", "url2": null }, "geometry": { "type": "Point", "coordinates": [ 130.732832300000041, 32.7796134 ] } },
{ "type": "Feature", "properties": { "内容": "杏友会　デイケアセンターゆう【通所リハビリテーション】熊本県熊本市中央区黒髪6丁目1-23野津原内科医院", "url": "https://www.kaigokensaku.mhlw.go.jp/43/index.php?action_kouhyou_detail_004_kani=true&JigyosyoCd=4310125150-00&ServiceCd=160&Type=search", "url2": null }, "geometry": { "type": "Point", "coordinates": [ 130.734528299999965, 32.8153302 ] } },
{ "type": "Feature", "properties": { "内容": "メディエイト鶴翔苑【通所リハビリテーション】熊本市東区保田窪本町10番112", "url": "https://www.kaigokensaku.mhlw.go.jp/43/index.php?action_kouhyou_detail_004_kani=true&JigyosyoCd=4350180164-00&ServiceCd=160&Type=search", "url2": "http://www.kakuyuukai.or.jp/" }, "geometry": { "type": "Point", "coordinates": [ 130.747143250926229, 32.808093648615007 ] } },
{ "type": "Feature", "properties": { "内容": "西日本ケアセンター【通所リハビリテーション】熊本市東区八反田3丁目20番1号", "url": "https://www.kaigokensaku.mhlw.go.jp/43/index.php?action_kouhyou_detail_004_kani=true&JigyosyoCd=4310120730-00&ServiceCd=160&Type=search", "url2": "http://www.nishinihon.or.jp" }, "geometry": { "type": "Point", "coordinates": [ 130.770281826319916, 32.821503077823955 ] } },
{ "type": "Feature", "properties": { "内容": "通所リハビリテーション小峯【通所リハビリテーション】熊本市東区小峯２丁目５－３３", "url": "https://www.kaigokensaku.mhlw.go.jp/43/index.php?action_kouhyou_detail_004_kani=true&JigyosyoCd=4310122256-00&ServiceCd=160&Type=search", "url2": null }, "geometry": { "type": "Point", "coordinates": [ 130.776868718359992, 32.805077314624256 ] } },
{ "type": "Feature", "properties": { "内容": "指定通所リハビリテーション事業所　デイケア成仁【通所リハビリテーション】熊本市東区戸島２丁目３番１５号", "url": "https://www.kaigokensaku.mhlw.go.jp/43/index.php?action_kouhyou_detail_004_kani=true&JigyosyoCd=4310118403-00&ServiceCd=160&Type=search", "url2": "https://seijin-kumamoto.or.jp" }, "geometry": { "type": "Point", "coordinates": [ 130.7929249, 32.8167057 ] } },
{ "type": "Feature", "properties": { "内容": "医療法人社団仁風会　比企病院デイケアセンター【通所リハビリテーション】熊本県熊本市東区尾ノ上３－１－３４", "url": "https://www.kaigokensaku.mhlw.go.jp/43/index.php?action_kouhyou_detail_004_kani=true&JigyosyoCd=4310120656-00&ServiceCd=160&Type=search", "url2": null }, "geometry": { "type": "Point", "coordinates": [ 130.754186912303112, 32.795726525068424 ] } },
{ "type": "Feature", "properties": { "内容": "赤とんぼ通所リハビリテーション【通所リハビリテーション】熊本市東区戸島西２丁目３－１０", "url": "https://www.kaigokensaku.mhlw.go.jp/43/index.php?action_kouhyou_detail_004_kani=true&JigyosyoCd=4350180008-00&ServiceCd=160&Type=search", "url2": "http://www.jinseikai.or.jp" }, "geometry": { "type": "Point", "coordinates": [ 130.781067600000029, 32.8112451 ] } },
{ "type": "Feature", "properties": { "内容": "介護老人保健施設　高齢者支援センター　コスモピア熊本【通所リハビリテーション】熊本県熊本市東区尾ノ上1丁目3-12", "url": "https://www.kaigokensaku.mhlw.go.jp/43/index.php?action_kouhyou_detail_004_kani=true&JigyosyoCd=4350180271-00&ServiceCd=160&Type=search", "url2": "https://shinseiki.or.jp" }, "geometry": { "type": "Point", "coordinates": [ 130.750447300000019, 32.7892465 ] } },
{ "type": "Feature", "properties": { "内容": "医療法人　伸生紀　介護老人保健施設　総合ケアセンター　第二コスモピア熊本【通所リハビリテーション】尾ノ上1丁目8-8", "url": "https://www.kaigokensaku.mhlw.go.jp/43/index.php?action_kouhyou_detail_004_kani=true&JigyosyoCd=4350180289-00&ServiceCd=160&Type=search", "url2": "http://shinseiki.or.jp" }, "geometry": { "type": "Point", "coordinates": [ 130.750911200000019, 32.7888187 ] } },
{ "type": "Feature", "properties": { "内容": "Let’sリハ!PLUS熊本東【通所リハビリテーション】熊本県熊本市東区三郎1丁目12番30号", "url": "https://www.kaigokensaku.mhlw.go.jp/43/index.php?action_kouhyou_detail_004_kani=true&JigyosyoCd=4350180297-00&ServiceCd=160&Type=search", "url2": "www.sakurajyuji/or.jp/k-higashi/" }, "geometry": { "type": "Point", "coordinates": [ 130.758480299999974, 32.7994373 ] } },
{ "type": "Feature", "properties": { "内容": "介護医療院心ほか通所リハビリテーション【通所リハビリテーション】熊本県熊本市東区新外3丁目9番1号本庄内科病院内3階", "url": "https://www.kaigokensaku.mhlw.go.jp/43/index.php?action_kouhyou_detail_004_kani=true&JigyosyoCd=43B0100029-00&ServiceCd=160&Type=search", "url2": "http://www.honjyo-hp.jp" }, "geometry": { "type": "Point", "coordinates": [ 130.76319680000006, 32.7979225 ] } },
{ "type": "Feature", "properties": { "内容": "西村内科医院【通所リハビリテーション】熊本県熊本市東区花立１丁目４ー１０", "url": "https://www.kaigokensaku.mhlw.go.jp/43/index.php?action_kouhyou_detail_004_kani=true&JigyosyoCd=4310124898-00&ServiceCd=160&Type=search", "url2": null }, "geometry": { "type": "Point", "coordinates": [ 130.7734544, 32.7781087 ] } },
{ "type": "Feature", "properties": { "内容": "にしだ整形外科【通所リハビリテーション】熊本県熊本市東区下江津3丁目15-5", "url": "https://www.kaigokensaku.mhlw.go.jp/43/index.php?action_kouhyou_detail_004_kani=true&JigyosyoCd=4317210138-00&ServiceCd=160&Type=search", "url2": "http://www.nishida-seikei.jp/" }, "geometry": { "type": "Point", "coordinates": [ 130.741106299999956, 32.7701288 ] } },
{ "type": "Feature", "properties": { "内容": "松原リウマチ科・整形外科【通所リハビリテーション】熊本市東区月出５丁目３番１５号", "url": "https://www.kaigokensaku.mhlw.go.jp/43/index.php?action_kouhyou_detail_004_kani=true&JigyosyoCd=4310125580-00&ServiceCd=160&Type=search", "url2": "http://kmroc.jp/" }, "geometry": { "type": "Point", "coordinates": [ 130.773612700000058, 32.8033541 ] } },
{ "type": "Feature", "properties": { "内容": "足立・有馬小児科神経内科【通所リハビリテーション】熊本市東区長嶺東４丁目２－１", "url": "https://www.kaigokensaku.mhlw.go.jp/43/index.php?action_kouhyou_detail_004_kani=true&JigyosyoCd=4310127263-00&ServiceCd=160&Type=search", "url2": "adachi-arima-clinic.com" }, "geometry": { "type": "Point", "coordinates": [ 130.779348199999959, 32.8179137 ] } },
{ "type": "Feature", "properties": { "内容": "たぐち整形外科クリニック【通所リハビリテーション】熊本県熊本市東区山ノ神2丁目14-91", "url": "https://www.kaigokensaku.mhlw.go.jp/43/index.php?action_kouhyou_detail_004_kani=true&JigyosyoCd=4317210294-00&ServiceCd=160&Type=search", "url2": "http://taguchiseikei.com/" }, "geometry": { "type": "Point", "coordinates": [ 130.780737, 32.7972393 ] } },
{ "type": "Feature", "properties": { "内容": "葵の森デイケアセンター【通所リハビリテーション】熊本県熊本市西区松尾町近津1480番地", "url": "https://www.kaigokensaku.mhlw.go.jp/43/index.php?action_kouhyou_detail_004_kani=true&JigyosyoCd=4350180222-00&ServiceCd=160&Type=search", "url2": "http://www.ryowakai.com" }, "geometry": { "type": "Point", "coordinates": [ 130.605527100000018, 32.8026188 ] } },
{ "type": "Feature", "properties": { "内容": "聖ヶ塔病院【通所リハビリテーション】熊本県熊本市西区河内町船津897番地", "url": "https://www.kaigokensaku.mhlw.go.jp/43/index.php?action_kouhyou_detail_004_kani=true&JigyosyoCd=4310121555-00&ServiceCd=160&Type=search", "url2": "http://www.seigatoh-hp.jp/" }, "geometry": { "type": "Point", "coordinates": [ 130.582307, 32.8358982 ] } },
{ "type": "Feature", "properties": { "内容": "デイケア西部リハビリテーション【通所リハビリテーション】熊本県熊本市西区上代7丁目29番25号", "url": "https://www.kaigokensaku.mhlw.go.jp/43/index.php?action_kouhyou_detail_004_kani=true&JigyosyoCd=4370105555-00&ServiceCd=160&Type=search", "url2": "http://www.i-seibu.jp/" }, "geometry": { "type": "Point", "coordinates": [ 130.662762599999951, 32.7770216 ] } },
{ "type": "Feature", "properties": { "内容": "はるかぜ通所リハビリテーション【通所リハビリテーション】熊本県熊本市春日３丁目２５番１号春日クリニック１Ｆ", "url": "https://www.kaigokensaku.mhlw.go.jp/43/index.php?action_kouhyou_detail_004_kani=true&JigyosyoCd=4370106504-00&ServiceCd=160&Type=search", "url2": "http://www.seisinkai.or.jp" }, "geometry": { "type": "Point", "coordinates": [ 130.68761, 32.78962880000001 ] } },
{ "type": "Feature", "properties": { "内容": "葵の森通所（予防）リハビリテーション事業所【通所リハビリテーション】熊本市西区松尾町近津1480番地", "url": "https://www.kaigokensaku.mhlw.go.jp/43/index.php?action_kouhyou_detail_004_kani=true&JigyosyoCd=4350180313-00&ServiceCd=160&Type=search", "url2": "https://aoinomori-kumamoto.jp/" }, "geometry": { "type": "Point", "coordinates": [ 130.6056053, 32.8025684 ] } },
{ "type": "Feature", "properties": { "内容": "せいじのデイケアセンター【通所リハビリテーション】熊本市西区島崎2丁目22－15", "url": "https://www.kaigokensaku.mhlw.go.jp/43/index.php?action_kouhyou_detail_004_kani=true&JigyosyoCd=4310117108-00&ServiceCd=160&Type=search", "url2": "https://www.seijino.or.jp" }, "geometry": { "type": "Point", "coordinates": [ 130.691387, 32.807905 ] } },
{ "type": "Feature", "properties": { "内容": "社会福祉法人　聖嬰会　イエズスの聖心病院　みこころデイケア【通所リハビリテーション】熊本市西区上熊本2丁目11番24号", "url": "https://www.kaigokensaku.mhlw.go.jp/43/index.php?action_kouhyou_detail_004_kani=true&JigyosyoCd=4310118072-00&ServiceCd=160&Type=search", "url2": "http://www.mikokorohp.com" }, "geometry": { "type": "Point", "coordinates": [ 130.6998946, 32.8129826 ] } },
{ "type": "Feature", "properties": { "内容": "熊本田崎クリニック　通所リハビリテーション【通所リハビリテーション】熊本県熊本市西区田崎2丁目5-30", "url": "https://www.kaigokensaku.mhlw.go.jp/43/index.php?action_kouhyou_detail_004_kani=true&JigyosyoCd=4317310169-00&ServiceCd=160&Type=search", "url2": "https://www.k-heiseikai.com" }, "geometry": { "type": "Point", "coordinates": [ 130.679433199999949, 32.7831516 ] } },
{ "type": "Feature", "properties": { "内容": "介護老人保健施設　青翔苑【通所リハビリテーション】熊本市西区島崎2丁目21-10", "url": "https://www.kaigokensaku.mhlw.go.jp/43/index.php?action_kouhyou_detail_004_kani=true&JigyosyoCd=4350180040-00&ServiceCd=160&Type=search", "url2": "https://www.seijino.or.jp" }, "geometry": { "type": "Point", "coordinates": [ 130.690442699999949, 32.8080688 ] } },
{ "type": "Feature", "properties": { "内容": "介護老人保健施設　なすび園　通所リハビリテーション【通所リハビリテーション】熊本市西区沖新町3353", "url": "https://www.kaigokensaku.mhlw.go.jp/43/index.php?action_kouhyou_detail_004_kani=true&JigyosyoCd=4350180180-00&ServiceCd=160&Type=search", "url2": "http://www.nasubien.or.jp/" }, "geometry": { "type": "Point", "coordinates": [ 130.612374499999987, 32.7565919 ] } },
{ "type": "Feature", "properties": { "内容": "上代成城通所リハビリテーション事業所【通所リハビリテーション】熊本県熊本市西区上代２丁目３番５５号メディケアホームヒルズ成城上代令和館　１F", "url": "https://www.kaigokensaku.mhlw.go.jp/43/index.php?action_kouhyou_detail_004_kani=true&JigyosyoCd=4317310144-00&ServiceCd=160&Type=search", "url2": "http://www.kamidai-seijo.jp/" }, "geometry": { "type": "Point", "coordinates": [ 130.673498983992005, 32.780314506173077 ] } },
{ "type": "Feature", "properties": { "内容": "指定通所リハビリテーション事業所　しらつぼ【通所リハビリテーション】熊本県熊本市西区田崎3丁目１番１７号", "url": "https://www.kaigokensaku.mhlw.go.jp/43/index.php?action_kouhyou_detail_004_kani=true&JigyosyoCd=4310122553-00&ServiceCd=160&Type=search", "url2": "http//y-houjinnkai.or.jp" }, "geometry": { "type": "Point", "coordinates": [ 130.683269, 32.7809768 ] } },
{ "type": "Feature", "properties": { "内容": "通所リハビリテーション「ひまわり」【通所リハビリテーション】熊本県熊本市西区上高橋2丁目１３－６", "url": "https://www.kaigokensaku.mhlw.go.jp/43/index.php?action_kouhyou_detail_004_kani=true&JigyosyoCd=4310118726-00&ServiceCd=160&Type=search", "url2": "suetsugu-naika.ne.jp" }, "geometry": { "type": "Point", "coordinates": [ 130.656399640475428, 32.786122880291956 ] } },
{ "type": "Feature", "properties": { "内容": "デイケア如庵【通所リハビリテーション】熊本県熊本市西区田崎380番地イオンタウン田崎2階イオンタウン", "url": "https://www.kaigokensaku.mhlw.go.jp/43/index.php?action_kouhyou_detail_004_kani=true&JigyosyoCd=4317310052-00&ServiceCd=160&Type=search", "url2": "https://injex.clinic/free/joan" }, "geometry": { "type": "Point", "coordinates": [ 130.678693800000019, 32.7834591 ] } },
{ "type": "Feature", "properties": { "内容": "介護老人保健施設　杏の里【通所リハビリテーション】熊本県熊本市西区池田1丁目14番78号", "url": "https://www.kaigokensaku.mhlw.go.jp/43/index.php?action_kouhyou_detail_004_kani=true&JigyosyoCd=4350180065-00&ServiceCd=160&Type=search", "url2": null }, "geometry": { "type": "Point", "coordinates": [ 130.705759957672171, 32.822141142222918 ] } },
{ "type": "Feature", "properties": { "内容": "ひらやま整形外科クリニック　デイケアao【通所リハビリテーション】熊本県熊本市西区中原町688-10", "url": "https://www.kaigokensaku.mhlw.go.jp/43/index.php?action_kouhyou_detail_004_kani=true&JigyosyoCd=4310128527-00&ServiceCd=160&Type=search", "url2": "http://hirayama-seikei.com" }, "geometry": { "type": "Point", "coordinates": [ 130.636075536918383, 32.769442089182483 ] } },
{ "type": "Feature", "properties": { "内容": "外間整形外科医院　通所リハビリテーション【通所リハビリテーション】熊本県熊本市西区上熊本2丁目13-12", "url": "https://www.kaigokensaku.mhlw.go.jp/43/index.php?action_kouhyou_detail_004_kani=true&JigyosyoCd=4370115562-00&ServiceCd=160&Type=search", "url2": "https://www.tomaseikei.com/" }, "geometry": { "type": "Point", "coordinates": [ 130.6988692, 32.8136967 ] } },
{ "type": "Feature", "properties": { "内容": "けあらんど川尻【通所リハビリテーション】熊本県熊本市南区川尻５丁目１番６２号", "url": "https://www.kaigokensaku.mhlw.go.jp/43/index.php?action_kouhyou_detail_004_kani=true&JigyosyoCd=4310126752-00&ServiceCd=160&Type=search", "url2": "http://www.kawashiri-ozakinaika.or.jp" }, "geometry": { "type": "Point", "coordinates": [ 130.684392399999979, 32.7376418 ] } },
{ "type": "Feature", "properties": { "内容": "あきた病院【通所リハビリテーション】会富町１１２０", "url": "https://www.kaigokensaku.mhlw.go.jp/43/index.php?action_kouhyou_detail_004_kani=true&JigyosyoCd=4310121373-00&ServiceCd=160&Type=search", "url2": "https://www.akita-hospital.or.jp" }, "geometry": { "type": "Point", "coordinates": [ 130.6536484, 32.7526808 ] } },
{ "type": "Feature", "properties": { "内容": "武田整形外科【通所リハビリテーション】田井島３丁目１５－２５", "url": "https://www.kaigokensaku.mhlw.go.jp/43/index.php?action_kouhyou_detail_004_kani=true&JigyosyoCd=4310127487-00&ServiceCd=160&Type=search", "url2": "https://takeda-seikeigeka.com" }, "geometry": { "type": "Point", "coordinates": [ 130.728222100000011, 32.7603686 ] } },
{ "type": "Feature", "properties": { "内容": "みゆき天明デイケアセンター【通所リハビリテーション】奥古閑町1688", "url": "https://www.kaigokensaku.mhlw.go.jp/43/index.php?action_kouhyou_detail_004_kani=true&JigyosyoCd=4317410233-00&ServiceCd=160&Type=search", "url2": "https://miyukinosato.or.jp/" }, "geometry": { "type": "Point", "coordinates": [ 130.6348576, 32.7305388 ] } },
{ "type": "Feature", "properties": { "内容": "くまもと南部広域病院　リハスタジオ　ニナーレ【通所リハビリテーション】熊本県熊本市南区城南町舞原無番地", "url": "https://www.kaigokensaku.mhlw.go.jp/43/index.php?action_kouhyou_detail_004_kani=true&JigyosyoCd=4312310925-00&ServiceCd=160&Type=search", "url2": "https://www.ksr-hospital.jp/facility/introduce-06/" }, "geometry": { "type": "Point", "coordinates": [ 130.746578199999931, 32.7090176 ] } },
{ "type": "Feature", "properties": { "内容": "にしくまもと病院　通所リハビリテーション　れんげ草【通所リハビリテーション】熊本県熊本市南区富合町古閑1012", "url": "https://www.kaigokensaku.mhlw.go.jp/43/index.php?action_kouhyou_detail_004_kani=true&JigyosyoCd=4317410084-00&ServiceCd=160&Type=search", "url2": "http://www.nishikuma.com" }, "geometry": { "type": "Point", "coordinates": [ 130.675915081614676, 32.709812730433306 ] } },
{ "type": "Feature", "properties": { "内容": "介護老人保健施設　田迎ケアセンター【通所リハビリテーション】熊本県熊本市南区出仲間５丁目２－２", "url": "https://www.kaigokensaku.mhlw.go.jp/43/index.php?action_kouhyou_detail_004_kani=true&JigyosyoCd=4350180198-00&ServiceCd=160&Type=search", "url2": "http://www.touyoukai.jp/" }, "geometry": { "type": "Point", "coordinates": [ 130.716857253442384, 32.769842931175432 ] } },
{ "type": "Feature", "properties": { "内容": "医療法人社団大宮会　デイケアおおみや【通所リハビリテーション】熊本県熊本市南区南高江7丁目9－52", "url": "https://www.kaigokensaku.mhlw.go.jp/43/index.php?action_kouhyou_detail_004_kani=true&JigyosyoCd=4310124187-00&ServiceCd=160&Type=search", "url2": "www.daycareomiya.com" }, "geometry": { "type": "Point", "coordinates": [ 130.692013800000041, 32.7451051 ] } },
{ "type": "Feature", "properties": { "内容": "平成とうや病院　通所リハビリテーションセンター【通所リハビリテーション】熊本県熊本市南区出仲間8丁目2番15号", "url": "https://www.kaigokensaku.mhlw.go.jp/43/index.php?action_kouhyou_detail_004_kani=true&JigyosyoCd=4310128915-00&ServiceCd=160&Type=search", "url2": "http://www.tohya.or.jp/heisei/guidereha/daycare.php" }, "geometry": { "type": "Point", "coordinates": [ 130.7188496, 32.7668762 ] } },
{ "type": "Feature", "properties": { "内容": "白藤苑　通所リハビリテーション【通所リハビリテーション】熊本市南区白藤5丁目1番1号", "url": "https://www.kaigokensaku.mhlw.go.jp/43/index.php?action_kouhyou_detail_004_kani=true&JigyosyoCd=4350180123-00&ServiceCd=160&Type=search", "url2": "http://www.matusita-kai.or.jp/" }, "geometry": { "type": "Point", "coordinates": [ 130.674662200000057, 32.7544458 ] } },
{ "type": "Feature", "properties": { "内容": "デイケアセンター　たいのしま【通所リハビリテーション】熊本県熊本市南区田迎町田井島２２４番地熊本第一病院内　１階東側", "url": "https://www.kaigokensaku.mhlw.go.jp/43/index.php?action_kouhyou_detail_004_kani=true&JigyosyoCd=4370103238-00&ServiceCd=160&Type=search", "url2": "http://vansay.jp/kumamoto" }, "geometry": { "type": "Point", "coordinates": [ 130.726354636245787, 32.767744597082114 ] } },
{ "type": "Feature", "properties": { "内容": "Let's　リハ！PLUS　桜十字【通所リハビリテーション】熊本市御幸木部1丁目１番1号", "url": "https://www.kaigokensaku.mhlw.go.jp/43/index.php?action_kouhyou_detail_004_kani=true&JigyosyoCd=4370105597-00&ServiceCd=160&Type=search", "url2": "http://www.sakurajyuji.or.jp" }, "geometry": { "type": "Point", "coordinates": [ 130.713903699526014, 32.750337098169204 ] } },
{ "type": "Feature", "properties": { "内容": "介護老人保健施設ぼたん園　通所リハビリテーション【通所リハビリテーション】熊本県熊本市南区御幸笛田6丁目8番1号介護老人保健施設　ぼたん園", "url": "https://www.kaigokensaku.mhlw.go.jp/43/index.php?action_kouhyou_detail_004_kani=true&JigyosyoCd=4350180107-00&ServiceCd=160&Type=search", "url2": "http://miyukinosato.or.jp" }, "geometry": { "type": "Point", "coordinates": [ 130.7096453, 32.7582156 ] } },
{ "type": "Feature", "properties": { "内容": "有明海通所リハビリテーションセンター【通所リハビリテーション】熊本市南区奥古閑町4375-3", "url": "https://www.kaigokensaku.mhlw.go.jp/43/index.php?action_kouhyou_detail_004_kani=true&JigyosyoCd=4370102180-00&ServiceCd=160&Type=search", "url2": "http://www.juryo.or.jp/" }, "geometry": { "type": "Point", "coordinates": [ 130.621227800000042, 32.7302054 ] } },
{ "type": "Feature", "properties": { "内容": "介護老人保健施設　桔梗苑【通所リハビリテーション】熊本県熊本市南区城南町沈目1481", "url": "https://www.kaigokensaku.mhlw.go.jp/43/index.php?action_kouhyou_detail_004_kani=true&JigyosyoCd=4352380010-00&ServiceCd=160&Type=search", "url2": "http://www.k-group.jp/kikyo/index.html" }, "geometry": { "type": "Point", "coordinates": [ 130.7496784, 32.6979797 ] } },
{ "type": "Feature", "properties": { "内容": "石川整形外科リウマチ科　通所リハビリテーション【通所リハビリテーション】田井島２－３－４７", "url": "https://www.kaigokensaku.mhlw.go.jp/43/index.php?action_kouhyou_detail_004_kani=true&JigyosyoCd=4310120896-00&ServiceCd=160&Type=search", "url2": null }, "geometry": { "type": "Point", "coordinates": [ 130.720072306745919, 32.76608670437917 ] } },
{ "type": "Feature", "properties": { "内容": "デイケア　オリーブ城南【通所リハビリテーション】熊本県熊本市南区城南町さんさん１丁目６－２", "url": "https://www.kaigokensaku.mhlw.go.jp/43/index.php?action_kouhyou_detail_004_kani=true&JigyosyoCd=4317410142-00&ServiceCd=160&Type=search", "url2": "http://www.shimodaclinic.jp/" }, "geometry": { "type": "Point", "coordinates": [ 130.739209, 32.7134977 ] } },
{ "type": "Feature", "properties": { "内容": "介護医療院　ゆずりは【通所リハビリテーション】熊本県熊本市南区城南町高1099番地", "url": "https://www.kaigokensaku.mhlw.go.jp/43/index.php?action_kouhyou_detail_004_kani=true&JigyosyoCd=43B0100045-00&ServiceCd=160&Type=search", "url2": "http://yuzuriha-k.or.jp/" }, "geometry": { "type": "Point", "coordinates": [ 130.7083876, 32.7341937 ] } },
{ "type": "Feature", "properties": { "内容": "小林病院通所リハビリテーション【通所リハビリテーション】熊本県熊本市南区城南町隈庄５７４小林病院", "url": "https://www.kaigokensaku.mhlw.go.jp/43/index.php?action_kouhyou_detail_004_kani=true&JigyosyoCd=4310128188-00&ServiceCd=160&Type=search", "url2": "http://k-group.jp/kobayashihp/" }, "geometry": { "type": "Point", "coordinates": [ 130.7288534, 32.7043594 ] } },
{ "type": "Feature", "properties": { "内容": "菊南病院　通所リハビリテーション【通所リハビリテーション】熊本県熊本市北区鶴羽田三丁目１番５３号", "url": "https://www.kaigokensaku.mhlw.go.jp/43/index.php?action_kouhyou_detail_004_kani=true&JigyosyoCd=4310121472-00&ServiceCd=160&Type=search", "url2": "http://www.kikunan-hospital.com" }, "geometry": { "type": "Point", "coordinates": [ 130.727120099999979, 32.8588041 ] } },
{ "type": "Feature", "properties": { "内容": "デイケア　ほくぶ【通所リハビリテーション】熊本県熊本市北区四方寄町１２８１－３", "url": "https://www.kaigokensaku.mhlw.go.jp/43/index.php?action_kouhyou_detail_004_kani=true&JigyosyoCd=4310121522-00&ServiceCd=160&Type=search", "url2": "http://www1.bbiq.jp/rara/day/index.html" }, "geometry": { "type": "Point", "coordinates": [ 130.708449, 32.864584358733083 ] } },
{ "type": "Feature", "properties": { "内容": "なかがわ整形の通所リハビリテーション【通所リハビリテーション】熊本市北区武蔵ヶ丘２丁目２－２", "url": "https://www.kaigokensaku.mhlw.go.jp/43/index.php?action_kouhyou_detail_004_kani=true&JigyosyoCd=4310125358-00&ServiceCd=160&Type=search", "url2": "http://www.nakagawaseikei.com/rehabiri/" }, "geometry": { "type": "Point", "coordinates": [ 130.764028758860832, 32.851679984879738 ] } },
{ "type": "Feature", "properties": { "内容": "ケアビレッジ箱根崎　通所リハビリテーション【通所リハビリテーション】熊本県熊本市北区植木町正清８８８", "url": "https://www.kaigokensaku.mhlw.go.jp/43/index.php?action_kouhyou_detail_004_kani=true&JigyosyoCd=4352580015-00&ServiceCd=160&Type=search", "url2": "http://www.hakonezaki.or.jp" }, "geometry": { "type": "Point", "coordinates": [ 130.7167495, 32.9681082 ] } },
{ "type": "Feature", "properties": { "内容": "寺尾病院　通所リハビリテーション【通所リハビリテーション】熊本市北区小糸山町759", "url": "https://www.kaigokensaku.mhlw.go.jp/43/index.php?action_kouhyou_detail_004_kani=true&JigyosyoCd=4310121480-00&ServiceCd=160&Type=search", "url2": "http://www.terao.or.jp" }, "geometry": { "type": "Point", "coordinates": [ 130.69350769695896, 32.893265086971887 ] } },
{ "type": "Feature", "properties": { "内容": "北部病院【通所リハビリテーション】熊本県熊本市北区四方寄町1281-3", "url": "https://www.kaigokensaku.mhlw.go.jp/43/index.php?action_kouhyou_detail_004_kani=true&JigyosyoCd=4310125341-00&ServiceCd=160&Type=search", "url2": "https://hkb.or.jp/hkb/" }, "geometry": { "type": "Point", "coordinates": [ 130.7083906, 32.8645549 ] } },
{ "type": "Feature", "properties": { "内容": "通所リハビリテーション　みつぐ苑【通所リハビリテーション】熊本市北区貢町135番地", "url": "https://www.kaigokensaku.mhlw.go.jp/43/index.php?action_kouhyou_detail_004_kani=true&JigyosyoCd=4350180131-00&ServiceCd=160&Type=search", "url2": "http://www.isikai.info" }, "geometry": { "type": "Point", "coordinates": [ 130.702538697413502, 32.842841409510363 ] } },
{ "type": "Feature", "properties": { "内容": "武蔵ヶ丘通所リハビリテーション【通所リハビリテーション】熊本県熊本市北区楠7-15-1", "url": "https://www.kaigokensaku.mhlw.go.jp/43/index.php?action_kouhyou_detail_004_kani=true&JigyosyoCd=4370100846-00&ServiceCd=160&Type=search", "url2": "http://www.tanakakai.com" }, "geometry": { "type": "Point", "coordinates": [ 130.762365700000032, 32.8456609 ] } },
{ "type": "Feature", "properties": { "内容": "通所リハビリテーションセンター清雅苑【通所リハビリテーション】熊本県熊本市北区山室六丁目8番1号", "url": "https://www.kaigokensaku.mhlw.go.jp/43/index.php?action_kouhyou_detail_004_kani=true&JigyosyoCd=4350180016-00&ServiceCd=160&Type=search", "url2": "http://www.juryo.or.jp/" }, "geometry": { "type": "Point", "coordinates": [ 130.719037372491471, 32.846470524269023 ] } },
{ "type": "Feature", "properties": { "内容": "通所リハビリテーション　かなこぎ苑【通所リハビリテーション】熊本県熊本市北区硯川町768-1", "url": "https://www.kaigokensaku.mhlw.go.jp/43/index.php?action_kouhyou_detail_004_kani=true&JigyosyoCd=4350180214-00&ServiceCd=160&Type=search", "url2": "https://ikueikai-2003.com" }, "geometry": { "type": "Point", "coordinates": [ 130.69972729999995, 32.8709662 ] } },
{ "type": "Feature", "properties": { "内容": "成城通所リハビリテーション事業所【通所リハビリテーション】熊本市北区室園町10-17", "url": "https://www.kaigokensaku.mhlw.go.jp/43/index.php?action_kouhyou_detail_004_kani=true&JigyosyoCd=4310118528-00&ServiceCd=160&Type=search", "url2": "http://www.k-seijo.or.jp/" }, "geometry": { "type": "Point", "coordinates": [ 130.7231842, 32.8236739 ] } },
{ "type": "Feature", "properties": { "内容": "デイケアセンター鶴羽田【通所リハビリテーション】熊本県熊本市北区鶴羽田3-14-23", "url": "https://www.kaigokensaku.mhlw.go.jp/43/index.php?action_kouhyou_detail_004_kani=true&JigyosyoCd=4310124518-00&ServiceCd=160&Type=search", "url2": "https://shimoda-naika.com/" }, "geometry": { "type": "Point", "coordinates": [ 130.729104, 32.8595886 ] } },
{ "type": "Feature", "properties": { "内容": "田原坂クリニック　デイケア田原坂【通所リハビリテーション】熊本市北区植木町平原212", "url": "https://www.kaigokensaku.mhlw.go.jp/43/index.php?action_kouhyou_detail_004_kani=true&JigyosyoCd=4312511118-00&ServiceCd=160&Type=search", "url2": "http://www.touyoukai.com/" }, "geometry": { "type": "Point", "coordinates": [ 130.6551888, 32.9213833 ] } },
{ "type": "Feature", "properties": { "内容": "あさはら整形外科通所リハビリテーションセンター【通所リハビリテーション】熊本県熊本市北区室園町10番13号", "url": "https://www.kaigokensaku.mhlw.go.jp/43/index.php?action_kouhyou_detail_004_kani=true&JigyosyoCd=4317510131-00&ServiceCd=160&Type=search", "url2": "https://asahara-seikeigeka.com/" }, "geometry": { "type": "Point", "coordinates": [ 130.7227878, 32.82321 ] } },
{ "type": "Feature", "properties": { "内容": "くすのきクリニック通所リハビリテーション【通所リハビリテーション】熊本県熊本市北区龍田5丁目1－41", "url": "https://www.kaigokensaku.mhlw.go.jp/43/index.php?action_kouhyou_detail_004_kani=true&JigyosyoCd=4370113625-00&ServiceCd=160&Type=search", "url2": "http://www.kusunokiclinic.orjp/" }, "geometry": { "type": "Point", "coordinates": [ 130.754937499999983, 32.8434636 ] } },
{ "type": "Feature", "properties": { "内容": "菊南病院介護医療院通所リハビリテーション【通所リハビリテーション】熊本市北区鶴羽田3丁目1-53", "url": "https://www.kaigokensaku.mhlw.go.jp/43/index.php?action_kouhyou_detail_004_kani=true&JigyosyoCd=43B0100060-00&ServiceCd=160&Type=search", "url2": "http://www.kikunan-hospital.com" }, "geometry": { "type": "Point", "coordinates": [ 130.726866699999988, 32.8588318 ] } },
{ "type": "Feature", "properties": { "内容": "医療法人社団直整会　森田整形外科医院【通所リハビリテーション】熊本県熊本市北区植木町一木５９６", "url": "https://www.kaigokensaku.mhlw.go.jp/43/index.php?action_kouhyou_detail_004_kani=true&JigyosyoCd=4312510961-00&ServiceCd=160&Type=search", "url2": "https://moritaseikei.com" }, "geometry": { "type": "Point", "coordinates": [ 130.689933399999973, 32.9016882 ] } },
{ "type": "Feature", "properties": { "内容": "通所リハビリテーション　ぎんなんの里【通所リハビリテーション】熊本市北区楡木１丁目３番７０号", "url": "https://www.kaigokensaku.mhlw.go.jp/43/index.php?action_kouhyou_detail_004_kani=true&JigyosyoCd=4350180081-00&ServiceCd=160&Type=search", "url2": "uenokai.com/kaigo.html" }, "geometry": { "type": "Point", "coordinates": [ 130.752172100000053, 32.8421445 ] } },
{ "type": "Feature", "properties": { "内容": "八景水谷クリニックデイケア【通所リハビリテーション】熊本県熊本市北区八景水谷１丁目３１番１６号", "url": "https://www.kaigokensaku.mhlw.go.jp/43/index.php?action_kouhyou_detail_004_kani=true&JigyosyoCd=4310121621-00&ServiceCd=160&Type=search", "url2": "http://www.hakemiya.com/" }, "geometry": { "type": "Point", "coordinates": [ 130.724782936840029, 32.850812007889502 ] } },
{ "type": "Feature", "properties": { "内容": "朝日野デイケアセンター【通所リハビリテーション】熊本県熊本市北区室園町１２番１０号", "url": "https://www.kaigokensaku.mhlw.go.jp/43/index.php?action_kouhyou_detail_004_kani=true&JigyosyoCd=4310119872-00&ServiceCd=160&Type=search", "url2": "http://www.asahino.or.jp" }, "geometry": { "type": "Point", "coordinates": [ 130.7246619, 32.823299 ] } },
{ "type": "Feature", "properties": { "内容": "医療法人裕和会　橋本整形外科内科　通所リハビリテーション【通所リハビリテーション】改寄町2380-5", "url": "https://www.kaigokensaku.mhlw.go.jp/43/index.php?action_kouhyou_detail_004_kani=true&JigyosyoCd=4310125754-00&ServiceCd=160&Type=search", "url2": "https://hashimotoseikei.com/" }, "geometry": { "type": "Point", "coordinates": [ 130.6926666, 32.8951709 ] } },
{ "type": "Feature", "properties": { "内容": "通所リハビリテーション　けいじん【通所リハビリテーション】熊本県八代市海士江町２８１７", "url": "https://www.kaigokensaku.mhlw.go.jp/43/index.php?action_kouhyou_detail_004_kani=true&JigyosyoCd=4310211539-00&ServiceCd=160&Type=search", "url2": "http://www.yatsushirokeijin.com/" }, "geometry": { "type": "Point", "coordinates": [ 130.623250752559528, 32.524091184499099 ] } },
{ "type": "Feature", "properties": { "内容": "Let'sリハ！PLUS八代【通所リハビリテーション】熊本県八代市通町8番9号", "url": "https://www.kaigokensaku.mhlw.go.jp/43/index.php?action_kouhyou_detail_004_kani=true&JigyosyoCd=4311710125-00&ServiceCd=160&Type=search", "url2": null }, "geometry": { "type": "Point", "coordinates": [ 130.604140186492657, 32.507882662753183 ] } },
{ "type": "Feature", "properties": { "内容": "通所リハビリテーションセンターあらき【通所リハビリテーション】熊本県八代市萩原町１丁目8-40", "url": "https://www.kaigokensaku.mhlw.go.jp/43/index.php?action_kouhyou_detail_004_kani=true&JigyosyoCd=4311710588-00&ServiceCd=160&Type=search", "url2": "https://araki-cl.jp/" }, "geometry": { "type": "Point", "coordinates": [ 130.624928824830903, 32.502019714431974 ] } },
{ "type": "Feature", "properties": { "内容": "医療法人徳新会　鏡クリニック【通所リハビリテーション】熊本県八代市鏡町下有佐４４９番地", "url": "https://www.kaigokensaku.mhlw.go.jp/43/index.php?action_kouhyou_detail_004_kani=true&JigyosyoCd=4311711636-00&ServiceCd=160&Type=search", "url2": "https://www.kagamicl.com/" }, "geometry": { "type": "Point", "coordinates": [ 130.66676, 32.5644883 ] } },
{ "type": "Feature", "properties": { "内容": "メディカルトレーニングセンターみねとま【通所リハビリテーション】熊本県八代市渡町1717番地", "url": "https://www.kaigokensaku.mhlw.go.jp/43/index.php?action_kouhyou_detail_004_kani=true&JigyosyoCd=4311711735-00&ServiceCd=160&Type=search", "url2": "http://minetoma-hos.jp/" }, "geometry": { "type": "Point", "coordinates": [ 130.6235389, 32.4923511 ] } },
{ "type": "Feature", "properties": { "内容": "介護老人保健施設　向春苑【通所リハビリテーション】八代市大福寺町2411-1", "url": "https://www.kaigokensaku.mhlw.go.jp/43/index.php?action_kouhyou_detail_004_kani=true&JigyosyoCd=4350280022-00&ServiceCd=160&Type=search", "url2": "http://gongen.org/koureisya/sisetu/kousyunnen/index.html" }, "geometry": { "type": "Point", "coordinates": [ 130.591901199999938, 32.4734784 ] } },
{ "type": "Feature", "properties": { "内容": "皇寿園（介護予防）通所リハビリテーション【通所リハビリテーション】熊本県八代市高島町4218番地", "url": "https://www.kaigokensaku.mhlw.go.jp/43/index.php?action_kouhyou_detail_004_kani=true&JigyosyoCd=4350280048-00&ServiceCd=160&Type=search", "url2": "https://www.tagata-group.jp/kohjuen/" }, "geometry": { "type": "Point", "coordinates": [ 130.5825754, 32.5232769 ] } },
{ "type": "Feature", "properties": { "内容": "介護老人保健施設とまと【通所リハビリテーション】熊本県八代市郡築1番町１８０番地1", "url": "https://www.kaigokensaku.mhlw.go.jp/43/index.php?action_kouhyou_detail_004_kani=true&JigyosyoCd=4350280055-00&ServiceCd=160&Type=search", "url2": "http://www.tomato-r.com" }, "geometry": { "type": "Point", "coordinates": [ 130.564660800000041, 32.515294 ] } },
{ "type": "Feature", "properties": { "内容": "介護老人保健施設　かがみ苑【通所リハビリテーション】熊本県八代市鏡町塩浜235番地", "url": "https://www.kaigokensaku.mhlw.go.jp/43/index.php?action_kouhyou_detail_004_kani=true&JigyosyoCd=4352980025-00&ServiceCd=160&Type=search", "url2": "https://www.kagamien-kumamoto.com/" }, "geometry": { "type": "Point", "coordinates": [ 130.617953243305863, 32.561941318363552 ] } },
{ "type": "Feature", "properties": { "内容": "Let’sリハ！PLUS八代北【通所リハビリテーション】熊本県八代市古閑浜町西塩浜３４０１番地", "url": "https://www.kaigokensaku.mhlw.go.jp/43/index.php?action_kouhyou_detail_004_kani=true&JigyosyoCd=4350280030-00&ServiceCd=160&Type=search", "url2": "https://rehareat-yatsushiro.jp/" }, "geometry": { "type": "Point", "coordinates": [ 130.599794250232009, 32.537542376509471 ] } },
{ "type": "Feature", "properties": { "内容": "堤病院　通所リハビリテーション【通所リハビリテーション】熊本県人吉市下林町232", "url": "https://www.kaigokensaku.mhlw.go.jp/43/index.php?action_kouhyou_detail_004_kani=true&JigyosyoCd=4310310505-00&ServiceCd=160&Type=search", "url2": "http://www.tsutsumi-hospital.jp" }, "geometry": { "type": "Point", "coordinates": [ 130.735603500000025, 32.2178835 ] } },
{ "type": "Feature", "properties": { "内容": "万江病院デイケアセンター【通所リハビリテーション】熊本県人吉市瓦屋町字典子1729-1", "url": "https://www.kaigokensaku.mhlw.go.jp/43/index.php?action_kouhyou_detail_004_kani=true&JigyosyoCd=4310310521-00&ServiceCd=160&Type=search", "url2": "http://www.mae-hp.jp/" }, "geometry": { "type": "Point", "coordinates": [ 130.757638911639447, 32.224164067197194 ] } },
{ "type": "Feature", "properties": { "内容": "デイケアセンター平井【通所リハビリテーション】熊本県人吉市下城本町1422-1", "url": "https://www.kaigokensaku.mhlw.go.jp/43/index.php?action_kouhyou_detail_004_kani=true&JigyosyoCd=4310310877-00&ServiceCd=160&Type=search", "url2": "http://hiraior.com/" }, "geometry": { "type": "Point", "coordinates": [ 130.742506300000059, 32.2133517 ] } },
{ "type": "Feature", "properties": { "内容": "介護老人保健施設リバーサイド御薬園通所リハビリテーション【通所リハビリテーション】熊本県人吉市七地町４９５番地", "url": "https://www.kaigokensaku.mhlw.go.jp/43/index.php?action_kouhyou_detail_004_kani=true&JigyosyoCd=4350380012-00&ServiceCd=160&Type=search", "url2": "http://oyakuen-g.or.jp" }, "geometry": { "type": "Point", "coordinates": [ 130.773056200000042, 32.2130432 ] } },
{ "type": "Feature", "properties": { "内容": "介護老人保健施設　タンポポ【通所リハビリテーション】熊本県人吉市下漆田町1538番地", "url": "https://www.kaigokensaku.mhlw.go.jp/43/index.php?action_kouhyou_detail_004_kani=true&JigyosyoCd=4350380020-00&ServiceCd=160&Type=search", "url2": null }, "geometry": { "type": "Point", "coordinates": [ 130.793496299999987, 32.1908215 ] } },
{ "type": "Feature", "properties": { "内容": "デイケアセンター愛生【通所リハビリテーション】熊本県人吉市南泉田町８９番地", "url": "https://www.kaigokensaku.mhlw.go.jp/43/index.php?action_kouhyou_detail_004_kani=true&JigyosyoCd=4370300636-00&ServiceCd=160&Type=search", "url2": "http://www.h-aisei.or.jp/" }, "geometry": { "type": "Point", "coordinates": [ 130.762548700000025, 32.2167897 ] } },
{ "type": "Feature", "properties": { "内容": "医療法人　外山胃腸病院デイケアセンター【通所リハビリテーション】熊本県人吉市鍛冶屋町２９－1", "url": "https://www.kaigokensaku.mhlw.go.jp/43/index.php?action_kouhyou_detail_004_kani=true&JigyosyoCd=4310310927-00&ServiceCd=160&Type=search", "url2": "http://www.gh-toyama.or.jp/" }, "geometry": { "type": "Point", "coordinates": [ 130.760633172352584, 32.217576599985193 ] } },
{ "type": "Feature", "properties": { "内容": "人吉リハビリテーション病院【通所リハビリテーション】熊本県人吉市下新町359番地", "url": "https://www.kaigokensaku.mhlw.go.jp/43/index.php?action_kouhyou_detail_004_kani=true&JigyosyoCd=4310311347-00&ServiceCd=160&Type=search", "url2": "http://www.oyakuen-g.or.jp/dsk/hrh/about.html" }, "geometry": { "type": "Point", "coordinates": [ 130.7690158, 32.2151332 ] } },
{ "type": "Feature", "properties": { "内容": "通所リハビリテーション　メディケア光永【通所リハビリテーション】熊本県人吉市瓦屋町1860－7", "url": "https://www.kaigokensaku.mhlw.go.jp/43/index.php?action_kouhyou_detail_004_kani=true&JigyosyoCd=4370300982-00&ServiceCd=160&Type=search", "url2": null }, "geometry": { "type": "Point", "coordinates": [ 130.761040200000025, 32.225124800000025 ] } },
{ "type": "Feature", "properties": { "内容": "西整形外科医院【通所リハビリテーション】熊本県荒尾市蔵満1859-1", "url": "https://www.kaigokensaku.mhlw.go.jp/43/index.php?action_kouhyou_detail_004_kani=true&JigyosyoCd=4310411428-00&ServiceCd=160&Type=search", "url2": null }, "geometry": { "type": "Point", "coordinates": [ 130.450121399999944, 32.9634381 ] } },
{ "type": "Feature", "properties": { "内容": "荒尾中央病院【通所リハビリテーション】熊本県荒尾市増永１５４４番地１", "url": "https://www.kaigokensaku.mhlw.go.jp/43/index.php?action_kouhyou_detail_004_kani=true&JigyosyoCd=4310410859-00&ServiceCd=160&Type=search", "url2": "http://www.senshinkai.or.jp/chuoh/" }, "geometry": { "type": "Point", "coordinates": [ 130.4408803, 32.9729398 ] } },
{ "type": "Feature", "properties": { "内容": "医療法人藤杏会　伊藤医院【通所リハビリテーション】熊本県荒尾市四ツ山町3丁目5番2号", "url": "https://www.kaigokensaku.mhlw.go.jp/43/index.php?action_kouhyou_detail_004_kani=true&JigyosyoCd=4310411071-00&ServiceCd=160&Type=search", "url2": "http://www.Tokyoukai.or.jp" }, "geometry": { "type": "Point", "coordinates": [ 130.430675, 33.0047029 ] } },
{ "type": "Feature", "properties": { "内容": "ふれあいクリニック【通所リハビリテーション】熊本県荒尾市川登１７６１番地２４", "url": "https://www.kaigokensaku.mhlw.go.jp/43/index.php?action_kouhyou_detail_004_kani=true&JigyosyoCd=4310411196-00&ServiceCd=160&Type=search", "url2": null }, "geometry": { "type": "Point", "coordinates": [ 130.467817200000013, 32.9702266 ] } },
{ "type": "Feature", "properties": { "内容": "デイケアセンター東屋形【通所リハビリテーション】熊本県荒尾市東屋形２丁目１４番地９医療法人　山田クリニック", "url": "https://www.kaigokensaku.mhlw.go.jp/43/index.php?action_kouhyou_detail_004_kani=true&JigyosyoCd=4310411410-00&ServiceCd=160&Type=search", "url2": "http://yamada-clinic.or.jp/" }, "geometry": { "type": "Point", "coordinates": [ 130.4531237, 32.9836416 ] } },
{ "type": "Feature", "properties": { "内容": "医療法人　洗心会　介護老人保健施設　慈眼苑　通所リハビリテーション【通所リハビリテーション】熊本県荒尾市増永７０８番地２", "url": "https://www.kaigokensaku.mhlw.go.jp/43/index.php?action_kouhyou_detail_004_kani=true&JigyosyoCd=4350480010-00&ServiceCd=160&Type=search", "url2": "https://www.senshinkai.or.jp/jigen" }, "geometry": { "type": "Point", "coordinates": [ 130.439644300000026, 32.9726232 ] } },
{ "type": "Feature", "properties": { "内容": "介護老人保健施設　平成ドリーム館【通所リハビリテーション】熊本県荒尾市水野１５５６番地", "url": "https://www.kaigokensaku.mhlw.go.jp/43/index.php?action_kouhyou_detail_004_kani=true&JigyosyoCd=4350480028-00&ServiceCd=160&Type=search", "url2": "http://www.heiseikai.jp/" }, "geometry": { "type": "Point", "coordinates": [ 130.449793600000021, 32.9622716 ] } },
{ "type": "Feature", "properties": { "内容": "デイケアセンター緑ヶ丘【通所リハビリテーション】荒尾4186番地15", "url": "https://www.kaigokensaku.mhlw.go.jp/43/index.php?action_kouhyou_detail_004_kani=true&JigyosyoCd=4370401178-00&ServiceCd=160&Type=search", "url2": "http://careport-midorigaoka.com/" }, "geometry": { "type": "Point", "coordinates": [ 130.4652979, 32.983217 ] } },
{ "type": "Feature", "properties": { "内容": "医療法人吉水会吉田整形外科クリニック【通所リハビリテーション】牛水６７０-６", "url": "https://www.kaigokensaku.mhlw.go.jp/43/index.php?action_kouhyou_detail_004_kani=true&JigyosyoCd=4310411550-00&ServiceCd=160&Type=search", "url2": "http://www.yoshida-seikeigeka.info/" }, "geometry": { "type": "Point", "coordinates": [ 130.436336500000039, 32.9529366 ] } },
{ "type": "Feature", "properties": { "内容": "デイケアセンターさくら【通所リハビリテーション】熊本県荒尾市増永２６２０", "url": "https://www.kaigokensaku.mhlw.go.jp/43/index.php?action_kouhyou_detail_004_kani=true&JigyosyoCd=4370400386-00&ServiceCd=160&Type=search", "url2": "http://www.konoe-net.jp/" }, "geometry": { "type": "Point", "coordinates": [ 130.457501099999945, 32.9717372 ] } },
{ "type": "Feature", "properties": { "内容": "山田クリニック通所リハビリテーション【通所リハビリテーション】熊本県水俣市旭町2丁目2番5号", "url": "https://www.kaigokensaku.mhlw.go.jp/43/index.php?action_kouhyou_detail_004_kani=true&JigyosyoCd=4310510732-00&ServiceCd=160&Type=search", "url2": null }, "geometry": { "type": "Point", "coordinates": [ 130.401929, 32.208994 ] } },
{ "type": "Feature", "properties": { "内容": "渕上クリニック【通所リハビリテーション】熊本県水俣市塩浜町２番４７号", "url": "https://www.kaigokensaku.mhlw.go.jp/43/index.php?action_kouhyou_detail_004_kani=true&JigyosyoCd=4310511003-00&ServiceCd=160&Type=search", "url2": null }, "geometry": { "type": "Point", "coordinates": [ 130.3956574, 32.2126324 ] } },
{ "type": "Feature", "properties": { "内容": "通所リハビリテーション　やすらぎ苑【通所リハビリテーション】熊本県水俣市浜４０５１番地", "url": "https://www.kaigokensaku.mhlw.go.jp/43/index.php?action_kouhyou_detail_004_kani=true&JigyosyoCd=4350580017-00&ServiceCd=160&Type=search", "url2": null }, "geometry": { "type": "Point", "coordinates": [ 130.397676300000057, 32.2238341 ] } },
{ "type": "Feature", "properties": { "内容": "介護老人保健施設　白梅の里【通所リハビリテーション】熊本県水俣市浜4098番地の１８", "url": "https://www.kaigokensaku.mhlw.go.jp/43/index.php?action_kouhyou_detail_004_kani=true&JigyosyoCd=4350580025-00&ServiceCd=160&Type=search", "url2": "http://www.kaigocsc.co.jp/shiraume/" }, "geometry": { "type": "Point", "coordinates": [ 130.414865700000064, 32.2300336 ] } },
{ "type": "Feature", "properties": { "内容": "医療法人　岡部病院　通所リハビリテーション【通所リハビリテーション】熊本県水俣市桜井町3丁目3番3号", "url": "https://www.kaigokensaku.mhlw.go.jp/43/index.php?action_kouhyou_detail_004_kani=true&JigyosyoCd=4310510443-00&ServiceCd=160&Type=search", "url2": "http://www.okabehospital.jp/" }, "geometry": { "type": "Point", "coordinates": [ 130.398273900000049, 32.2075441 ] } },
{ "type": "Feature", "properties": { "内容": "ゆうきの里【通所リハビリテーション】熊本県玉名市上小田1063番地", "url": "https://www.kaigokensaku.mhlw.go.jp/43/index.php?action_kouhyou_detail_004_kani=true&JigyosyoCd=4350680023-00&ServiceCd=160&Type=search", "url2": "http://www.yukikai.or.jp" }, "geometry": { "type": "Point", "coordinates": [ 130.586778216532906, 32.951738878523109 ] } },
{ "type": "Feature", "properties": { "内容": "通所リハビリテーションセンター　幸【通所リハビリテーション】熊本県玉名市岱明町鍋1831", "url": "https://www.kaigokensaku.mhlw.go.jp/43/index.php?action_kouhyou_detail_004_kani=true&JigyosyoCd=4352480000-00&ServiceCd=160&Type=search", "url2": "Googleサイトにて、https://souyukai.or.jp/" }, "geometry": { "type": "Point", "coordinates": [ 130.4890206, 32.9040582 ] } },
{ "type": "Feature", "properties": { "内容": "通所リハビリテーション星雲荘【通所リハビリテーション】熊本県玉名市横島町横島3384番地", "url": "https://www.kaigokensaku.mhlw.go.jp/43/index.php?action_kouhyou_detail_004_kani=true&JigyosyoCd=4352480034-00&ServiceCd=160&Type=search", "url2": "http://seiunsou.net" }, "geometry": { "type": "Point", "coordinates": [ 130.56680259999996, 32.8757888 ] } },
{ "type": "Feature", "properties": { "内容": "通所リハビリテーション事業所　てんすい倶楽部【通所リハビリテーション】玉名市天水町部田見1214-15", "url": "https://www.kaigokensaku.mhlw.go.jp/43/index.php?action_kouhyou_detail_004_kani=true&JigyosyoCd=4352480042-00&ServiceCd=160&Type=search", "url2": "http://www.shunkokai.jp/tensui" }, "geometry": { "type": "Point", "coordinates": [ 130.583653899999945, 32.8742367 ] } },
{ "type": "Feature", "properties": { "内容": "通所リハビリテーション　樹心台【通所リハビリテーション】熊本県玉名市伊倉北方272-3", "url": "https://www.kaigokensaku.mhlw.go.jp/43/index.php?action_kouhyou_detail_004_kani=true&JigyosyoCd=4350680015-00&ServiceCd=160&Type=search", "url2": "https://www.i-shinwa.com/jushindai/" }, "geometry": { "type": "Point", "coordinates": [ 130.562573390737953, 32.912424961956283 ] } },
{ "type": "Feature", "properties": { "内容": "本田医院デイケアリハビリテーション【通所リハビリテーション】熊本県玉名市岱明町大野下７９５－２－１本田医院本田医院デイケアリハビリテーション室", "url": "https://www.kaigokensaku.mhlw.go.jp/43/index.php?action_kouhyou_detail_004_kani=true&JigyosyoCd=4312410972-00&ServiceCd=160&Type=search", "url2": "https://itp.ne.jp/zenkoku/kumamoto/tamanashi/taimeimachionoshimo/434126270500000899" }, "geometry": { "type": "Point", "coordinates": [ 130.501983200000041, 32.9175877 ] } },
{ "type": "Feature", "properties": { "内容": "かもと整形外科医院【通所リハビリテーション】熊本県山鹿市鹿本町来民５６０－２", "url": "https://www.kaigokensaku.mhlw.go.jp/43/index.php?action_kouhyou_detail_004_kani=true&JigyosyoCd=4311310397-00&ServiceCd=160&Type=search", "url2": null }, "geometry": { "type": "Point", "coordinates": [ 130.736519300000026, 33.0025745 ] } },
{ "type": "Feature", "properties": { "内容": "大坂整形外科医院【通所リハビリテーション】熊本県山鹿市熊入町３１５", "url": "https://www.kaigokensaku.mhlw.go.jp/43/index.php?action_kouhyou_detail_004_kani=true&JigyosyoCd=4310810751-00&ServiceCd=160&Type=search", "url2": "http://seiei-kai.com/osaka-seikei/" }, "geometry": { "type": "Point", "coordinates": [ 130.6828477, 33.0289743 ] } },
{ "type": "Feature", "properties": { "内容": "後藤整形外科医院リハビリセンター【通所リハビリテーション】熊本県山鹿市山鹿1326-1", "url": "https://www.kaigokensaku.mhlw.go.jp/43/index.php?action_kouhyou_detail_004_kani=true&JigyosyoCd=4311310140-00&ServiceCd=160&Type=search", "url2": null }, "geometry": { "type": "Point", "coordinates": [ 130.6837467, 33.0192401 ] } },
{ "type": "Feature", "properties": { "内容": "介護老人保健施設　希望の園【通所リハビリテーション】熊本県山鹿市山鹿３６９番地", "url": "https://www.kaigokensaku.mhlw.go.jp/43/index.php?action_kouhyou_detail_004_kani=true&JigyosyoCd=4350880011-00&ServiceCd=160&Type=search", "url2": "https://kibou-sono.com" }, "geometry": { "type": "Point", "coordinates": [ 130.693258799999967, 33.0146309 ] } },
{ "type": "Feature", "properties": { "内容": "介護老人保健施設　山鹿リハビリセンター【通所リハビリテーション】熊本県山鹿市熊入町３１３番地", "url": "https://www.kaigokensaku.mhlw.go.jp/43/index.php?action_kouhyou_detail_004_kani=true&JigyosyoCd=4350880029-00&ServiceCd=160&Type=search", "url2": "https://seiei-kai.com/" }, "geometry": { "type": "Point", "coordinates": [ 130.683363411639448, 33.028805997934086 ] } },
{ "type": "Feature", "properties": { "内容": "太陽通所リハビリテーション【通所リハビリテーション】熊本県山鹿市鹿本町津袋654-1", "url": "https://www.kaigokensaku.mhlw.go.jp/43/index.php?action_kouhyou_detail_004_kani=true&JigyosyoCd=4352580023-00&ServiceCd=160&Type=search", "url2": "http://www.taiyoyamaga.com/" }, "geometry": { "type": "Point", "coordinates": [ 130.745515698147557, 33.015428767503955 ] } },
{ "type": "Feature", "properties": { "内容": "「湯の里」通所リハビリテーションセンター【通所リハビリテーション】熊本県山鹿市新町1204", "url": "https://www.kaigokensaku.mhlw.go.jp/43/index.php?action_kouhyou_detail_004_kani=true&JigyosyoCd=4370800452-00&ServiceCd=160&Type=search", "url2": "http://www.yamaga-reha.jp" }, "geometry": { "type": "Point", "coordinates": [ 130.6818376, 33.0181582 ] } },
{ "type": "Feature", "properties": { "内容": "山鹿中央通所リハビリテーション事業所【通所リハビリテーション】熊本県山鹿市山鹿１０００番地", "url": "https://www.kaigokensaku.mhlw.go.jp/43/index.php?action_kouhyou_detail_004_kani=true&JigyosyoCd=4310810512-00&ServiceCd=160&Type=search", "url2": "http://www.yamagachuohp.jp" }, "geometry": { "type": "Point", "coordinates": [ 130.6906619, 33.0151641 ] } },
{ "type": "Feature", "properties": { "内容": "大橋通【通所リハビリテーション】熊本県山鹿市大橋通705", "url": "https://www.kaigokensaku.mhlw.go.jp/43/index.php?action_kouhyou_detail_004_kani=true&JigyosyoCd=4310811007-00&ServiceCd=160&Type=search", "url2": null }, "geometry": { "type": "Point", "coordinates": [ 130.686057825408966, 33.011945328102776 ] } },
{ "type": "Feature", "properties": { "内容": "菊池郡市医師会デイケアセンター【通所リハビリテーション】熊本県菊池市大琳寺75-1", "url": "https://www.kaigokensaku.mhlw.go.jp/43/index.php?action_kouhyou_detail_004_kani=true&JigyosyoCd=4311610069-00&ServiceCd=160&Type=search", "url2": null }, "geometry": { "type": "Point", "coordinates": [ 130.80152309999994, 32.9745497 ] } },
{ "type": "Feature", "properties": { "内容": "後藤整形外科医院　通所リハビリテーション【通所リハビリテーション】熊本県菊池市隈府923後藤整形外科医院", "url": "https://www.kaigokensaku.mhlw.go.jp/43/index.php?action_kouhyou_detail_004_kani=true&JigyosyoCd=4311610390-00&ServiceCd=160&Type=search", "url2": "https://www.gotoh.or.jp" }, "geometry": { "type": "Point", "coordinates": [ 130.811696799999936, 32.9816995 ] } },
{ "type": "Feature", "properties": { "内容": "介護老人保健施設　孔子の里　通所リハビリテーション【通所リハビリテーション】熊本県菊池市泗水町福本９０４番１", "url": "https://www.kaigokensaku.mhlw.go.jp/43/index.php?action_kouhyou_detail_004_kani=true&JigyosyoCd=4352680054-00&ServiceCd=160&Type=search", "url2": "https://hckousikai.com/" }, "geometry": { "type": "Point", "coordinates": [ 130.775052, 32.9203543 ] } },
{ "type": "Feature", "properties": { "内容": "介護老人保健施設　リハビリセンター　きくちの里【通所リハビリテーション】熊本県菊池市大琳寺１２３番地", "url": "https://www.kaigokensaku.mhlw.go.jp/43/index.php?action_kouhyou_detail_004_kani=true&JigyosyoCd=4351080033-00&ServiceCd=160&Type=search", "url2": null }, "geometry": { "type": "Point", "coordinates": [ 130.8037008, 32.9722833 ] } },
{ "type": "Feature", "properties": { "内容": "介護老人保健施設　　あさひコート【通所リハビリテーション】熊本県宇土市旭町１０６番地", "url": "https://www.kaigokensaku.mhlw.go.jp/43/index.php?action_kouhyou_detail_004_kani=true&JigyosyoCd=4351180015-00&ServiceCd=160&Type=search", "url2": "http://www.kanamori.or.jp" }, "geometry": { "type": "Point", "coordinates": [ 130.665143100000023, 32.687982 ] } },
{ "type": "Feature", "properties": { "内容": "景雅苑通所リハビリテーション【通所リハビリテーション】宇土市上網田町３６７６", "url": "https://www.kaigokensaku.mhlw.go.jp/43/index.php?action_kouhyou_detail_004_kani=true&JigyosyoCd=4351180023-00&ServiceCd=160&Type=search", "url2": "http://www.odakai.com" }, "geometry": { "type": "Point", "coordinates": [ 130.552869699999974, 32.6798616 ] } },
{ "type": "Feature", "properties": { "内容": "介護老人保健施設　あさひコート別館【通所リハビリテーション】熊本県宇土市旭町106番地", "url": "https://www.kaigokensaku.mhlw.go.jp/43/index.php?action_kouhyou_detail_004_kani=true&JigyosyoCd=4351180031-00&ServiceCd=160&Type=search", "url2": "http://www.kanamori.or.jp" }, "geometry": { "type": "Point", "coordinates": [ 130.6657722, 32.6855524 ] } },
{ "type": "Feature", "properties": { "内容": "医療法人　村上会　村上医院【通所リハビリテーション】熊本県上天草市姫戸町姫浦2528－6", "url": "https://www.kaigokensaku.mhlw.go.jp/43/index.php?action_kouhyou_detail_004_kani=true&JigyosyoCd=4311210183-00&ServiceCd=160&Type=search", "url2": null }, "geometry": { "type": "Point", "coordinates": [ 130.408729200000039, 32.439595 ] } },
{ "type": "Feature", "properties": { "内容": "宮﨑外科胃腸科医院【通所リハビリテーション】熊本県上天草市大矢野町上1519番地", "url": "https://www.kaigokensaku.mhlw.go.jp/43/index.php?action_kouhyou_detail_004_kani=true&JigyosyoCd=4313211957-00&ServiceCd=160&Type=search", "url2": null }, "geometry": { "type": "Point", "coordinates": [ 130.4303741, 32.5864277 ] } },
{ "type": "Feature", "properties": { "内容": "介護老人保健施設　きららの里【通所リハビリテーション】熊本県上天草市龍ヶ岳町高戸１４１９－１９", "url": "https://www.kaigokensaku.mhlw.go.jp/43/index.php?action_kouhyou_detail_004_kani=true&JigyosyoCd=4351280005-00&ServiceCd=160&Type=search", "url2": null }, "geometry": { "type": "Point", "coordinates": [ 130.391635400000041, 32.3936494 ] } },
{ "type": "Feature", "properties": { "内容": "ほんごう苑デイケアサービスセンター【通所リハビリテーション】熊本県上天草市大矢野町登立8607", "url": "https://www.kaigokensaku.mhlw.go.jp/43/index.php?action_kouhyou_detail_004_kani=true&JigyosyoCd=4353280060-00&ServiceCd=160&Type=search", "url2": "http://www.kaigo-kumamoto.jp/search/institution.php?id=81" }, "geometry": { "type": "Point", "coordinates": [ 130.433381700000041, 32.5938772 ] } },
{ "type": "Feature", "properties": { "内容": "小川中央クリニック　デイケアセンター【通所リハビリテーション】熊本県宇城市小川町江頭393-1", "url": "https://www.kaigokensaku.mhlw.go.jp/43/index.php?action_kouhyou_detail_004_kani=true&JigyosyoCd=4311410544-00&ServiceCd=160&Type=search", "url2": null }, "geometry": { "type": "Point", "coordinates": [ 130.70060280000007, 32.5982993 ] } },
{ "type": "Feature", "properties": { "内容": "Let‘ｓリハ!PLUS宇城【通所リハビリテーション】熊本県宇城市小川町北新田5桜十字熊本宇城病院", "url": "https://www.kaigokensaku.mhlw.go.jp/43/index.php?action_kouhyou_detail_004_kani=true&JigyosyoCd=4311410627-00&ServiceCd=160&Type=search", "url2": "https://www.sj-yatsushiro-reha.jp/in-home-supportive/" }, "geometry": { "type": "Point", "coordinates": [ 130.704160999946652, 32.598180687731094 ] } },
{ "type": "Feature", "properties": { "内容": "デイケアセンター白寿【通所リハビリテーション】熊本県宇城市豊野町糸石3897番地", "url": "https://www.kaigokensaku.mhlw.go.jp/43/index.php?action_kouhyou_detail_004_kani=true&JigyosyoCd=4312311485-00&ServiceCd=160&Type=search", "url2": null }, "geometry": { "type": "Point", "coordinates": [ 130.748017200000049, 32.6412876 ] } },
{ "type": "Feature", "properties": { "内容": "通所リハビリテーション　ふれあい倶楽部【通所リハビリテーション】宇城市松橋町久具３２３番地の１", "url": "https://www.kaigokensaku.mhlw.go.jp/43/index.php?action_kouhyou_detail_004_kani=true&JigyosyoCd=4312311501-00&ServiceCd=160&Type=search", "url2": "https://www.jinsuikai-hp.jp" }, "geometry": { "type": "Point", "coordinates": [ 130.6863902, 32.6494302 ] } },
{ "type": "Feature", "properties": { "内容": "みずたみ医院　デイケア（福）【通所リハビリテーション】宇城市松橋町竹崎１１１５－３２", "url": "https://www.kaigokensaku.mhlw.go.jp/43/index.php?action_kouhyou_detail_004_kani=true&JigyosyoCd=4312311543-00&ServiceCd=160&Type=search", "url2": null }, "geometry": { "type": "Point", "coordinates": [ 130.709959, 32.6282356 ] } },
{ "type": "Feature", "properties": { "内容": "済生会みすみ病院通所リハビリテーションセンターコンパス【通所リハビリテーション】熊本県宇城市三角町波多775-1社会福祉法人恩賜財団済生会みすみ病院", "url": "https://www.kaigokensaku.mhlw.go.jp/43/index.php?action_kouhyou_detail_004_kani=true&JigyosyoCd=4318212331-00&ServiceCd=160&Type=search", "url2": "http://www.sk-misumi.jp" }, "geometry": { "type": "Point", "coordinates": [ 130.481543453925383, 32.613173179334645 ] } },
{ "type": "Feature", "properties": { "内容": "通所リハビリテーションセンター　松幸【通所リハビリテーション】松橋町西下郷544番地", "url": "https://www.kaigokensaku.mhlw.go.jp/43/index.php?action_kouhyou_detail_004_kani=true&JigyosyoCd=4351380011-00&ServiceCd=160&Type=search", "url2": "https://souyukai.or.jp/" }, "geometry": { "type": "Point", "coordinates": [ 130.6908932, 32.634965 ] } },
{ "type": "Feature", "properties": { "内容": "介護老人保健施設　青海苑【通所リハビリテーション】熊本県宇城市三角町郡浦739番地8", "url": "https://www.kaigokensaku.mhlw.go.jp/43/index.php?action_kouhyou_detail_004_kani=true&JigyosyoCd=4352280012-00&ServiceCd=160&Type=search", "url2": null }, "geometry": { "type": "Point", "coordinates": [ 130.536549700000023, 32.6204276 ] } },
{ "type": "Feature", "properties": { "内容": "大阿蘇病院通所リハビリセンター【通所リハビリテーション】熊本県阿蘇市一の宮町宮地5833番地", "url": "https://www.kaigokensaku.mhlw.go.jp/43/index.php?action_kouhyou_detail_004_kani=true&JigyosyoCd=4312710983-00&ServiceCd=160&Type=search", "url2": "http://www.daitokukai.info/" }, "geometry": { "type": "Point", "coordinates": [ 131.111856499999902, 32.9333076 ] } },
{ "type": "Feature", "properties": { "内容": "介護老人保健施設　阿蘇グリーンヒル【通所リハビリテーション】熊本県阿蘇市一の宮町宮地１２１番地阿蘇グリーンヒル", "url": "https://www.kaigokensaku.mhlw.go.jp/43/index.php?action_kouhyou_detail_004_kani=true&JigyosyoCd=4352780011-00&ServiceCd=160&Type=search", "url2": "http://www.yamanami.ne.jp/greenhill.html" }, "geometry": { "type": "Point", "coordinates": [ 131.117819907409654, 32.952058792889922 ] } },
{ "type": "Feature", "properties": { "内容": "介護老人保健施設　愛・ライフ内牧　通所リハビリテーション【通所リハビリテーション】熊本県阿蘇市内牧1105-1", "url": "https://www.kaigokensaku.mhlw.go.jp/43/index.php?action_kouhyou_detail_004_kani=true&JigyosyoCd=4352780029-00&ServiceCd=160&Type=search", "url2": "http://www.asospahp.jp" }, "geometry": { "type": "Point", "coordinates": [ 131.045039500000058, 32.971701 ] } },
{ "type": "Feature", "properties": { "内容": "ケアセンターあそ【通所リハビリテーション】熊本市阿蘇市黒川1484番地", "url": "https://www.kaigokensaku.mhlw.go.jp/43/index.php?action_kouhyou_detail_004_kani=true&JigyosyoCd=4312711254-00&ServiceCd=160&Type=search", "url2": "http://www.myclinic.ne.jp/ichihara/pc/index.html" }, "geometry": { "type": "Point", "coordinates": [ 131.0793059, 32.9346374 ] } },
{ "type": "Feature", "properties": { "内容": "通所リハビリテーション事業所　千寿【通所リハビリテーション】熊本県天草市御所浦町御所浦3100-6", "url": "https://www.kaigokensaku.mhlw.go.jp/43/index.php?action_kouhyou_detail_004_kani=true&JigyosyoCd=4313212369-00&ServiceCd=160&Type=search", "url2": null }, "geometry": { "type": "Point", "coordinates": [ 130.345825689549201, 32.349528757702231 ] } },
{ "type": "Feature", "properties": { "内容": "デイケアセンターゆーとぴあ【通所リハビリテーション】熊本県天草市牛深町１５２２－４６", "url": "https://www.kaigokensaku.mhlw.go.jp/43/index.php?action_kouhyou_detail_004_kani=true&JigyosyoCd=4310910379-00&ServiceCd=160&Type=search", "url2": null }, "geometry": { "type": "Point", "coordinates": [ 130.030345500000067, 32.2005357 ] } },
{ "type": "Feature", "properties": { "内容": "デイケアセンターまつもと【通所リハビリテーション】熊本県天草市河浦町河浦3111番地5", "url": "https://www.kaigokensaku.mhlw.go.jp/43/index.php?action_kouhyou_detail_004_kani=true&JigyosyoCd=4312010764-00&ServiceCd=160&Type=search", "url2": "https://matsumotoiin.webnet.jp/" }, "geometry": { "type": "Point", "coordinates": [ 130.079137575532542, 32.338727758196022 ] } },
{ "type": "Feature", "properties": { "内容": "天草厚生病院デイケアセンター【通所リハビリテーション】熊本県天草市有明町小島子1360番地", "url": "https://www.kaigokensaku.mhlw.go.jp/43/index.php?action_kouhyou_detail_004_kani=true&JigyosyoCd=4313212351-00&ServiceCd=160&Type=search", "url2": "http://www.amakusa-kosei.jp" }, "geometry": { "type": "Point", "coordinates": [ 130.273986199999968, 32.4829077 ] } },
{ "type": "Feature", "properties": { "内容": "国民健康保険天草市立新和病院【通所リハビリテーション】熊本県天草市新和町小宮地７６３番地３", "url": "https://www.kaigokensaku.mhlw.go.jp/43/index.php?action_kouhyou_detail_004_kani=true&JigyosyoCd=4318211770-00&ServiceCd=160&Type=search", "url2": "http://www.city.amakusa.kumamoto.jp/amakusahp/shinwa/index.html" }, "geometry": { "type": "Point", "coordinates": [ 130.1860223, 32.3707258 ] } },
{ "type": "Feature", "properties": { "内容": "介護老人保健施設　本渡ケア・ホーム【通所リハビリテーション】熊本県天草市下浦町2090-1", "url": "https://www.kaigokensaku.mhlw.go.jp/43/index.php?action_kouhyou_detail_004_kani=true&JigyosyoCd=4350780013-00&ServiceCd=160&Type=search", "url2": null }, "geometry": { "type": "Point", "coordinates": [ 130.2222898, 32.4245016 ] } },
{ "type": "Feature", "properties": { "内容": "独立行政法人地域医療機能推進機構天草中央総合病院附属介護老人保健施設【通所リハビリテーション】熊本県天草市東町１０１", "url": "https://www.kaigokensaku.mhlw.go.jp/43/index.php?action_kouhyou_detail_004_kani=true&JigyosyoCd=4350780021-00&ServiceCd=160&Type=search", "url2": "http://amakusa.jcho.go.jp/rouken/" }, "geometry": { "type": "Point", "coordinates": [ 130.200243600000022, 32.4493272 ] } },
{ "type": "Feature", "properties": { "内容": "介護老人保健施設ブルーマリン天草　通所リハビリテーション【通所リハビリテーション】熊本県天草市五和町御領９１３３番地", "url": "https://www.kaigokensaku.mhlw.go.jp/43/index.php?action_kouhyou_detail_004_kani=true&JigyosyoCd=4353280045-00&ServiceCd=160&Type=search", "url2": "https://www.bluemarine-amakusa.jp" }, "geometry": { "type": "Point", "coordinates": [ 130.1930542, 32.53102 ] } },
{ "type": "Feature", "properties": { "内容": "ケアセンター海ん里【通所リハビリテーション】熊本県天草市久玉町５７１６－６", "url": "https://www.kaigokensaku.mhlw.go.jp/43/index.php?action_kouhyou_detail_004_kani=true&JigyosyoCd=4370900336-00&ServiceCd=160&Type=search", "url2": "http://www.matsumotonaikaganka.jp/wmisato" }, "geometry": { "type": "Point", "coordinates": [ 130.027853400000026, 32.2136844 ] } },
{ "type": "Feature", "properties": { "内容": "通所リハビリテーション　夢織りの里　天草【通所リハビリテーション】熊本県天草市楠浦町字掛場　５９番５", "url": "https://www.kaigokensaku.mhlw.go.jp/43/index.php?action_kouhyou_detail_004_kani=true&JigyosyoCd=4351580016-00&ServiceCd=160&Type=search", "url2": "http://www.kunpukai.or.jp/" }, "geometry": { "type": "Point", "coordinates": [ 130.215357199999971, 32.4228962 ] } },
{ "type": "Feature", "properties": { "内容": "介護老人保健施設　ケアセンター鶴丸【通所リハビリテーション】熊本県天草市久玉町62番地1", "url": "https://www.kaigokensaku.mhlw.go.jp/43/index.php?action_kouhyou_detail_004_kani=true&JigyosyoCd=4350980019-00&ServiceCd=160&Type=search", "url2": null }, "geometry": { "type": "Point", "coordinates": [ 130.028586899999937, 32.2070128 ] } },
{ "type": "Feature", "properties": { "内容": "永寿会　通所リハビリテーション　はるかぜ【通所リハビリテーション】熊本県天草市今釜町3411番地の1", "url": "https://www.kaigokensaku.mhlw.go.jp/43/index.php?action_kouhyou_detail_004_kani=true&JigyosyoCd=4310711173-00&ServiceCd=160&Type=search", "url2": "http://www.eijukai.or.jp" }, "geometry": { "type": "Point", "coordinates": [ 130.1929629, 32.4614817 ] } },
{ "type": "Feature", "properties": { "内容": "通所リハビリテーションセンター「槇の木」【通所リハビリテーション】港町16-11", "url": "https://www.kaigokensaku.mhlw.go.jp/43/index.php?action_kouhyou_detail_004_kani=true&JigyosyoCd=4312010186-00&ServiceCd=160&Type=search", "url2": "https://www.reijinkai.com" }, "geometry": { "type": "Point", "coordinates": [ 130.195946567459174, 32.455344598265569 ] } },
{ "type": "Feature", "properties": { "内容": "介護老人保健施設ケーナ・ガーデン　通所リハビリテーション【通所リハビリテーション】熊本県天草市河浦町河浦4778番地3", "url": "https://www.kaigokensaku.mhlw.go.jp/43/index.php?action_kouhyou_detail_004_kani=true&JigyosyoCd=4353280003-00&ServiceCd=160&Type=search", "url2": null }, "geometry": { "type": "Point", "coordinates": [ 130.074907100000019, 32.3274193 ] } },
{ "type": "Feature", "properties": { "内容": "ナカシマセブンクリニック　通所リハビリテーション　ななつ【通所リハビリテーション】熊本県合志市須屋1415-1", "url": "https://www.kaigokensaku.mhlw.go.jp/43/index.php?action_kouhyou_detail_004_kani=true&JigyosyoCd=4311910352-00&ServiceCd=160&Type=search", "url2": "www.riha-nanatsu.com/" }, "geometry": { "type": "Point", "coordinates": [ 130.741418558335909, 32.85690847495389 ] } },
{ "type": "Feature", "properties": { "内容": "リハビリケアセンターひかりが丘【通所リハビリテーション】熊本県合志市幾久富１９０９－１３７９", "url": "https://www.kaigokensaku.mhlw.go.jp/43/index.php?action_kouhyou_detail_004_kani=true&JigyosyoCd=4312612270-00&ServiceCd=160&Type=search", "url2": "http://www1.bbiq.jp/hikarigaoka/" }, "geometry": { "type": "Point", "coordinates": [ 130.773725300000024, 32.8635509 ] } },
{ "type": "Feature", "properties": { "内容": "通所リハビリテーション　有隣【通所リハビリテーション】熊本県合志市野々島東原4414-17", "url": "https://www.kaigokensaku.mhlw.go.jp/43/index.php?action_kouhyou_detail_004_kani=true&JigyosyoCd=4351680014-00&ServiceCd=160&Type=search", "url2": "http://yurin-kaigo.com" }, "geometry": { "type": "Point", "coordinates": [ 130.789707, 32.8859878 ] } },
{ "type": "Feature", "properties": { "内容": "桜の里　指定通所リハビリテーション事業所【通所リハビリテーション】熊本県合志市須屋702", "url": "https://www.kaigokensaku.mhlw.go.jp/43/index.php?action_kouhyou_detail_004_kani=true&JigyosyoCd=4352680021-00&ServiceCd=160&Type=search", "url2": "http://www.nakayamakai.jp/index.html" }, "geometry": { "type": "Point", "coordinates": [ 130.73022549999996, 32.8590124 ] } },
{ "type": "Feature", "properties": { "内容": "合志デイケアひまわり【通所リハビリテーション】熊本県合志市御代志８１２－２", "url": "https://www.kaigokensaku.mhlw.go.jp/43/index.php?action_kouhyou_detail_004_kani=true&JigyosyoCd=4372600652-00&ServiceCd=160&Type=search", "url2": "http://vansay.jp/koshi/" }, "geometry": { "type": "Point", "coordinates": [ 130.756815206745841, 32.897965220668851 ] } },
{ "type": "Feature", "properties": { "内容": "美里リハビリテーションクリニック　通所リハビリテーションセンター【通所リハビリテーション】熊本県下益城郡美里町洞岳1308番地", "url": "https://www.kaigokensaku.mhlw.go.jp/43/index.php?action_kouhyou_detail_004_kani=true&JigyosyoCd=4312311816-00&ServiceCd=160&Type=search", "url2": "http://www.reimeikai.jp/tomochi/care_medical_center.php" }, "geometry": { "type": "Point", "coordinates": [ 130.922463693254088, 32.635659827724126 ] } },
{ "type": "Feature", "properties": { "内容": "通所リハビリテーションおんじゃく【通所リハビリテーション】熊本県下益城郡美里町中小路904", "url": "https://www.kaigokensaku.mhlw.go.jp/43/index.php?action_kouhyou_detail_004_kani=true&JigyosyoCd=4372300618-00&ServiceCd=160&Type=search", "url2": "http://www.onjaku.jp" }, "geometry": { "type": "Point", "coordinates": [ 130.779973555650372, 32.640110048623484 ] } },
{ "type": "Feature", "properties": { "内容": "介護老人保健施設　なごみの里【通所リハビリテーション】熊本県下益城郡美里町堅志田192-1", "url": "https://www.kaigokensaku.mhlw.go.jp/43/index.php?action_kouhyou_detail_004_kani=true&JigyosyoCd=4352380002-00&ServiceCd=160&Type=search", "url2": "http://www.ko-wakai.jp" }, "geometry": { "type": "Point", "coordinates": [ 130.790556, 32.6470131 ] } },
{ "type": "Feature", "properties": { "内容": "さかき診療所【通所リハビリテーション】熊本県玉名郡南関町上長田638-1", "url": "https://www.kaigokensaku.mhlw.go.jp/43/index.php?action_kouhyou_detail_004_kani=true&JigyosyoCd=4312411061-00&ServiceCd=160&Type=search", "url2": "https://sakaki-s.com/" }, "geometry": { "type": "Point", "coordinates": [ 130.5316471018524, 33.02743743355866 ] } },
{ "type": "Feature", "properties": { "内容": "コスモス通所リハビリテーション【通所リハビリテーション】熊本県玉名郡長洲町宮野2775番地", "url": "https://www.kaigokensaku.mhlw.go.jp/43/index.php?action_kouhyou_detail_004_kani=true&JigyosyoCd=4312410873-00&ServiceCd=160&Type=search", "url2": "http://www.ariakeseijin.or.jp" }, "geometry": { "type": "Point", "coordinates": [ 130.493886552778605, 32.950901449760515 ] } },
{ "type": "Feature", "properties": { "内容": "介護老人保健施設　聖ルカ苑【通所リハビリテーション】熊本県玉名郡長洲町宮野2772番地10", "url": "https://www.kaigokensaku.mhlw.go.jp/43/index.php?action_kouhyou_detail_004_kani=true&JigyosyoCd=4352480018-00&ServiceCd=160&Type=search", "url2": "http://seiruka.net/" }, "geometry": { "type": "Point", "coordinates": [ 130.493801699999949, 32.9516211 ] } },
{ "type": "Feature", "properties": { "内容": "清風苑リハビリセンター【通所リハビリテーション】熊本県玉名郡和水町上板楠1697番地1", "url": "https://www.kaigokensaku.mhlw.go.jp/43/index.php?action_kouhyou_detail_004_kani=true&JigyosyoCd=4352480026-00&ServiceCd=160&Type=search", "url2": "https://seifureha01.wixsite.com/my-site" }, "geometry": { "type": "Point", "coordinates": [ 130.614759899999967, 33.0706134 ] } },
{ "type": "Feature", "properties": { "内容": "通所リハビリテーションセンターおおづ【通所リハビリテーション】熊本県菊池郡大津町室２６１－９", "url": "https://www.kaigokensaku.mhlw.go.jp/43/index.php?action_kouhyou_detail_004_kani=true&JigyosyoCd=4312611736-00&ServiceCd=160&Type=search", "url2": "https://www.arihanahospital.jp" }, "geometry": { "type": "Point", "coordinates": [ 130.867834099999982, 32.8758817 ] } },
{ "type": "Feature", "properties": { "内容": "介護老人保健施設　おおつかの郷【通所リハビリテーション】熊本県菊池郡大津町陣内1165", "url": "https://www.kaigokensaku.mhlw.go.jp/43/index.php?action_kouhyou_detail_004_kani=true&JigyosyoCd=4352680039-00&ServiceCd=160&Type=search", "url2": "http://www.tanakakai.com/otsuka/" }, "geometry": { "type": "Point", "coordinates": [ 130.873184, 32.8629719 ] } },
{ "type": "Feature", "properties": { "内容": "光進会クリニック通所リハビリテーション【通所リハビリテーション】熊本県菊池郡大津町室1724-1", "url": "https://www.kaigokensaku.mhlw.go.jp/43/index.php?action_kouhyou_detail_004_kani=true&JigyosyoCd=4312612833-00&ServiceCd=160&Type=search", "url2": "https://koshin-kai.jp/clinic/" }, "geometry": { "type": "Point", "coordinates": [ 130.855015399999957, 32.8868692 ] } },
{ "type": "Feature", "properties": { "内容": "通所リハビリテーション　熊リハ病院【通所リハビリテーション】熊本県菊池郡菊陽町曲手760", "url": "https://www.kaigokensaku.mhlw.go.jp/43/index.php?action_kouhyou_detail_004_kani=true&JigyosyoCd=4312611140-00&ServiceCd=160&Type=search", "url2": "https://kumareha.net" }, "geometry": { "type": "Point", "coordinates": [ 130.835323600000038, 32.8402701 ] } },
{ "type": "Feature", "properties": { "内容": "菊陽台病院　通所リハビリテーション【通所リハビリテーション】熊本県菊池郡菊陽町久保田2680", "url": "https://www.kaigokensaku.mhlw.go.jp/43/index.php?action_kouhyou_detail_004_kani=true&JigyosyoCd=4312611272-00&ServiceCd=160&Type=search", "url2": "http://www.kikuyodai-hospital.com" }, "geometry": { "type": "Point", "coordinates": [ 130.833211900000038, 32.8621097 ] } },
{ "type": "Feature", "properties": { "内容": "熊本セントラル病院通所リハビリテーション事業所【通所リハビリテーション】熊本県菊池郡菊陽町2921番地", "url": "https://www.kaigokensaku.mhlw.go.jp/43/index.php?action_kouhyou_detail_004_kani=true&JigyosyoCd=4312611496-00&ServiceCd=160&Type=search", "url2": "https://kchosp.or.jp/kyotaku/tsuusyo/" }, "geometry": { "type": "Point", "coordinates": [ 130.849525596439236, 32.87353852855594 ] } },
{ "type": "Feature", "properties": { "内容": "赤とんぼ大津【通所リハビリテーション】熊本県菊池郡菊陽町原水2973", "url": "https://www.kaigokensaku.mhlw.go.jp/43/index.php?action_kouhyou_detail_004_kani=true&JigyosyoCd=4312611843-00&ServiceCd=160&Type=search", "url2": "https://www.jinseikai.or.jp/" }, "geometry": { "type": "Point", "coordinates": [ 130.852615500000013, 32.8768863 ] } },
{ "type": "Feature", "properties": { "内容": "つくれデイケアセンター【通所リハビリテーション】熊本県菊池郡菊陽町津久礼2528-5", "url": "https://www.kaigokensaku.mhlw.go.jp/43/index.php?action_kouhyou_detail_004_kani=true&JigyosyoCd=4312612718-00&ServiceCd=160&Type=search", "url2": null }, "geometry": { "type": "Point", "coordinates": [ 130.807064, 32.8608484 ] } },
{ "type": "Feature", "properties": { "内容": "介護老人保健施設サンライズヒル【通所リハビリテーション】熊本県菊池郡菊陽町曲手７６０", "url": "https://www.kaigokensaku.mhlw.go.jp/43/index.php?action_kouhyou_detail_004_kani=true&JigyosyoCd=4352680013-00&ServiceCd=160&Type=search", "url2": "https://kumareha.net/sunrisehill/" }, "geometry": { "type": "Point", "coordinates": [ 130.834626225656166, 32.839873473689551 ] } },
{ "type": "Feature", "properties": { "内容": "東熊本第二病院通所リハビリセンター【通所リハビリテーション】熊本県菊池郡菊陽町辛川1923-1", "url": "https://www.kaigokensaku.mhlw.go.jp/43/index.php?action_kouhyou_detail_004_kani=true&JigyosyoCd=4372601056-00&ServiceCd=160&Type=search", "url2": "http://www.higashikumamoto.or.jp/" }, "geometry": { "type": "Point", "coordinates": [ 130.805350699999963, 32.8472024 ] } },
{ "type": "Feature", "properties": { "内容": "小国郷公立病院組合　おぐに老人保健施設【通所リハビリテーション】熊本県阿蘇郡小国町宮原１７４２番地の１", "url": "https://www.kaigokensaku.mhlw.go.jp/43/index.php?action_kouhyou_detail_004_kani=true&JigyosyoCd=4352780037-00&ServiceCd=160&Type=search", "url2": "http://www.ogunihp.or.jp" }, "geometry": { "type": "Point", "coordinates": [ 131.065161, 33.1214594 ] } },
{ "type": "Feature", "properties": { "内容": "介護老人保健施設　リハセンターひばり　デイケアセンター【通所リハビリテーション】熊本県阿蘇郡南阿蘇村吉田2044-2", "url": "https://www.kaigokensaku.mhlw.go.jp/43/index.php?action_kouhyou_detail_004_kani=true&JigyosyoCd=4352780003-00&ServiceCd=160&Type=search", "url2": "http://www.daitokukai.info/hibari/index.html" }, "geometry": { "type": "Point", "coordinates": [ 131.078592100000037, 32.8325254 ] } },
{ "type": "Feature", "properties": { "内容": "通所リハビリテーションセンター『すがる』【通所リハビリテーション】熊本県阿蘇郡南阿蘇村立野185-1", "url": "https://www.kaigokensaku.mhlw.go.jp/43/index.php?action_kouhyou_detail_004_kani=true&JigyosyoCd=4312711114-00&ServiceCd=160&Type=search", "url2": "http://www.asotateno.ecgo.jp" }, "geometry": { "type": "Point", "coordinates": [ 130.979971299999988, 32.8794784 ] } },
{ "type": "Feature", "properties": { "内容": "小糸整形外科【通所リハビリテーション】熊本県上益城郡御船町木倉1182", "url": "https://www.kaigokensaku.mhlw.go.jp/43/index.php?action_kouhyou_detail_004_kani=true&JigyosyoCd=4312811260-00&ServiceCd=160&Type=search", "url2": "koitoseikeigeka@gmail.com" }, "geometry": { "type": "Point", "coordinates": [ 130.800672100000014, 32.716721 ] } },
{ "type": "Feature", "properties": { "内容": "医療法人啓成会　通所リハビリテーションセンター　フットワン【通所リハビリテーション】御船948-7通所リハビリテーションセンター　フットワン", "url": "https://www.kaigokensaku.mhlw.go.jp/43/index.php?action_kouhyou_detail_004_kani=true&JigyosyoCd=4312811153-00&ServiceCd=160&Type=search", "url2": null }, "geometry": { "type": "Point", "coordinates": [ 130.798802648031, 32.712867245879664 ] } },
{ "type": "Feature", "properties": { "内容": "介護老人保健施設　御船清流園【通所リハビリテーション】熊本県上益城郡御船町御船１０６２番地１", "url": "https://www.kaigokensaku.mhlw.go.jp/43/index.php?action_kouhyou_detail_004_kani=true&JigyosyoCd=4352880035-00&ServiceCd=160&Type=search", "url2": null }, "geometry": { "type": "Point", "coordinates": [ 130.801174899999978, 32.7113464 ] } },
{ "type": "Feature", "properties": { "内容": "介護老人保健施設平成唯仁館【通所リハビリテーション】熊本県上益城郡益城町宮園１１３９－１", "url": "https://www.kaigokensaku.mhlw.go.jp/43/index.php?action_kouhyou_detail_004_kani=true&JigyosyoCd=4352880043-00&ServiceCd=160&Type=search", "url2": "https://seijin-kumamoto.or.jp/heisei-ijikan/" }, "geometry": { "type": "Point", "coordinates": [ 130.810312665576106, 32.808210060876391 ] } },
{ "type": "Feature", "properties": { "内容": "介護老人保健施設ケアポート益城【通所リハビリテーション】熊本県上益城郡益城町安永1014介護老人保健施設ケアポート益城", "url": "https://www.kaigokensaku.mhlw.go.jp/43/index.php?action_kouhyou_detail_004_kani=true&JigyosyoCd=4352880068-00&ServiceCd=160&Type=search", "url2": "http://www.jikou-kai.com/" }, "geometry": { "type": "Point", "coordinates": [ 130.808582144427504, 32.796686065504232 ] } },
{ "type": "Feature", "properties": { "内容": "介護老人保健施設ナーシングケア緑風苑【通所リハビリテーション】熊本県上益城郡甲佐町白旗271", "url": "https://www.kaigokensaku.mhlw.go.jp/43/index.php?action_kouhyou_detail_004_kani=true&JigyosyoCd=4352880050-00&ServiceCd=160&Type=search", "url2": "http://www.ryokufu-en.com/" }, "geometry": { "type": "Point", "coordinates": [ 130.7894983, 32.697930700000022 ] } },
{ "type": "Feature", "properties": { "内容": "谷田病院通所リハビリテーションセンター甲佐リハ【通所リハビリテーション】熊本県上益城郡甲佐町岩下123", "url": "https://www.kaigokensaku.mhlw.go.jp/43/index.php?action_kouhyou_detail_004_kani=true&JigyosyoCd=4372801151-00&ServiceCd=160&Type=search", "url2": "http://www.yatsuda-kai.jp/" }, "geometry": { "type": "Point", "coordinates": [ 130.810012899999947, 32.6509689 ] } },
{ "type": "Feature", "properties": { "内容": "彩雲苑　通所リハビリテーション【通所リハビリテーション】熊本県上益城郡山都町北中島２７０１", "url": "https://www.kaigokensaku.mhlw.go.jp/43/index.php?action_kouhyou_detail_004_kani=true&JigyosyoCd=4352880019-00&ServiceCd=160&Type=search", "url2": "saiunen.com" }, "geometry": { "type": "Point", "coordinates": [ 130.938408, 32.7328352 ] } },
{ "type": "Feature", "properties": { "内容": "瀬戸病院通所リハビリテーション【通所リハビリテーション】上益城郡山都町北中島２８０６", "url": "https://www.kaigokensaku.mhlw.go.jp/43/index.php?action_kouhyou_detail_004_kani=true&JigyosyoCd=4372800377-00&ServiceCd=160&Type=search", "url2": "http://www.seto-hosp.or.jp/" }, "geometry": { "type": "Point", "coordinates": [ 130.93650260000004, 32.7353016 ] } },
{ "type": "Feature", "properties": { "内容": "老人保健施設　ライフライト矢部【通所リハビリテーション】熊本県上益城郡山都町下市60", "url": "https://www.kaigokensaku.mhlw.go.jp/43/index.php?action_kouhyou_detail_004_kani=true&JigyosyoCd=4352880027-00&ServiceCd=160&Type=search", "url2": "http://www.kaigocsc.co.jp/lifelight/" }, "geometry": { "type": "Point", "coordinates": [ 130.987121800000068, 32.6835054 ] } },
{ "type": "Feature", "properties": { "内容": "八祥苑通所リハビリ事業所【通所リハビリテーション】熊本県八代郡氷川町早尾132番地", "url": "https://www.kaigokensaku.mhlw.go.jp/43/index.php?action_kouhyou_detail_004_kani=true&JigyosyoCd=4352980017-00&ServiceCd=160&Type=search", "url2": "http://www.8shouen.org/index.html" }, "geometry": { "type": "Point", "coordinates": [ 130.677126388948238, 32.550546597282299 ] } },
{ "type": "Feature", "properties": { "内容": "芦北クリニック　通所リハビリテーション　さくら【通所リハビリテーション】熊本県葦北郡芦北町大字湯浦４１７番地１", "url": "https://www.kaigokensaku.mhlw.go.jp/43/index.php?action_kouhyou_detail_004_kani=true&JigyosyoCd=4313010565-00&ServiceCd=160&Type=search", "url2": "https://mizobe-hospital.or.jp/" }, "geometry": { "type": "Point", "coordinates": [ 130.5033952, 32.2695308 ] } },
{ "type": "Feature", "properties": { "内容": "百崎内科医院【通所リハビリテーション】熊本県葦北郡芦北町田浦806", "url": "https://www.kaigokensaku.mhlw.go.jp/43/index.php?action_kouhyou_detail_004_kani=true&JigyosyoCd=4313010748-00&ServiceCd=160&Type=search", "url2": null }, "geometry": { "type": "Point", "coordinates": [ 130.511268100000052, 32.3644801 ] } },
{ "type": "Feature", "properties": { "内容": "新清苑通所リハビリテーション【通所リハビリテーション】熊本県葦北郡芦北町大字芦北字塩屋田尻２７２７番地１", "url": "https://www.kaigokensaku.mhlw.go.jp/43/index.php?action_kouhyou_detail_004_kani=true&JigyosyoCd=4353080015-00&ServiceCd=160&Type=search", "url2": "http://mc-shinseikai.com/" }, "geometry": { "type": "Point", "coordinates": [ 130.493316600000071, 32.2981664 ] } },
{ "type": "Feature", "properties": { "内容": "医療法人　伸和会【通所リハビリテーション】熊本県芦北郡芦北町佐敷348-1", "url": "https://www.kaigokensaku.mhlw.go.jp/43/index.php?action_kouhyou_detail_004_kani=true&JigyosyoCd=4313010680-00&ServiceCd=160&Type=search", "url2": "http://ｗｗｗ.miyajima-iin.or.jp/" }, "geometry": { "type": "Point", "coordinates": [ 130.503101499999957, 32.305116 ] } },
{ "type": "Feature", "properties": { "内容": "きのえ田中苑　通所リハビリテーション事業所【通所リハビリテーション】熊本県球磨郡錦町木上西１４３番地１", "url": "https://www.kaigokensaku.mhlw.go.jp/43/index.php?action_kouhyou_detail_004_kani=true&JigyosyoCd=4353180047-00&ServiceCd=160&Type=search", "url2": null }, "geometry": { "type": "Point", "coordinates": [ 130.8404392, 32.2255913 ] } },
{ "type": "Feature", "properties": { "内容": "球磨郡公立多良木病院短時間通所リハビリテーション事業所【通所リハビリテーション】熊本県球磨郡多良木町多良木４２１０", "url": "https://www.kaigokensaku.mhlw.go.jp/43/index.php?action_kouhyou_detail_004_kani=true&JigyosyoCd=4318212273-00&ServiceCd=160&Type=search", "url2": "http://www.taragihp.jp" }, "geometry": { "type": "Point", "coordinates": [ 130.926316, 32.2544811 ] } },
{ "type": "Feature", "properties": { "内容": "介護老人保健施設シルバーエイト　通所リハビリテーション【通所リハビリテーション】熊本県球磨郡多良木町多良木４２１０", "url": "https://www.kaigokensaku.mhlw.go.jp/43/index.php?action_kouhyou_detail_004_kani=true&JigyosyoCd=4353180039-00&ServiceCd=160&Type=search", "url2": "http://www.taragihp.jp/s8/" }, "geometry": { "type": "Point", "coordinates": [ 130.925573799999938, 32.2540896 ] } },
{ "type": "Feature", "properties": { "内容": "医療法人社団仁田畑クリニック通所リハビリテーションなごみ苑【通所リハビリテーション】熊本県球磨郡多良木町多良木８９５番地６", "url": "https://www.kaigokensaku.mhlw.go.jp/43/index.php?action_kouhyou_detail_004_kani=true&JigyosyoCd=4373101213-00&ServiceCd=160&Type=search", "url2": "ｎａｇｏｍｉｅｎ＠ｃａｐ.ｏｃｎ.ｎｅ.ｊｐ" }, "geometry": { "type": "Point", "coordinates": [ 130.9380668, 32.2623532 ] } },
{ "type": "Feature", "properties": { "内容": "介護老人保健施設サンライフみのり【通所リハビリテーション】熊本県球磨郡相良村大字川辺1778番地", "url": "https://www.kaigokensaku.mhlw.go.jp/43/index.php?action_kouhyou_detail_004_kani=true&JigyosyoCd=4353180013-00&ServiceCd=160&Type=search", "url2": "http://www.pe-toru.or.jp/" }, "geometry": { "type": "Point", "coordinates": [ 130.815287799999965, 32.2570878 ] } },
{ "type": "Feature", "properties": { "内容": "介護老人保健施設つつじのさと【通所リハビリテーション】熊本県球磨郡山江村大字山田乙１７０５番地", "url": "https://www.kaigokensaku.mhlw.go.jp/43/index.php?action_kouhyou_detail_004_kani=true&JigyosyoCd=4353180021-00&ServiceCd=160&Type=search", "url2": "https://mokkeikai.jp/" }, "geometry": { "type": "Point", "coordinates": [ 130.773822073936458, 32.242467823587702 ] } },
{ "type": "Feature", "properties": { "内容": "東病院　通所リハビリテーション【通所リハビリテーション】熊本県球磨郡あさぎり町岡原北944", "url": "https://www.kaigokensaku.mhlw.go.jp/43/index.php?action_kouhyou_detail_004_kani=true&JigyosyoCd=4313110837-00&ServiceCd=160&Type=search", "url2": "http://www.higashi-hp.com/" }, "geometry": { "type": "Point", "coordinates": [ 130.930215198811311, 32.239170349516044 ] } },
{ "type": "Feature", "properties": { "内容": "こんどう整形外科【通所リハビリテーション】熊本県球磨郡あさぎり町免田東２７９１", "url": "https://www.kaigokensaku.mhlw.go.jp/43/index.php?action_kouhyou_detail_004_kani=true&JigyosyoCd=4313110894-00&ServiceCd=160&Type=search", "url2": null }, "geometry": { "type": "Point", "coordinates": [ 130.9065842, 32.2409879 ] } },
{ "type": "Feature", "properties": { "内容": "デイケアセンター蕩蕩館【通所リハビリテーション】熊本県天草郡苓北町上津深江278-10", "url": "https://www.kaigokensaku.mhlw.go.jp/43/index.php?action_kouhyou_detail_004_kani=true&JigyosyoCd=4313211809-00&ServiceCd=160&Type=search", "url2": "http://www.inahokai.com/" }, "geometry": { "type": "Point", "coordinates": [ 130.067922599999946, 32.5170923 ] } },
{ "type": "Feature", "properties": { "内容": "社会医療法人　稲穂会　介護老人保健施設　慈恵苑【通所リハビリテーション】熊本県天草郡苓北町上津深江278-10", "url": "https://www.kaigokensaku.mhlw.go.jp/43/index.php?action_kouhyou_detail_004_kani=true&JigyosyoCd=4353280011-00&ServiceCd=160&Type=search", "url2": "http://www.inahokai.com" }, "geometry": { "type": "Point", "coordinates": [ 130.067922599999946, 32.5170923 ] } }
]
}
