{
"type": "FeatureCollection",
"name": "geo_43_幼稚園",
"crs": { "type": "name", "properties": { "name": "urn:ogc:def:crs:EPSG::6668" } },
"features": [
{ "type": "Feature", "properties": { "P29_001": "43101", "P29_002": "A143110000012", "P29_003": "16011", "P29_004": "熊本大学教育学部附属幼稚園", "P29_005": "熊本県熊本市中央区城東町5-9", "P29_006": "1", "P29_007": "0", "P29_008": "00", "P29_009": null }, "geometry": { "type": "Point", "coordinates": [ 130.710664893462933, 32.806424652610715 ] } },
{ "type": "Feature", "properties": { "P29_001": "43101", "P29_002": "A143210000010", "P29_003": "16011", "P29_004": "熊本市立碩台幼稚園", "P29_005": "熊本県熊本市中央区南千反畑町15-23", "P29_006": "3", "P29_007": "0", "P29_008": "00", "P29_009": null }, "geometry": { "type": "Point", "coordinates": [ 130.717605656411223, 32.808186920903879 ] } },
{ "type": "Feature", "properties": { "P29_001": "43101", "P29_002": "A143210000029", "P29_003": "16011", "P29_004": "熊本市立一新幼稚園", "P29_005": "熊本県熊本市中央区新町1-10-38", "P29_006": "3", "P29_007": "0", "P29_008": "00", "P29_009": null }, "geometry": { "type": "Point", "coordinates": [ 130.697615064520818, 32.80120485225607 ] } },
{ "type": "Feature", "properties": { "P29_001": "43101", "P29_002": "A143210000038", "P29_003": "16011", "P29_004": "熊本市立向山幼稚園", "P29_005": "熊本県熊本市中央区本山4-5-2", "P29_006": "3", "P29_007": "0", "P29_008": "00", "P29_009": null }, "geometry": { "type": "Point", "coordinates": [ 130.700795678609296, 32.789811553591079 ] } },
{ "type": "Feature", "properties": { "P29_001": "43104", "P29_002": "A143210000047", "P29_003": "16011", "P29_004": "熊本市立川尻幼稚園", "P29_005": "熊本県熊本市南区川尻4-1-70", "P29_006": "3", "P29_007": "0", "P29_008": "00", "P29_009": null }, "geometry": { "type": "Point", "coordinates": [ 130.681378084898029, 32.739131149113156 ] } },
{ "type": "Feature", "properties": { "P29_001": "43202", "P29_002": "A143210000056", "P29_003": "16011", "P29_004": "八代市立太田郷幼稚園", "P29_005": "熊本県八代市上日置町2161", "P29_006": "3", "P29_007": "0", "P29_008": "00", "P29_009": null }, "geometry": { "type": "Point", "coordinates": [ 130.62393717676818, 32.510056969615633 ] } },
{ "type": "Feature", "properties": { "P29_001": "43202", "P29_002": "A143210000065", "P29_003": "16011", "P29_004": "八代市立代陽幼稚園", "P29_005": "熊本県八代市西松江城町2-41", "P29_006": "3", "P29_007": "0", "P29_008": "00", "P29_009": null }, "geometry": { "type": "Point", "coordinates": [ 130.597749454298452, 32.507447664120576 ] } },
{ "type": "Feature", "properties": { "P29_001": "43202", "P29_002": "A143210000074", "P29_003": "16011", "P29_004": "八代市立松高幼稚園", "P29_005": "熊本県八代市永碇町741", "P29_006": "3", "P29_007": "0", "P29_008": "00", "P29_009": null }, "geometry": { "type": "Point", "coordinates": [ 130.591714261712468, 32.519525246163511 ] } },
{ "type": "Feature", "properties": { "P29_001": "43202", "P29_002": "A143210000083", "P29_003": "16011", "P29_004": "八代市立植柳幼稚園", "P29_005": "熊本県八代市植柳上町340", "P29_006": "3", "P29_007": "0", "P29_008": "00", "P29_009": null }, "geometry": { "type": "Point", "coordinates": [ 130.605217638910005, 32.491192817967608 ] } },
{ "type": "Feature", "properties": { "P29_001": "43202", "P29_002": "A143210000092", "P29_003": "16011", "P29_004": "八代市立麦島幼稚園", "P29_005": "熊本県八代市迎町1-16-1-2", "P29_006": "3", "P29_007": "0", "P29_008": "00", "P29_009": null }, "geometry": { "type": "Point", "coordinates": [ 130.601886266761511, 32.499405490543381 ] } },
{ "type": "Feature", "properties": { "P29_001": "43215", "P29_002": "A143210000109", "P29_003": "16011", "P29_004": "天草市立本渡南幼稚園", "P29_005": "熊本県天草市川原町4-7", "P29_006": "3", "P29_007": "0", "P29_008": "00", "P29_009": null }, "geometry": { "type": "Point", "coordinates": [ 130.18532406815558, 32.456918370744638 ] } },
{ "type": "Feature", "properties": { "P29_001": "43215", "P29_002": "A143210000118", "P29_003": "16011", "P29_004": "天草市立本渡北幼稚園", "P29_005": "熊本県天草市浜崎町4-9", "P29_006": "3", "P29_007": "0", "P29_008": "00", "P29_009": null }, "geometry": { "type": "Point", "coordinates": [ 130.188335300776117, 32.462353625297197 ] } },
{ "type": "Feature", "properties": { "P29_001": "43208", "P29_002": "A143210000127", "P29_003": "16011", "P29_004": "山鹿市立山鹿幼稚園", "P29_005": "熊本県山鹿市山鹿922", "P29_006": "3", "P29_007": "0", "P29_008": "00", "P29_009": null }, "geometry": { "type": "Point", "coordinates": [ 130.693421788955533, 33.017971940410703 ] } },
{ "type": "Feature", "properties": { "P29_001": "43211", "P29_002": "A143210000136", "P29_003": "16011", "P29_004": "宇土市立宇土幼稚園", "P29_005": "熊本県宇土市門内町86", "P29_006": "3", "P29_007": "0", "P29_008": "00", "P29_009": null }, "geometry": { "type": "Point", "coordinates": [ 130.660532602190187, 32.681917328915034 ] } },
{ "type": "Feature", "properties": { "P29_001": "43211", "P29_002": "A143210000145", "P29_003": "16011", "P29_004": "宇土市立花園幼稚園", "P29_005": "熊本県宇土市古保里990-1", "P29_006": "3", "P29_007": "0", "P29_008": "00", "P29_009": null }, "geometry": { "type": "Point", "coordinates": [ 130.682505991545696, 32.676792809188285 ] } },
{ "type": "Feature", "properties": { "P29_001": "43104", "P29_002": "A143210000154", "P29_003": "16011", "P29_004": "熊本市立隈庄幼稚園", "P29_005": "熊本県熊本市南区城南町宮地1009", "P29_006": "3", "P29_007": "0", "P29_008": "00", "P29_009": null }, "geometry": { "type": "Point", "coordinates": [ 130.72774151013391, 32.710953783879795 ] } },
{ "type": "Feature", "properties": { "P29_001": "43403", "P29_002": "A143210000163", "P29_003": "16011", "P29_004": "大津町立大津幼稚園", "P29_005": "熊本県菊池郡大津町大字室365", "P29_006": "3", "P29_007": "0", "P29_008": "00", "P29_009": null }, "geometry": { "type": "Point", "coordinates": [ 130.867984004099583, 32.873584998843384 ] } },
{ "type": "Feature", "properties": { "P29_001": "43403", "P29_002": "A143210000172", "P29_003": "16011", "P29_004": "大津町立陣内幼稚園", "P29_005": "熊本県菊池郡大津町陣内1582", "P29_006": "3", "P29_007": "0", "P29_008": "00", "P29_009": null }, "geometry": { "type": "Point", "coordinates": [ 130.870573604151133, 32.859459791300949 ] } },
{ "type": "Feature", "properties": { "P29_001": "43505", "P29_002": "A143210000181", "P29_003": "16011", "P29_004": "多良木町立多良木幼稚園", "P29_005": "熊本県球磨郡多良木町多良木268-1", "P29_006": "3", "P29_007": "0", "P29_008": "00", "P29_009": null }, "geometry": { "type": "Point", "coordinates": [ 130.942655005139784, 32.265249996898689 ] } },
{ "type": "Feature", "properties": { "P29_001": "43443", "P29_002": "A143210000190", "P29_003": "16011", "P29_004": "益城町立益城幼稚園", "P29_005": "熊本県上益城郡益城町木山589", "P29_006": "3", "P29_007": "0", "P29_008": "00", "P29_009": null }, "geometry": { "type": "Point", "coordinates": [ 130.816278056776497, 32.800391295919759 ] } },
{ "type": "Feature", "properties": { "P29_001": "43105", "P29_002": "A143210000207", "P29_003": "16011", "P29_004": "熊本市立楠幼稚園", "P29_005": "熊本県熊本市北区楠3-6-1", "P29_006": "3", "P29_007": "0", "P29_008": "00", "P29_009": null }, "geometry": { "type": "Point", "coordinates": [ 130.756317291955071, 32.848472755856868 ] } },
{ "type": "Feature", "properties": { "P29_001": "43215", "P29_002": "A143210000216", "P29_003": "16011", "P29_004": "天草市立亀場幼稚園", "P29_005": "熊本県天草市亀場町亀川1538-1", "P29_006": "3", "P29_007": "0", "P29_008": "00", "P29_009": null }, "geometry": { "type": "Point", "coordinates": [ 130.19410283519835, 32.437469085715136 ] } },
{ "type": "Feature", "properties": { "P29_001": "43443", "P29_002": "A143210000234", "P29_003": "16011", "P29_004": "益城町立第二幼稚園", "P29_005": "熊本県上益城郡益城町惣領1471", "P29_006": "3", "P29_007": "0", "P29_008": "00", "P29_009": null }, "geometry": { "type": "Point", "coordinates": [ 130.800378779991547, 32.785131619201493 ] } },
{ "type": "Feature", "properties": { "P29_001": "43202", "P29_002": "A143210000243", "P29_003": "16011", "P29_004": "八代市立千丁幼稚園", "P29_005": "熊本県八代市千丁町新牟田1340", "P29_006": "3", "P29_007": "0", "P29_008": "00", "P29_009": null }, "geometry": { "type": "Point", "coordinates": [ 130.635958023916743, 32.536703299051872 ] } },
{ "type": "Feature", "properties": { "P29_001": "43210", "P29_002": "A143310000018", "P29_003": "16011", "P29_004": "学校法人北部学園泗水幼稚園", "P29_005": "熊本県菊池市泗水町吉富1593", "P29_006": "4", "P29_007": "0", "P29_008": "00", "P29_009": null }, "geometry": { "type": "Point", "coordinates": [ 130.775291022353429, 32.925097206881311 ] } },
{ "type": "Feature", "properties": { "P29_001": "43101", "P29_002": "A143310000027", "P29_003": "16011", "P29_004": "熊本信愛女学院幼稚園", "P29_005": "熊本県熊本市中央区上林町2-20", "P29_006": "4", "P29_007": "0", "P29_008": "00", "P29_009": null }, "geometry": { "type": "Point", "coordinates": [ 130.710079860848282, 32.808579904165363 ] } },
{ "type": "Feature", "properties": { "P29_001": "43103", "P29_002": "A143310000036", "P29_003": "16011", "P29_004": "熊本聖母愛児幼稚園", "P29_005": "熊本県熊本市西区島崎6-1-18", "P29_006": "4", "P29_007": "0", "P29_008": "00", "P29_009": null }, "geometry": { "type": "Point", "coordinates": [ 130.689714396747405, 32.811696601464696 ] } },
{ "type": "Feature", "properties": { "P29_001": "43101", "P29_002": "A143310000045", "P29_003": "16011", "P29_004": "学校法人加寿美学園坪井幼稚園", "P29_005": "熊本県熊本市中央区内坪井町4-19", "P29_006": "4", "P29_007": "0", "P29_008": "00", "P29_009": null }, "geometry": { "type": "Point", "coordinates": [ 130.709175115984891, 32.810765667088724 ] } },
{ "type": "Feature", "properties": { "P29_001": "43101", "P29_002": "A143310000054", "P29_003": "16011", "P29_004": "熊本学園大学付属敬愛幼稚園", "P29_005": "熊本県熊本市中央区大江2-1-61", "P29_006": "4", "P29_007": "0", "P29_008": "00", "P29_009": null }, "geometry": { "type": "Point", "coordinates": [ 130.727193002691905, 32.803829999390587 ] } },
{ "type": "Feature", "properties": { "P29_001": "43101", "P29_002": "A143310000063", "P29_003": "16011", "P29_004": "王栄幼稚園", "P29_005": "熊本県熊本市中央区九品寺2-2-44", "P29_006": "4", "P29_007": "0", "P29_008": "00", "P29_009": null }, "geometry": { "type": "Point", "coordinates": [ 130.717565899479808, 32.798987514321254 ] } },
{ "type": "Feature", "properties": { "P29_001": "43101", "P29_002": "A143310000072", "P29_003": "16011", "P29_004": "ＹＭＣＡ水前寺幼稚園", "P29_005": "熊本県熊本市中央区出水3-12-1", "P29_006": "4", "P29_007": "0", "P29_008": "00", "P29_009": null }, "geometry": { "type": "Point", "coordinates": [ 130.732632211532149, 32.783966120315149 ] } },
{ "type": "Feature", "properties": { "P29_001": "43101", "P29_002": "A143310000081", "P29_003": "16011", "P29_004": "幼稚園型認定こども園ときわ幼稚園", "P29_005": "熊本県熊本市中央区本荘町683-2", "P29_006": "4", "P29_007": "0", "P29_008": "00", "P29_009": null }, "geometry": { "type": "Point", "coordinates": [ 130.702974884480426, 32.78608423955896 ] } },
{ "type": "Feature", "properties": { "P29_001": "43101", "P29_002": "A143310000090", "P29_003": "16011", "P29_004": "認定こども園九州音楽幼稚園", "P29_005": "熊本県熊本市中央区水前寺公園23-21", "P29_006": "4", "P29_007": "0", "P29_008": "00", "P29_009": null }, "geometry": { "type": "Point", "coordinates": [ 130.737176505158686, 32.791852665289184 ] } },
{ "type": "Feature", "properties": { "P29_001": "43102", "P29_002": "A143310000107", "P29_003": "16011", "P29_004": "認定こども園九州音楽京塚幼稚園", "P29_005": "熊本県熊本市東区尾ノ上1-47-9", "P29_006": "4", "P29_007": "0", "P29_008": "00", "P29_009": null }, "geometry": { "type": "Point", "coordinates": [ 130.752266981565555, 32.795394594180991 ] } },
{ "type": "Feature", "properties": { "P29_001": "43104", "P29_002": "A143310000116", "P29_003": "16011", "P29_004": "熊本音楽幼稚園", "P29_005": "熊本県熊本市南区出仲間6-14-40", "P29_006": "4", "P29_007": "0", "P29_008": "00", "P29_009": null }, "geometry": { "type": "Point", "coordinates": [ 130.718255805514872, 32.772195711166709 ] } },
{ "type": "Feature", "properties": { "P29_001": "43101", "P29_002": "A143310000125", "P29_003": "16011", "P29_004": "出水幼稚園", "P29_005": "熊本県熊本市中央区国府2-10-39", "P29_006": "4", "P29_007": "0", "P29_008": "00", "P29_009": null }, "geometry": { "type": "Point", "coordinates": [ 130.72786619830552, 32.788441212037092 ] } },
{ "type": "Feature", "properties": { "P29_001": "43105", "P29_002": "A143310000134", "P29_003": "16011", "P29_004": "立田幼稚園", "P29_005": "熊本県熊本市北区龍田6-12-1", "P29_006": "4", "P29_007": "0", "P29_008": "00", "P29_009": null }, "geometry": { "type": "Point", "coordinates": [ 130.758426553730004, 32.835866492847352 ] } },
{ "type": "Feature", "properties": { "P29_001": "43101", "P29_002": "A143310000143", "P29_003": "16011", "P29_004": "マリア幼稚園", "P29_005": "熊本県熊本市中央区水前寺4-31-56", "P29_006": "4", "P29_007": "0", "P29_008": "00", "P29_009": null }, "geometry": { "type": "Point", "coordinates": [ 130.738631004545482, 32.799006000680428 ] } },
{ "type": "Feature", "properties": { "P29_001": "43103", "P29_002": "A143310000152", "P29_003": "16011", "P29_004": "花陵幼稚園", "P29_005": "熊本県熊本市西区田崎3-1-52", "P29_006": "4", "P29_007": "0", "P29_008": "00", "P29_009": null }, "geometry": { "type": "Point", "coordinates": [ 130.682285023605118, 32.781611279709324 ] } },
{ "type": "Feature", "properties": { "P29_001": "43101", "P29_002": "A143310000161", "P29_003": "16011", "P29_004": "白山幼稚園", "P29_005": "熊本県熊本市中央区菅原町6-11", "P29_006": "4", "P29_007": "0", "P29_008": "00", "P29_009": null }, "geometry": { "type": "Point", "coordinates": [ 130.720988001913071, 32.789459995862991 ] } },
{ "type": "Feature", "properties": { "P29_001": "43101", "P29_002": "A143310000170", "P29_003": "16011", "P29_004": "認定こども園帯山幼稚園", "P29_005": "熊本県熊本市中央区帯山4-42-16", "P29_006": "4", "P29_007": "0", "P29_008": "00", "P29_009": null }, "geometry": { "type": "Point", "coordinates": [ 130.749575002945136, 32.805034001401303 ] } },
{ "type": "Feature", "properties": { "P29_001": "43202", "P29_002": "A143310000189", "P29_003": "16011", "P29_004": "八代白百合学園幼稚園", "P29_005": "熊本県八代市井上町727-1", "P29_006": "4", "P29_007": "0", "P29_008": "00", "P29_009": null }, "geometry": { "type": "Point", "coordinates": [ 130.631303001953825, 32.517964996844952 ] } },
{ "type": "Feature", "properties": { "P29_001": "43203", "P29_002": "A143310000205", "P29_003": "16011", "P29_004": "人吉幼稚園", "P29_005": "熊本県人吉市寺町7", "P29_006": "4", "P29_007": "0", "P29_008": "00", "P29_009": null }, "geometry": { "type": "Point", "coordinates": [ 130.761112403873909, 32.207452567568822 ] } },
{ "type": "Feature", "properties": { "P29_001": "43203", "P29_002": "A143310000214", "P29_003": "16011", "P29_004": "青井幼稚園", "P29_005": "熊本県人吉市上青井町117-2", "P29_006": "4", "P29_007": "0", "P29_008": "00", "P29_009": null }, "geometry": { "type": "Point", "coordinates": [ 130.752634203780417, 32.213058751332909 ] } },
{ "type": "Feature", "properties": { "P29_001": "43203", "P29_002": "A143310000223", "P29_003": "16011", "P29_004": "人吉中央幼稚園", "P29_005": "熊本県人吉市南泉田町99", "P29_006": "4", "P29_007": "0", "P29_008": "00", "P29_009": null }, "geometry": { "type": "Point", "coordinates": [ 130.763556908394207, 32.216630663036369 ] } },
{ "type": "Feature", "properties": { "P29_001": "43204", "P29_002": "A143310000232", "P29_003": "16011", "P29_004": "荒尾四ツ山幼稚園", "P29_005": "熊本県荒尾市西原町2-3-34", "P29_006": "4", "P29_007": "0", "P29_008": "00", "P29_009": null }, "geometry": { "type": "Point", "coordinates": [ 130.432673066146833, 33.002685489890723 ] } },
{ "type": "Feature", "properties": { "P29_001": "43204", "P29_002": "A143310000241", "P29_003": "16011", "P29_004": "小鳩幼稚園", "P29_005": "熊本県荒尾市一部山浦2182-266", "P29_006": "4", "P29_007": "0", "P29_008": "00", "P29_009": null }, "geometry": { "type": "Point", "coordinates": [ 130.462762117330499, 32.96538673672098 ] } },
{ "type": "Feature", "properties": { "P29_001": "43204", "P29_002": "A143310000250", "P29_003": "16011", "P29_004": "八幡幼稚園", "P29_005": "熊本県荒尾市野原93-1", "P29_006": "4", "P29_007": "0", "P29_008": "00", "P29_009": null }, "geometry": { "type": "Point", "coordinates": [ 130.475942004058453, 32.960874996205952 ] } },
{ "type": "Feature", "properties": { "P29_001": "43204", "P29_002": "A143310000269", "P29_003": "16011", "P29_004": "青葉幼稚園", "P29_005": "熊本県荒尾市荒尾1074", "P29_006": "4", "P29_007": "0", "P29_008": "00", "P29_009": null }, "geometry": { "type": "Point", "coordinates": [ 130.434818998187211, 32.98298699978632 ] } },
{ "type": "Feature", "properties": { "P29_001": "43204", "P29_002": "A143310000278", "P29_003": "16011", "P29_004": "あけぼの幼稚園", "P29_005": "熊本県荒尾市増永962-1", "P29_006": "4", "P29_007": "0", "P29_008": "00", "P29_009": null }, "geometry": { "type": "Point", "coordinates": [ 130.434716476630314, 32.968859260218672 ] } },
{ "type": "Feature", "properties": { "P29_001": "43204", "P29_002": "A143310000287", "P29_003": "16011", "P29_004": "第二四ツ山幼稚園", "P29_005": "熊本県荒尾市荒尾2835", "P29_006": "4", "P29_007": "0", "P29_008": "00", "P29_009": null }, "geometry": { "type": "Point", "coordinates": [ 130.453607094883637, 32.977155909787513 ] } },
{ "type": "Feature", "properties": { "P29_001": "43205", "P29_002": "A143310000303", "P29_003": "16011", "P29_004": "認定こども園水俣ふたば幼稚園", "P29_005": "熊本県水俣市大園町1-4-11", "P29_006": "4", "P29_007": "0", "P29_008": "00", "P29_009": null }, "geometry": { "type": "Point", "coordinates": [ 130.402868999329911, 32.209424997573109 ] } },
{ "type": "Feature", "properties": { "P29_001": "43205", "P29_002": "A143310000312", "P29_003": "16011", "P29_004": "水俣幼稚園", "P29_005": "熊本県水俣市天神町1-5-24", "P29_006": "4", "P29_007": "0", "P29_008": "00", "P29_009": null }, "geometry": { "type": "Point", "coordinates": [ 130.40694912071055, 32.210505435482098 ] } },
{ "type": "Feature", "properties": { "P29_001": "43215", "P29_002": "A143310000321", "P29_003": "16011", "P29_004": "学校法人天草しらゆり学園本渡カトリック聖心幼稚園", "P29_005": "熊本県天草市大浜町3-28", "P29_006": "4", "P29_007": "0", "P29_008": "00", "P29_009": null }, "geometry": { "type": "Point", "coordinates": [ 130.190117993003213, 32.459838770281216 ] } },
{ "type": "Feature", "properties": { "P29_001": "43208", "P29_002": "A143310000330", "P29_003": "16011", "P29_004": "認定こども園霊泉幼稚園", "P29_005": "熊本県山鹿市山鹿225", "P29_006": "4", "P29_007": "0", "P29_008": "00", "P29_009": null }, "geometry": { "type": "Point", "coordinates": [ 130.692684858027604, 33.013080646889641 ] } },
{ "type": "Feature", "properties": { "P29_001": "43215", "P29_002": "A143310000349", "P29_003": "16011", "P29_004": "愛隣幼稚園", "P29_005": "熊本県天草市牛深町1546-3", "P29_006": "4", "P29_007": "0", "P29_008": "00", "P29_009": null }, "geometry": { "type": "Point", "coordinates": [ 130.028652653382778, 32.199739741245587 ] } },
{ "type": "Feature", "properties": { "P29_001": "43206", "P29_002": "A143310000358", "P29_003": "16011", "P29_004": "横島幼稚園", "P29_005": "熊本県玉名市横島町横島2345-1", "P29_006": "4", "P29_007": "0", "P29_008": "00", "P29_009": null }, "geometry": { "type": "Point", "coordinates": [ 130.560080910883272, 32.878702259207202 ] } },
{ "type": "Feature", "properties": { "P29_001": "43105", "P29_002": "A143310000367", "P29_003": "16011", "P29_004": "植木中央幼稚園", "P29_005": "熊本県熊本市北区植木町舞尾544-2", "P29_006": "4", "P29_007": "0", "P29_008": "00", "P29_009": null }, "geometry": { "type": "Point", "coordinates": [ 130.690142798520128, 32.900884085340692 ] } },
{ "type": "Feature", "properties": { "P29_001": "43216", "P29_002": "A143310000376", "P29_003": "16011", "P29_004": "リズム幼稚園", "P29_005": "熊本県合志市須屋2070-13", "P29_006": "4", "P29_007": "0", "P29_008": "00", "P29_009": null }, "geometry": { "type": "Point", "coordinates": [ 130.733509987740746, 32.866734957876311 ] } },
{ "type": "Feature", "properties": { "P29_001": "43214", "P29_002": "A143310000385", "P29_003": "16011", "P29_004": "認定こども園あそひかり幼稚園", "P29_005": "熊本県阿蘇市一の宮町中通302-5", "P29_006": "4", "P29_007": "0", "P29_008": "00", "P29_009": null }, "geometry": { "type": "Point", "coordinates": [ 131.113014734633936, 32.962875037260233 ] } },
{ "type": "Feature", "properties": { "P29_001": "43101", "P29_002": "A143310000394", "P29_003": "16011", "P29_004": "画図幼稚園", "P29_005": "熊本県熊本市中央区出水8-7-40", "P29_006": "4", "P29_007": "0", "P29_008": "00", "P29_009": null }, "geometry": { "type": "Point", "coordinates": [ 130.729588610888015, 32.778357717854028 ] } },
{ "type": "Feature", "properties": { "P29_001": "43514", "P29_002": "A143310000401", "P29_003": "16011", "P29_004": "摩耶幼稚園", "P29_005": "熊本県球磨郡あさぎり町免田東1912", "P29_006": "4", "P29_007": "0", "P29_008": "00", "P29_009": null }, "geometry": { "type": "Point", "coordinates": [ 130.901334592139079, 32.234978349443018 ] } },
{ "type": "Feature", "properties": { "P29_001": "43428", "P29_002": "A143310000410", "P29_003": "16011", "P29_004": "高森幼稚園", "P29_005": "熊本県阿蘇郡高森町大字高森1949-1", "P29_006": "4", "P29_007": "0", "P29_008": "00", "P29_009": null }, "geometry": { "type": "Point", "coordinates": [ 131.12255799849288, 32.824464997080433 ] } },
{ "type": "Feature", "properties": { "P29_001": "43206", "P29_002": "A143310000429", "P29_003": "16011", "P29_004": "おおとりの丘認定こども園", "P29_005": "熊本県玉名市岱明町上60-2", "P29_006": "4", "P29_007": "0", "P29_008": "00", "P29_009": null }, "geometry": { "type": "Point", "coordinates": [ 130.517656160777108, 32.933730838070773 ] } },
{ "type": "Feature", "properties": { "P29_001": "43213", "P29_002": "A143310000438", "P29_003": "16011", "P29_004": "松橋幼稚園", "P29_005": "熊本県宇城市松橋町西下郷912-1", "P29_006": "4", "P29_007": "0", "P29_008": "00", "P29_009": null }, "geometry": { "type": "Point", "coordinates": [ 130.690467333120409, 32.635525712811315 ] } },
{ "type": "Feature", "properties": { "P29_001": "43206", "P29_002": "A143310000447", "P29_003": "16011", "P29_004": "幼稚園型認定こども園おおくらの森幼稚園", "P29_005": "熊本県玉名市大倉1503-1", "P29_006": "4", "P29_007": "0", "P29_008": "00", "P29_009": null }, "geometry": { "type": "Point", "coordinates": [ 130.569905268097301, 32.923745617572024 ] } },
{ "type": "Feature", "properties": { "P29_001": "43104", "P29_002": "A143310000456", "P29_003": "16011", "P29_004": "ルンビニー幼稚園", "P29_005": "熊本県熊本市南区近見2-7-2", "P29_006": "4", "P29_007": "0", "P29_008": "00", "P29_009": null }, "geometry": { "type": "Point", "coordinates": [ 130.68903800327999, 32.763676178244303 ] } },
{ "type": "Feature", "properties": { "P29_001": "43103", "P29_002": "A143310000465", "P29_003": "16011", "P29_004": "暁幼稚園", "P29_005": "熊本県熊本市西区島崎5-47-41", "P29_006": "4", "P29_007": "0", "P29_008": "00", "P29_009": null }, "geometry": { "type": "Point", "coordinates": [ 130.671187850797281, 32.812104047628658 ] } },
{ "type": "Feature", "properties": { "P29_001": "43204", "P29_002": "A143310000474", "P29_003": "16011", "P29_004": "府本幼稚園", "P29_005": "熊本県荒尾市樺新導970", "P29_006": "4", "P29_007": "0", "P29_008": "00", "P29_009": null }, "geometry": { "type": "Point", "coordinates": [ 130.497481149348715, 32.972084421153383 ] } },
{ "type": "Feature", "properties": { "P29_001": "43103", "P29_002": "A143310000483", "P29_003": "16011", "P29_004": "ちぐさ幼稚園", "P29_005": "熊本県熊本市西区池上町133-3", "P29_006": "4", "P29_007": "0", "P29_008": "00", "P29_009": null }, "geometry": { "type": "Point", "coordinates": [ 130.680383653497472, 32.796998528950361 ] } },
{ "type": "Feature", "properties": { "P29_001": "43105", "P29_002": "A143310000492", "P29_003": "16011", "P29_004": "武蔵ヶ丘幼稚園", "P29_005": "熊本県熊本市北区武蔵ヶ丘5-9-16", "P29_006": "4", "P29_007": "0", "P29_008": "00", "P29_009": null }, "geometry": { "type": "Point", "coordinates": [ 130.770940405734393, 32.853622381632704 ] } },
{ "type": "Feature", "properties": { "P29_001": "43102", "P29_002": "A143310000508", "P29_003": "16011", "P29_004": "幼稚園型認定こども園さくら幼稚園", "P29_005": "熊本県熊本市東区長嶺南1-4-80", "P29_006": "4", "P29_007": "0", "P29_008": "00", "P29_009": null }, "geometry": { "type": "Point", "coordinates": [ 130.765954913468164, 32.810870868298323 ] } },
{ "type": "Feature", "properties": { "P29_001": "43404", "P29_002": "A143310000517", "P29_003": "16011", "P29_004": "美鈴幼稚園", "P29_005": "熊本県菊池郡菊陽町武蔵ヶ丘北3-1-35", "P29_006": "4", "P29_007": "0", "P29_008": "00", "P29_009": null }, "geometry": { "type": "Point", "coordinates": [ 130.765803562568692, 32.865176153358412 ] } },
{ "type": "Feature", "properties": { "P29_001": "43214", "P29_002": "A143310000526", "P29_003": "16011", "P29_004": "阿蘇中央幼稚園", "P29_005": "熊本県阿蘇市黒川758", "P29_006": "4", "P29_007": "0", "P29_008": "00", "P29_009": null }, "geometry": { "type": "Point", "coordinates": [ 131.052775723363823, 32.963424080792862 ] } },
{ "type": "Feature", "properties": { "P29_001": "43468", "P29_002": "A143310000535", "P29_003": "16011", "P29_004": "ひかわ幼稚園", "P29_005": "熊本県八代郡氷川町早尾418-1", "P29_006": "4", "P29_007": "0", "P29_008": "00", "P29_009": null }, "geometry": { "type": "Point", "coordinates": [ 130.680407002812558, 32.549187000199119 ] } },
{ "type": "Feature", "properties": { "P29_001": "43104", "P29_002": "A143310000544", "P29_003": "16011", "P29_004": "ゆたか幼稚園", "P29_005": "熊本県熊本市南区今町161-1", "P29_006": "4", "P29_007": "0", "P29_008": "00", "P29_009": null }, "geometry": { "type": "Point", "coordinates": [ 130.659216003956914, 32.766897002827008 ] } },
{ "type": "Feature", "properties": { "P29_001": "43210", "P29_002": "A143310000553", "P29_003": "16011", "P29_004": "菊池幼稚園", "P29_005": "熊本県菊池市隈府1637-3", "P29_006": "4", "P29_007": "0", "P29_008": "00", "P29_009": null }, "geometry": { "type": "Point", "coordinates": [ 130.810929082081401, 32.989933157424765 ] } },
{ "type": "Feature", "properties": { "P29_001": "43514", "P29_002": "A143310000562", "P29_003": "16011", "P29_004": "学校法人上村学園認定こども園あおぞらこども園", "P29_005": "熊本県球磨郡あさぎり町上北2215", "P29_006": "4", "P29_007": "0", "P29_008": "00", "P29_009": null }, "geometry": { "type": "Point", "coordinates": [ 130.909574875987914, 32.223346242513408 ] } },
{ "type": "Feature", "properties": { "P29_001": "43348", "P29_002": "A143310000571", "P29_003": "16011", "P29_004": "砥用音楽幼稚園", "P29_005": "熊本県下益城郡美里町土喰358-5", "P29_006": "4", "P29_007": "0", "P29_008": "00", "P29_009": null }, "geometry": { "type": "Point", "coordinates": [ 130.870994947620744, 32.618819689001867 ] } },
{ "type": "Feature", "properties": { "P29_001": "43104", "P29_002": "A143310000580", "P29_003": "16011", "P29_004": "力合幼稚園", "P29_005": "熊本県熊本市南区白藤1-22-7", "P29_006": "4", "P29_007": "0", "P29_008": "00", "P29_009": null }, "geometry": { "type": "Point", "coordinates": [ 130.677481293092995, 32.752709003315687 ] } },
{ "type": "Feature", "properties": { "P29_001": "43216", "P29_002": "A143310000599", "P29_003": "16011", "P29_004": "杉並台幼稚園", "P29_005": "熊本県合志市幾久富1656-485", "P29_006": "4", "P29_007": "0", "P29_008": "00", "P29_009": null }, "geometry": { "type": "Point", "coordinates": [ 130.786122375409263, 32.873257910211919 ] } },
{ "type": "Feature", "properties": { "P29_001": "43104", "P29_002": "A143310000606", "P29_003": "16011", "P29_004": "認定こども園わかくさ幼稚園", "P29_005": "熊本県熊本市南区南高江7-9-36", "P29_006": "4", "P29_007": "0", "P29_008": "00", "P29_009": null }, "geometry": { "type": "Point", "coordinates": [ 130.690952469998876, 32.745112701041002 ] } },
{ "type": "Feature", "properties": { "P29_001": "43202", "P29_002": "A143310000615", "P29_003": "16011", "P29_004": "松寿幼稚園", "P29_005": "熊本県八代市郡築八番町45-4", "P29_006": "4", "P29_007": "0", "P29_008": "00", "P29_009": null }, "geometry": { "type": "Point", "coordinates": [ 130.576752145806893, 32.538380151048997 ] } },
{ "type": "Feature", "properties": { "P29_001": "43447", "P29_002": "A143310000624", "P29_003": "16011", "P29_004": "矢部幼稚園", "P29_005": "熊本県上益城郡山都町千滝541", "P29_006": "4", "P29_007": "0", "P29_008": "00", "P29_009": null }, "geometry": { "type": "Point", "coordinates": [ 130.980721063824205, 32.674895640132242 ] } },
{ "type": "Feature", "properties": { "P29_001": "43204", "P29_002": "A143310000633", "P29_003": "16011", "P29_004": "荒尾第一幼稚園", "P29_005": "熊本県荒尾市川登1823-15", "P29_006": "4", "P29_007": "0", "P29_008": "00", "P29_009": null }, "geometry": { "type": "Point", "coordinates": [ 130.466264323381466, 32.978834286239305 ] } },
{ "type": "Feature", "properties": { "P29_001": "43102", "P29_002": "A143310000642", "P29_003": "16011", "P29_004": "第２さくら体育幼稚園", "P29_005": "熊本県熊本市東区戸島西7-1-12", "P29_006": "4", "P29_007": "0", "P29_008": "00", "P29_009": null }, "geometry": { "type": "Point", "coordinates": [ 130.782967002755754, 32.80564000025295 ] } },
{ "type": "Feature", "properties": { "P29_001": "43210", "P29_002": "A143310000651", "P29_003": "16011", "P29_004": "双羽幼稚園", "P29_005": "熊本県菊池市七城町甲佐町443-2", "P29_006": "4", "P29_007": "0", "P29_008": "00", "P29_009": null }, "geometry": { "type": "Point", "coordinates": [ 130.772203160955456, 32.967704751728618 ] } },
{ "type": "Feature", "properties": { "P29_001": "43105", "P29_002": "A143310000660", "P29_003": "16011", "P29_004": "大窪幼稚園", "P29_005": "熊本県熊本市北区大窪3-2-25", "P29_006": "4", "P29_007": "0", "P29_008": "00", "P29_009": null }, "geometry": { "type": "Point", "coordinates": [ 130.7113241368545, 32.848156372455321 ] } },
{ "type": "Feature", "properties": { "P29_001": "43424", "P29_002": "A143310000679", "P29_003": "16011", "P29_004": "小国幼稚園", "P29_005": "熊本県阿蘇郡小国町大字下城401-3", "P29_006": "4", "P29_007": "0", "P29_008": "00", "P29_009": null }, "geometry": { "type": "Point", "coordinates": [ 131.060765878891885, 33.141605362445681 ] } },
{ "type": "Feature", "properties": { "P29_001": "43215", "P29_002": "A143310000688", "P29_003": "16011", "P29_004": "苓陽幼稚園", "P29_005": "熊本県天草市倉岳町棚底981-1", "P29_006": "4", "P29_007": "0", "P29_008": "00", "P29_009": null }, "geometry": { "type": "Point", "coordinates": [ 130.339581251301496, 32.41341269161596 ] } },
{ "type": "Feature", "properties": { "P29_001": "43468", "P29_002": "A143310000697", "P29_003": "16011", "P29_004": "竜北さくら幼稚園", "P29_005": "熊本県八代郡氷川町野津4122-5", "P29_006": "4", "P29_007": "0", "P29_008": "00", "P29_009": null }, "geometry": { "type": "Point", "coordinates": [ 130.678784520838633, 32.569222889998038 ] } },
{ "type": "Feature", "properties": { "P29_001": "43468", "P29_002": "A143310000704", "P29_003": "16011", "P29_004": "竜北東光幼稚園", "P29_005": "熊本県八代郡氷川町鹿島1058-3", "P29_006": "4", "P29_007": "0", "P29_008": "00", "P29_009": null }, "geometry": { "type": "Point", "coordinates": [ 130.669732721114826, 32.57789008060135 ] } },
{ "type": "Feature", "properties": { "P29_001": "43367", "P29_002": "A143310000713", "P29_003": "16011", "P29_004": "南関ひまわり幼稚園", "P29_005": "熊本県玉名郡南関町上坂下1339", "P29_006": "4", "P29_007": "0", "P29_008": "00", "P29_009": null }, "geometry": { "type": "Point", "coordinates": [ 130.552707004596499, 33.00125200353569 ] } },
{ "type": "Feature", "properties": { "P29_001": "43441", "P29_002": "A143310000722", "P29_003": "16011", "P29_004": "滝尾幼稚園", "P29_005": "熊本県上益城郡御船町滝尾6257-9", "P29_006": "4", "P29_007": "0", "P29_008": "00", "P29_009": null }, "geometry": { "type": "Point", "coordinates": [ 130.815181497609302, 32.701561073316526 ] } },
{ "type": "Feature", "properties": { "P29_001": "43206", "P29_002": "A143310000740", "P29_003": "16011", "P29_004": "たまきな幼稚園", "P29_005": "熊本県玉名市玉名下深田1249-1", "P29_006": "4", "P29_007": "0", "P29_008": "00", "P29_009": null }, "geometry": { "type": "Point", "coordinates": [ 130.571599331091136, 32.946854267795857 ] } },
{ "type": "Feature", "properties": { "P29_001": "43101", "P29_002": "A143310000759", "P29_003": "16011", "P29_004": "ＹＭＣＡ熊本五福幼稚園", "P29_005": "熊本県熊本市中央区魚屋町1-9", "P29_006": "4", "P29_007": "0", "P29_008": "00", "P29_009": null }, "geometry": { "type": "Point", "coordinates": [ 130.698913756933507, 32.794948096337926 ] } },
{ "type": "Feature", "properties": { "P29_001": "43103", "P29_002": "A143310000768", "P29_003": "16011", "P29_004": "古町幼稚園", "P29_005": "熊本県熊本市西区二本木4-4-13", "P29_006": "4", "P29_007": "0", "P29_008": "00", "P29_009": null }, "geometry": { "type": "Point", "coordinates": [ 130.690653994865841, 32.782235001673129 ] } }
]
}
