{
"type": "FeatureCollection",
"name": "geo_43_小規模多機能型居宅介護",
"crs": { "type": "name", "properties": { "name": "urn:ogc:def:crs:OGC:1.3:CRS84" } },
"features": [
{ "type": "Feature", "properties": { "内容": "小規模多機能型居宅介護事業所　水前寺きらら【小規模多機能型居宅介護】熊本市中央区水前寺1丁目11番22号Do水前寺　1階", "url": "https://www.kaigokensaku.mhlw.go.jp/43/index.php?action_kouhyou_detail_004_kani=true&JigyosyoCd=4390101253-00&ServiceCd=730&Type=search", "url2": "http://www.keijinkai.org/" }, "geometry": { "type": "Point", "coordinates": [ 130.729528699999946, 32.7944016 ] } },
{ "type": "Feature", "properties": { "内容": "小規模多機能ホームおひさま【小規模多機能型居宅介護】熊本県熊本市中央区世安町397-2", "url": "https://www.kaigokensaku.mhlw.go.jp/43/index.php?action_kouhyou_detail_004_kani=true&JigyosyoCd=4390101196-00&ServiceCd=730&Type=search", "url2": "www.ohisamahome.com" }, "geometry": { "type": "Point", "coordinates": [ 130.694874438484277, 32.786884148708154 ] } },
{ "type": "Feature", "properties": { "内容": "小規模多機能型居宅介護事業所　ゆう【小規模多機能型居宅介護】熊本県　熊本市　中央区　黒髪6丁目　7番7号", "url": "https://www.kaigokensaku.mhlw.go.jp/43/index.php?action_kouhyou_detail_004_kani=true&JigyosyoCd=4390101972-00&ServiceCd=730&Type=search", "url2": "http://kyouyukai.or.jp/" }, "geometry": { "type": "Point", "coordinates": [ 130.735241299999984, 32.8157352 ] } },
{ "type": "Feature", "properties": { "内容": "ケアプラス小規模多機能ホーム水前寺【小規模多機能型居宅介護】熊本県熊本市中央区水前寺4－29－10", "url": "https://www.kaigokensaku.mhlw.go.jp/43/index.php?action_kouhyou_detail_004_kani=true&JigyosyoCd=4390103317-00&ServiceCd=730&Type=search", "url2": "care-plus.jp" }, "geometry": { "type": "Point", "coordinates": [ 130.7388119, 32.7980761 ] } },
{ "type": "Feature", "properties": { "内容": "黒髪しょうぶ苑　小規模多機能ホーム【小規模多機能型居宅介護】熊本市中央区黒髪5丁目4-30", "url": "https://www.kaigokensaku.mhlw.go.jp/43/index.php?action_kouhyou_detail_004_kani=true&JigyosyoCd=4390100891-00&ServiceCd=730&Type=search", "url2": "http://www.shoubuen.com/kurokami.html" }, "geometry": { "type": "Point", "coordinates": [ 130.730142300000011, 32.8153802 ] } },
{ "type": "Feature", "properties": { "内容": "小規模多機能型居宅介護事業所　コムーネ黒髪【小規模多機能型居宅介護】熊本市中央区黒髪５丁目１４－２０", "url": "https://www.kaigokensaku.mhlw.go.jp/43/index.php?action_kouhyou_detail_004_kani=true&JigyosyoCd=4390100347-00&ServiceCd=730&Type=search", "url2": "http://riddell-wright.com" }, "geometry": { "type": "Point", "coordinates": [ 130.732772800000021, 32.8168412 ] } },
{ "type": "Feature", "properties": { "内容": "小規模多機能ホーム　ほのぼの・長嶺【小規模多機能型居宅介護】熊本県熊本市東区長嶺東5丁目24-13", "url": "https://www.kaigokensaku.mhlw.go.jp/43/index.php?action_kouhyou_detail_004_kani=true&JigyosyoCd=4390101154-00&ServiceCd=730&Type=search", "url2": "http://www.fukushi-greencoop.or.jp" }, "geometry": { "type": "Point", "coordinates": [ 130.776614834393285, 32.825590133153931 ] } },
{ "type": "Feature", "properties": { "内容": "小規模多機能ホーム錦ケ丘【小規模多機能型居宅介護】熊本市東区錦ケ丘26番11号", "url": "https://www.kaigokensaku.mhlw.go.jp/43/index.php?action_kouhyou_detail_004_kani=true&JigyosyoCd=4390101121-00&ServiceCd=730&Type=search", "url2": "http://yushin-wel.jp/" }, "geometry": { "type": "Point", "coordinates": [ 130.75858310000001, 32.7915269 ] } },
{ "type": "Feature", "properties": { "内容": "小規模多機能型居宅介護事業所まきの里長嶺【小規模多機能型居宅介護】熊本市東区長嶺東8丁目3-40", "url": "https://www.kaigokensaku.mhlw.go.jp/43/index.php?action_kouhyou_detail_004_kani=true&JigyosyoCd=4390101717-00&ServiceCd=730&Type=search", "url2": null }, "geometry": { "type": "Point", "coordinates": [ 130.780908899999986, 32.8307179 ] } },
{ "type": "Feature", "properties": { "内容": "小規模多機能型居宅介護事業所まきの里【小規模多機能型居宅介護】熊本市東区小山1丁目11-53", "url": "https://www.kaigokensaku.mhlw.go.jp/43/index.php?action_kouhyou_detail_004_kani=true&JigyosyoCd=4390101162-00&ServiceCd=730&Type=search", "url2": null }, "geometry": { "type": "Point", "coordinates": [ 130.782422600000018, 32.8320705 ] } },
{ "type": "Feature", "properties": { "内容": "いつでんきなっせ【小規模多機能型居宅介護】熊本市東区戸島西1丁目23-63", "url": "https://www.kaigokensaku.mhlw.go.jp/43/index.php?action_kouhyou_detail_004_kani=true&JigyosyoCd=4390100164-00&ServiceCd=730&Type=search", "url2": "http://www.kinasse.jp/" }, "geometry": { "type": "Point", "coordinates": [ 130.78597696765857, 32.809480399960165 ] } },
{ "type": "Feature", "properties": { "内容": "小規模多機能型居宅介護事業所　健軍くらしささえ愛工房【小規模多機能型居宅介護】熊本市東区栄町2-15県営住宅健軍団地1Ｆ", "url": "https://www.kaigokensaku.mhlw.go.jp/43/index.php?action_kouhyou_detail_004_kani=true&JigyosyoCd=4390100073-00&ServiceCd=730&Type=search", "url2": "http://www.kengun.net/osa/panfu/" }, "geometry": { "type": "Point", "coordinates": [ 130.760477400000013, 32.7751256 ] } },
{ "type": "Feature", "properties": { "内容": "ケアプラス小規模多機能ホーム沼山津【小規模多機能型居宅介護】熊本県熊本市東区沼山津3丁目2－34", "url": "https://www.kaigokensaku.mhlw.go.jp/43/index.php?action_kouhyou_detail_004_kani=true&JigyosyoCd=4390103523-00&ServiceCd=730&Type=search", "url2": "www.care-plus.jp" }, "geometry": { "type": "Point", "coordinates": [ 130.780737675886257, 32.777770693724506 ] } },
{ "type": "Feature", "properties": { "内容": "小規模多機能型居宅介護事業所　ひまわり園【小規模多機能型居宅介護】熊本県熊本市東区長嶺東3丁目3-70番地", "url": "https://www.kaigokensaku.mhlw.go.jp/43/index.php?action_kouhyou_detail_004_kani=true&JigyosyoCd=4390100545-00&ServiceCd=730&Type=search", "url2": "http://sunlife-nagamine.or.jp/himawari/publics/index/14/" }, "geometry": { "type": "Point", "coordinates": [ 130.77645670000004, 32.820085699999986 ] } },
{ "type": "Feature", "properties": { "内容": "小規模多機能型居宅介護事業所　きずな【小規模多機能型居宅介護】熊本市東区新南部５丁目２番６５号", "url": "https://www.kaigokensaku.mhlw.go.jp/43/index.php?action_kouhyou_detail_004_kani=true&JigyosyoCd=4390100990-00&ServiceCd=730&Type=search", "url2": "http://www.seihoukai.net/" }, "geometry": { "type": "Point", "coordinates": [ 130.748214, 32.8184077 ] } },
{ "type": "Feature", "properties": { "内容": "江津しょうぶ苑　小規模多機能ホーム【小規模多機能型居宅介護】熊本市東区画図町所島１０４０", "url": "https://www.kaigokensaku.mhlw.go.jp/43/index.php?action_kouhyou_detail_004_kani=true&JigyosyoCd=4390100255-00&ServiceCd=730&Type=search", "url2": "ｈｔｔｐ：／／ｗｗｗ．ｓhｏｕｂｕｅｎ．ｃｏｍ" }, "geometry": { "type": "Point", "coordinates": [ 130.734651100000065, 32.7716675 ] } },
{ "type": "Feature", "properties": { "内容": "小規模多機能ホームひむき【小規模多機能型居宅介護】熊本県熊本市東区戸島6丁目16番33号", "url": "https://www.kaigokensaku.mhlw.go.jp/43/index.php?action_kouhyou_detail_004_kani=true&JigyosyoCd=4390102699-00&ServiceCd=730&Type=search", "url2": "http://www.sara-care.com" }, "geometry": { "type": "Point", "coordinates": [ 130.806661797622638, 32.817811809166614 ] } },
{ "type": "Feature", "properties": { "内容": "丸ごとセンター月出【小規模多機能型居宅介護】月出８丁目３−１５１", "url": "https://www.kaigokensaku.mhlw.go.jp/43/index.php?action_kouhyou_detail_004_kani=true&JigyosyoCd=4390103697-00&ServiceCd=730&Type=search", "url2": "https://marugotocenter-tsukide.com/" }, "geometry": { "type": "Point", "coordinates": [ 130.769825, 32.807756 ] } },
{ "type": "Feature", "properties": { "内容": "小規模多機能型居宅介護　和の郷【小規模多機能型居宅介護】熊本県熊本市西区中原町５０４番地", "url": "https://www.kaigokensaku.mhlw.go.jp/43/index.php?action_kouhyou_detail_004_kani=true&JigyosyoCd=4390101410-00&ServiceCd=730&Type=search", "url2": "https://yawaragino-sato.com/pc/shi-setu.html" }, "geometry": { "type": "Point", "coordinates": [ 130.637355348934989, 32.768494228265197 ] } },
{ "type": "Feature", "properties": { "内容": "はなぞのケアセンター小規模多機能ホーム【小規模多機能型居宅介護】熊本県熊本市西区花園7丁目25－23", "url": "https://www.kaigokensaku.mhlw.go.jp/43/index.php?action_kouhyou_detail_004_kani=true&JigyosyoCd=4390100636-00&ServiceCd=730&Type=search", "url2": "http://www.shunkokai.jp" }, "geometry": { "type": "Point", "coordinates": [ 130.69070929999998, 32.8261533 ] } },
{ "type": "Feature", "properties": { "内容": "小規模多機能型居宅介護事業所　上熊本苑【小規模多機能型居宅介護】熊本県熊本市西区上熊本3丁目12番23号", "url": "https://www.kaigokensaku.mhlw.go.jp/43/index.php?action_kouhyou_detail_004_kani=true&JigyosyoCd=4390101212-00&ServiceCd=730&Type=search", "url2": "http://www.shafuku-aiseikai.or.jp" }, "geometry": { "type": "Point", "coordinates": [ 130.701811099999986, 32.82339 ] } },
{ "type": "Feature", "properties": { "内容": "小規模多機能型居宅介護事業所　小島【小規模多機能型居宅介護】熊本県熊本市西区小島５丁目１５ー３５", "url": "https://www.kaigokensaku.mhlw.go.jp/43/index.php?action_kouhyou_detail_004_kani=true&JigyosyoCd=4390103275-00&ServiceCd=730&Type=search", "url2": "https://www.shafuku-aiseikai.or.jp/facilities/oshima2/" }, "geometry": { "type": "Point", "coordinates": [ 130.63818602883606, 32.780144816036575 ] } },
{ "type": "Feature", "properties": { "内容": "小規模多機能型居宅介護事業所せいじの大和【小規模多機能型居宅介護】熊本県熊本市西区花園4丁目3番43号せいじの大和", "url": "https://www.kaigokensaku.mhlw.go.jp/43/index.php?action_kouhyou_detail_004_kani=true&JigyosyoCd=4390103176-00&ServiceCd=730&Type=search", "url2": "https://www.seijino.or.jp/" }, "geometry": { "type": "Point", "coordinates": [ 130.6916323, 32.8165077 ] } },
{ "type": "Feature", "properties": { "内容": "小規模多機能型居宅介護事業所　かがやき【小規模多機能型居宅介護】熊本市西区戸坂町23番30号", "url": "https://www.kaigokensaku.mhlw.go.jp/43/index.php?action_kouhyou_detail_004_kani=true&JigyosyoCd=4390101857-00&ServiceCd=730&Type=search", "url2": "http://www.rissi.or.jp" }, "geometry": { "type": "Point", "coordinates": [ 130.682113, 32.7998056 ] } },
{ "type": "Feature", "properties": { "内容": "小規模多機能ホーム池田ヒルズ【小規模多機能型居宅介護】熊本県熊本市西区池田2丁目3番22号", "url": "https://www.kaigokensaku.mhlw.go.jp/43/index.php?action_kouhyou_detail_004_kani=true&JigyosyoCd=4390101147-00&ServiceCd=730&Type=search", "url2": null }, "geometry": { "type": "Point", "coordinates": [ 130.709438200000022, 32.8295952 ] } },
{ "type": "Feature", "properties": { "内容": "小規模多機能型居宅介護夢眠くまもとにし【小規模多機能型居宅介護】熊本県熊本市西区城山大塘1丁目22番11号", "url": "https://www.kaigokensaku.mhlw.go.jp/43/index.php?action_kouhyou_detail_004_kani=true&JigyosyoCd=4390103077-00&ServiceCd=730&Type=search", "url2": "http://muminhome.jp/kumamotonishi-smh/" }, "geometry": { "type": "Point", "coordinates": [ 130.6585979, 32.777771499999979 ] } },
{ "type": "Feature", "properties": { "内容": "小規模多機能ホーム　むーみん【小規模多機能型居宅介護】熊本県熊本市南区城南町塚原字丸山１２６０番８", "url": "https://www.kaigokensaku.mhlw.go.jp/43/index.php?action_kouhyou_detail_004_kani=true&JigyosyoCd=4390101550-00&ServiceCd=730&Type=search", "url2": null }, "geometry": { "type": "Point", "coordinates": [ 130.73480440000003, 32.6940078 ] } },
{ "type": "Feature", "properties": { "内容": "小規模多機能型居宅介護事業所　楽しい家飽田南【小規模多機能型居宅介護】熊本県熊本市南区護藤町1599", "url": "https://www.kaigokensaku.mhlw.go.jp/43/index.php?action_kouhyou_detail_004_kani=true&JigyosyoCd=4390101618-00&ServiceCd=730&Type=search", "url2": "www.koborien.or.jp" }, "geometry": { "type": "Point", "coordinates": [ 130.6643272, 32.7495602 ] } },
{ "type": "Feature", "properties": { "内容": "小規模多機能ハウスほがらか【小規模多機能型居宅介護】熊本市南区御幸笛田6丁目6番88号", "url": "https://www.kaigokensaku.mhlw.go.jp/43/index.php?action_kouhyou_detail_004_kani=true&JigyosyoCd=4390100487-00&ServiceCd=730&Type=search", "url2": "http://www.miyukinosato.or.jp" }, "geometry": { "type": "Point", "coordinates": [ 130.7112396, 32.7578406 ] } },
{ "type": "Feature", "properties": { "内容": "小規模多機能型居宅介護施設　もねろ【小規模多機能型居宅介護】熊本県熊本市南区富合町菰江245番地", "url": "https://www.kaigokensaku.mhlw.go.jp/43/index.php?action_kouhyou_detail_004_kani=true&JigyosyoCd=4390101428-00&ServiceCd=730&Type=search", "url2": null }, "geometry": { "type": "Point", "coordinates": [ 130.6602222570084, 32.722790004507544 ] } },
{ "type": "Feature", "properties": { "内容": "小規模多機能型居宅介護事業所　ヒルサイドガーデンひなぎく【小規模多機能型居宅介護】熊本県熊本市南区城南町今吉野９８９番地", "url": "https://www.kaigokensaku.mhlw.go.jp/43/index.php?action_kouhyou_detail_004_kani=true&JigyosyoCd=4390101014-00&ServiceCd=730&Type=search", "url2": "http://sugimurakai.jp/hinagiku" }, "geometry": { "type": "Point", "coordinates": [ 130.733695400000016, 32.71531150000002 ] } },
{ "type": "Feature", "properties": { "内容": "小規模多機能型居宅介護くまのしょう【小規模多機能型居宅介護】熊本県熊本市南区城南町下宮地722番地６", "url": "https://www.kaigokensaku.mhlw.go.jp/43/index.php?action_kouhyou_detail_004_kani=true&JigyosyoCd=4390101907-00&ServiceCd=730&Type=search", "url2": "www.k-group.jp" }, "geometry": { "type": "Point", "coordinates": [ 130.72351320000007, 32.7034348 ] } },
{ "type": "Feature", "properties": { "内容": "小規模多機能型居宅介護事業所　道標【小規模多機能型居宅介護】熊本県熊本市南区中無田町　６４９番地１", "url": "https://www.kaigokensaku.mhlw.go.jp/43/index.php?action_kouhyou_detail_004_kani=true&JigyosyoCd=4390102095-00&ServiceCd=730&Type=search", "url2": "https://michi-shirube.co.jp./wp" }, "geometry": { "type": "Point", "coordinates": [ 130.669958779098579, 32.734916074696216 ] } },
{ "type": "Feature", "properties": { "内容": "株式会社　桜会【小規模多機能型居宅介護】熊本県熊本市南区八分字町19番地", "url": "https://www.kaigokensaku.mhlw.go.jp/43/index.php?action_kouhyou_detail_004_kani=true&JigyosyoCd=4390101576-00&ServiceCd=730&Type=search", "url2": "https://www.kumamoto-aqua.com/" }, "geometry": { "type": "Point", "coordinates": [ 130.665048899999988, 32.7637228 ] } },
{ "type": "Feature", "properties": { "内容": "小規模多機能型居宅介護よかひより【小規模多機能型居宅介護】熊本市南区富合町廻江５９９－１", "url": "https://www.kaigokensaku.mhlw.go.jp/43/index.php?action_kouhyou_detail_004_kani=true&JigyosyoCd=4392300069-00&ServiceCd=730&Type=search", "url2": "https://wasoukai.com/" }, "geometry": { "type": "Point", "coordinates": [ 130.6816854, 32.7169241 ] } },
{ "type": "Feature", "properties": { "内容": "小規模多機能型居宅介護事業所つるのはら【小規模多機能型居宅介護】熊本県熊本市北区梶尾町1779-7", "url": "https://www.kaigokensaku.mhlw.go.jp/43/index.php?action_kouhyou_detail_004_kani=true&JigyosyoCd=4390101584-00&ServiceCd=730&Type=search", "url2": "http：//www.shafuku-aiseikai.or.jp/" }, "geometry": { "type": "Point", "coordinates": [ 130.728914263407205, 32.867517393862357 ] } },
{ "type": "Feature", "properties": { "内容": "小規模多機能型居宅介護事業所　せせらぎ【小規模多機能型居宅介護】熊本県熊本市北区高平3丁目16-50", "url": "https://www.kaigokensaku.mhlw.go.jp/43/index.php?action_kouhyou_detail_004_kani=true&JigyosyoCd=4390100495-00&ServiceCd=730&Type=search", "url2": "https://www.shafuku-aiseikai.or.jp" }, "geometry": { "type": "Point", "coordinates": [ 130.717019922090145, 32.838417765686806 ] } },
{ "type": "Feature", "properties": { "内容": "小規模多機能型居宅介護支援事業所　八景水谷【小規模多機能型居宅介護】熊本市北区八景水谷2丁目14-30", "url": "https://www.kaigokensaku.mhlw.go.jp/43/index.php?action_kouhyou_detail_004_kani=true&JigyosyoCd=4390102772-00&ServiceCd=730&Type=search", "url2": null }, "geometry": { "type": "Point", "coordinates": [ 130.7280428, 32.8461628 ] } },
{ "type": "Feature", "properties": { "内容": "きなっせ【小規模多機能型居宅介護】熊本市北区小糸山町７７１－５", "url": "https://www.kaigokensaku.mhlw.go.jp/43/index.php?action_kouhyou_detail_004_kani=true&JigyosyoCd=4390100156-00&ServiceCd=730&Type=search", "url2": "http://www.kinasse.jp" }, "geometry": { "type": "Point", "coordinates": [ 130.693749799999978, 32.8924336 ] } },
{ "type": "Feature", "properties": { "内容": "つどい処　愛和【小規模多機能型居宅介護】熊本県熊本市北区龍田8丁目20番95号", "url": "https://www.kaigokensaku.mhlw.go.jp/43/index.php?action_kouhyou_detail_004_kani=true&JigyosyoCd=4390101279-00&ServiceCd=730&Type=search", "url2": null }, "geometry": { "type": "Point", "coordinates": [ 130.761043699999988, 32.8409613 ] } },
{ "type": "Feature", "properties": { "内容": "小規模多機能ホームたいじゅ【小規模多機能型居宅介護】熊本市北区貢町６５", "url": "https://www.kaigokensaku.mhlw.go.jp/43/index.php?action_kouhyou_detail_004_kani=true&JigyosyoCd=4390101055-00&ServiceCd=730&Type=search", "url2": "http://taiju.co.jp/" }, "geometry": { "type": "Point", "coordinates": [ 130.702105399999937, 32.8449353 ] } },
{ "type": "Feature", "properties": { "内容": "小規模多機能ホームはけのみや【小規模多機能型居宅介護】熊本市北区山室４丁目９－３０八景水谷昭和館", "url": "https://www.kaigokensaku.mhlw.go.jp/43/index.php?action_kouhyou_detail_004_kani=true&JigyosyoCd=4390100982-00&ServiceCd=730&Type=search", "url2": "http://www.syowakan.jp" }, "geometry": { "type": "Point", "coordinates": [ 130.720434399999931, 32.8419222 ] } },
{ "type": "Feature", "properties": { "内容": "小規模多機能型居宅介護リリーフ【小規模多機能型居宅介護】熊本県熊本市北区硯川町字柳田1528番１", "url": "https://www.kaigokensaku.mhlw.go.jp/43/index.php?action_kouhyou_detail_004_kani=true&JigyosyoCd=4390102939-00&ServiceCd=730&Type=search", "url2": null }, "geometry": { "type": "Point", "coordinates": [ 130.691771, 32.8642912 ] } },
{ "type": "Feature", "properties": { "内容": "小規模多機能ホーム田原ふれあいの家【小規模多機能型居宅介護】熊本市北区植木町鞍掛１７９１番地", "url": "https://www.kaigokensaku.mhlw.go.jp/43/index.php?action_kouhyou_detail_004_kani=true&JigyosyoCd=4390101105-00&ServiceCd=730&Type=search", "url2": "http://tabarufureainoie.com" }, "geometry": { "type": "Point", "coordinates": [ 130.675553722476224, 32.901991106332083 ] } },
{ "type": "Feature", "properties": { "内容": "吉方庵【小規模多機能型居宅介護】熊本県八代市千丁町新牟田2520-2", "url": "https://www.kaigokensaku.mhlw.go.jp/43/index.php?action_kouhyou_detail_004_kani=true&JigyosyoCd=4390200022-00&ServiceCd=730&Type=search", "url2": "https://kippo-yatsushiro.com/" }, "geometry": { "type": "Point", "coordinates": [ 130.629666033729592, 32.535410406650101 ] } },
{ "type": "Feature", "properties": { "内容": "なごみの広場【小規模多機能型居宅介護】熊本県八代市豊原下町4115番地", "url": "https://www.kaigokensaku.mhlw.go.jp/43/index.php?action_kouhyou_detail_004_kani=true&JigyosyoCd=4390200071-00&ServiceCd=730&Type=search", "url2": "http://www.tenryuukai.jp/nagominohiroba/index.htm" }, "geometry": { "type": "Point", "coordinates": [ 130.609617354106149, 32.479829636947017 ] } },
{ "type": "Feature", "properties": { "内容": "小規模多機能ホーム　ブロッサム【小規模多機能型居宅介護】熊本県八代市沖町3604番地", "url": "https://www.kaigokensaku.mhlw.go.jp/43/index.php?action_kouhyou_detail_004_kani=true&JigyosyoCd=4390200105-00&ServiceCd=730&Type=search", "url2": "http://hc-b.com/shoukibo/" }, "geometry": { "type": "Point", "coordinates": [ 130.5881276, 32.5283212 ] } },
{ "type": "Feature", "properties": { "内容": "小規模多機能型居宅介護事業所桃の花【小規模多機能型居宅介護】熊本県八代市鏡町両出1327-1", "url": "https://www.kaigokensaku.mhlw.go.jp/43/index.php?action_kouhyou_detail_004_kani=true&JigyosyoCd=4390200121-00&ServiceCd=730&Type=search", "url2": null }, "geometry": { "type": "Point", "coordinates": [ 130.629429, 32.5583624 ] } },
{ "type": "Feature", "properties": { "内容": "小規模多機能ホームブロッサムⅡ【小規模多機能型居宅介護】郡築三番町81番1号", "url": "https://www.kaigokensaku.mhlw.go.jp/43/index.php?action_kouhyou_detail_004_kani=true&JigyosyoCd=4390200493-00&ServiceCd=730&Type=search", "url2": "https://hc-b.com" }, "geometry": { "type": "Point", "coordinates": [ 130.567266600000011, 32.5245496 ] } },
{ "type": "Feature", "properties": { "内容": "木もれびの家【小規模多機能型居宅介護】熊本県八代市東陽町南1067-1", "url": "https://www.kaigokensaku.mhlw.go.jp/43/index.php?action_kouhyou_detail_004_kani=true&JigyosyoCd=4390200527-00&ServiceCd=730&Type=search", "url2": "https://4-heart.com/" }, "geometry": { "type": "Point", "coordinates": [ 130.716363962565595, 32.546991829107675 ] } },
{ "type": "Feature", "properties": { "内容": "憩いの家　楽しみ【小規模多機能型居宅介護】熊本県八代市新町3番２１号", "url": "https://www.kaigokensaku.mhlw.go.jp/43/index.php?action_kouhyou_detail_004_kani=true&JigyosyoCd=4390200048-00&ServiceCd=730&Type=search", "url2": null }, "geometry": { "type": "Point", "coordinates": [ 130.610701100000028, 32.5071376 ] } },
{ "type": "Feature", "properties": { "内容": "小規模多機能ホーム　こうだ【小規模多機能型居宅介護】八代市　高下西町１７６０番地", "url": "https://www.kaigokensaku.mhlw.go.jp/43/index.php?action_kouhyou_detail_004_kani=true&JigyosyoCd=4390200113-00&ServiceCd=730&Type=search", "url2": "http://www.gongen.org" }, "geometry": { "type": "Point", "coordinates": [ 130.608510300000034, 32.4869504 ] } },
{ "type": "Feature", "properties": { "内容": "小規模多機能介護事業所聖心園【小規模多機能型居宅介護】熊本県人吉市南町１８番地４", "url": "https://www.kaigokensaku.mhlw.go.jp/43/index.php?action_kouhyou_detail_004_kani=true&JigyosyoCd=4390300012-00&ServiceCd=730&Type=search", "url2": null }, "geometry": { "type": "Point", "coordinates": [ 130.763526700000057, 32.2059077 ] } },
{ "type": "Feature", "properties": { "内容": "小規模多機能型居宅介護事業所菜の花【小規模多機能型居宅介護】熊本県人吉市下林町２７９６番地１", "url": "https://www.kaigokensaku.mhlw.go.jp/43/index.php?action_kouhyou_detail_004_kani=true&JigyosyoCd=4390300582-00&ServiceCd=730&Type=search", "url2": "http://nanoha7.com/" }, "geometry": { "type": "Point", "coordinates": [ 130.734538455294768, 32.215073979925045 ] } },
{ "type": "Feature", "properties": { "内容": "なごみの里【小規模多機能型居宅介護】熊本県人吉市下林町大島103", "url": "https://www.kaigokensaku.mhlw.go.jp/43/index.php?action_kouhyou_detail_004_kani=true&JigyosyoCd=4390300038-00&ServiceCd=730&Type=search", "url2": "ｎａｇｏｍｉｎｏｓａｔｏ＠ｔｓｕｂａｍｅ－ｔａｘｉ．ｃｏ．ｊｐ" }, "geometry": { "type": "Point", "coordinates": [ 130.740112085627715, 32.220456578448349 ] } },
{ "type": "Feature", "properties": { "内容": "せいわあらおの里【小規模多機能型居宅介護】熊本県荒尾市本井手1480-12", "url": "https://www.kaigokensaku.mhlw.go.jp/43/index.php?action_kouhyou_detail_004_kani=true&JigyosyoCd=4390400028-00&ServiceCd=730&Type=search", "url2": null }, "geometry": { "type": "Point", "coordinates": [ 130.473924006468224, 32.989833013132902 ] } },
{ "type": "Feature", "properties": { "内容": "小規模多機能ホーム　かわせみ苑【小規模多機能型居宅介護】熊本県荒尾市荒尾4186番地15", "url": "https://www.kaigokensaku.mhlw.go.jp/43/index.php?action_kouhyou_detail_004_kani=true&JigyosyoCd=4390400036-00&ServiceCd=730&Type=search", "url2": "http://careport-midorigaoka.com/" }, "geometry": { "type": "Point", "coordinates": [ 130.465341900000027, 32.983354600000034 ] } },
{ "type": "Feature", "properties": { "内容": "小規模多機能ホーム　柳花荘【小規模多機能型居宅介護】熊本県荒尾市増永1534番地1", "url": "https://www.kaigokensaku.mhlw.go.jp/43/index.php?action_kouhyou_detail_004_kani=true&JigyosyoCd=4390400044-00&ServiceCd=730&Type=search", "url2": "https://www.senshinkai.or.jp/ryukaso" }, "geometry": { "type": "Point", "coordinates": [ 130.4503597, 32.9727086 ] } },
{ "type": "Feature", "properties": { "内容": "くぎのの里・せいりゅうの里（サテライト）【小規模多機能型居宅介護】久木野８２６－５", "url": "https://www.kaigokensaku.mhlw.go.jp/43/index.php?action_kouhyou_detail_004_kani=true&JigyosyoCd=4390500082-00&ServiceCd=730&Type=search", "url2": null }, "geometry": { "type": "Point", "coordinates": [ 130.5301237, 32.1719593 ] } },
{ "type": "Feature", "properties": { "内容": "社会福祉法人グリーンコープ　小規模多機能ホーム　ほのぼの・水俣【小規模多機能型居宅介護】水俣市汐見町1－4－3－1", "url": "https://www.kaigokensaku.mhlw.go.jp/43/index.php?action_kouhyou_detail_004_kani=true&JigyosyoCd=4390500140-00&ServiceCd=730&Type=search", "url2": "http://www.fukushi-greencoop.or.jp" }, "geometry": { "type": "Point", "coordinates": [ 130.3862282, 32.2017777 ] } },
{ "type": "Feature", "properties": { "内容": "小規模多機能型居宅介護　オハナ【小規模多機能型居宅介護】熊本県水俣市陣内2-5-11小規模多機能型居宅介護　オハナ", "url": "https://www.kaigokensaku.mhlw.go.jp/43/index.php?action_kouhyou_detail_004_kani=true&JigyosyoCd=4390500181-00&ServiceCd=730&Type=search", "url2": null }, "geometry": { "type": "Point", "coordinates": [ 130.412436669975307, 32.207298993413261 ] } },
{ "type": "Feature", "properties": { "内容": "小規模多機能ホーム　ほのぼの・玉名【小規模多機能型居宅介護】熊本県玉名市立願寺７９８－１", "url": "https://www.kaigokensaku.mhlw.go.jp/43/index.php?action_kouhyou_detail_004_kani=true&JigyosyoCd=4390600155-00&ServiceCd=730&Type=search", "url2": "http://www.fukushi-greencoop.or.jp" }, "geometry": { "type": "Point", "coordinates": [ 130.553869615730491, 32.940747476441508 ] } },
{ "type": "Feature", "properties": { "内容": "小規模多機能型居宅介護事業所きらめき【小規模多機能型居宅介護】熊本県玉名市天水町小天6634-2", "url": "https://www.kaigokensaku.mhlw.go.jp/43/index.php?action_kouhyou_detail_004_kani=true&JigyosyoCd=4390600122-00&ServiceCd=730&Type=search", "url2": "http:/www.taganosato.com/" }, "geometry": { "type": "Point", "coordinates": [ 130.589559099999974, 32.8591382 ] } },
{ "type": "Feature", "properties": { "内容": "彦岳ビュー愛隣の家小規模多機能型居宅介護事業所【小規模多機能型居宅介護】熊本県山鹿市津留２０６０－２", "url": "https://www.kaigokensaku.mhlw.go.jp/43/index.php?action_kouhyou_detail_004_kani=true&JigyosyoCd=4390800045-00&ServiceCd=730&Type=search", "url2": null }, "geometry": { "type": "Point", "coordinates": [ 130.68664160000003, 33.0553521 ] } },
{ "type": "Feature", "properties": { "内容": "小規模多機能型居宅介護事業所　音色【小規模多機能型居宅介護】山鹿市菊鹿町下内田７７－１", "url": "https://www.kaigokensaku.mhlw.go.jp/43/index.php?action_kouhyou_detail_004_kani=true&JigyosyoCd=4390800052-00&ServiceCd=730&Type=search", "url2": "http://www.seisinkai.co.jp" }, "geometry": { "type": "Point", "coordinates": [ 130.767447, 33.0242476 ] } },
{ "type": "Feature", "properties": { "内容": "しいの木の里【小規模多機能型居宅介護】熊本県山鹿市鹿本町来民１１３５の１", "url": "https://www.kaigokensaku.mhlw.go.jp/43/index.php?action_kouhyou_detail_004_kani=true&JigyosyoCd=4390800060-00&ServiceCd=730&Type=search", "url2": "http://www.yukikai.or.jp/" }, "geometry": { "type": "Point", "coordinates": [ 130.744313299999931, 33.0002942 ] } },
{ "type": "Feature", "properties": { "内容": "小規模多機能ホーム　かほく【小規模多機能型居宅介護】鹿北町四丁1568番地", "url": "https://www.kaigokensaku.mhlw.go.jp/43/index.php?action_kouhyou_detail_004_kani=true&JigyosyoCd=4390800136-00&ServiceCd=730&Type=search", "url2": "spzs7bd9@extra.ocn.ne.jp" }, "geometry": { "type": "Point", "coordinates": [ 130.695286099999947, 33.1093529 ] } },
{ "type": "Feature", "properties": { "内容": "小規模多機能型居宅介護事業所　岩原の郷【小規模多機能型居宅介護】山鹿市鹿央町岩原４２２４", "url": "https://www.kaigokensaku.mhlw.go.jp/43/index.php?action_kouhyou_detail_004_kani=true&JigyosyoCd=4390800144-00&ServiceCd=730&Type=search", "url2": null }, "geometry": { "type": "Point", "coordinates": [ 130.677510699999971, 32.9898999 ] } },
{ "type": "Feature", "properties": { "内容": "小規模多機能ホームたけま（サテライト型）【小規模多機能型居宅介護】鹿北町多久1052番地", "url": "https://www.kaigokensaku.mhlw.go.jp/43/index.php?action_kouhyou_detail_004_kani=true&JigyosyoCd=4390800219-00&ServiceCd=730&Type=search", "url2": null }, "geometry": { "type": "Point", "coordinates": [ 130.73633760000007, 33.1063845 ] } },
{ "type": "Feature", "properties": { "内容": "小規模多機能型居宅介護事業所くらつか【小規模多機能型居宅介護】熊本県山鹿市熊入町３１３番地", "url": "https://www.kaigokensaku.mhlw.go.jp/43/index.php?action_kouhyou_detail_004_kani=true&JigyosyoCd=4390800094-00&ServiceCd=730&Type=search", "url2": "http://seiei-kai.com" }, "geometry": { "type": "Point", "coordinates": [ 130.683470700000044, 33.0282573 ] } },
{ "type": "Feature", "properties": { "内容": "小規模多機能ホーム　いつでんくるばい【小規模多機能型居宅介護】山鹿市熊入町１０９３番地", "url": "https://www.kaigokensaku.mhlw.go.jp/43/index.php?action_kouhyou_detail_004_kani=true&JigyosyoCd=4390800151-00&ServiceCd=730&Type=search", "url2": "http://www.kinasse.jp/" }, "geometry": { "type": "Point", "coordinates": [ 130.6859733, 33.0233716 ] } },
{ "type": "Feature", "properties": { "内容": "くるばい三玉【小規模多機能型居宅介護】熊本県山鹿市久原5509番地", "url": "https://www.kaigokensaku.mhlw.go.jp/43/index.php?action_kouhyou_detail_004_kani=true&JigyosyoCd=4390810036-00&ServiceCd=730&Type=search", "url2": "www.kinasse.jp" }, "geometry": { "type": "Point", "coordinates": [ 130.7239758, 33.0283589 ] } },
{ "type": "Feature", "properties": { "内容": "小規模多機能ホーム　湯乃端【小規模多機能型居宅介護】熊本県山鹿市山鹿1631－1", "url": "https://www.kaigokensaku.mhlw.go.jp/43/index.php?action_kouhyou_detail_004_kani=true&JigyosyoCd=4390810069-00&ServiceCd=730&Type=search", "url2": null }, "geometry": { "type": "Point", "coordinates": [ 130.687851085844386, 33.014126508707726 ] } },
{ "type": "Feature", "properties": { "内容": "小規模多機能ホームうすづか【小規模多機能型居宅介護】熊本県山鹿市石626番地", "url": "https://www.kaigokensaku.mhlw.go.jp/43/index.php?action_kouhyou_detail_004_kani=true&JigyosyoCd=4390800201-00&ServiceCd=730&Type=search", "url2": "http://tibusansou.com/" }, "geometry": { "type": "Point", "coordinates": [ 130.675671299999976, 33.0258381 ] } },
{ "type": "Feature", "properties": { "内容": "小規模多機能ホーム　ひごっ家【小規模多機能型居宅介護】泗水町福本780番", "url": "https://www.kaigokensaku.mhlw.go.jp/43/index.php?action_kouhyou_detail_004_kani=true&JigyosyoCd=4391000041-00&ServiceCd=730&Type=search", "url2": "hckousikai.com" }, "geometry": { "type": "Point", "coordinates": [ 130.77438034946465, 32.92035297780842 ] } },
{ "type": "Feature", "properties": { "内容": "たきのうホーム大平【小規模多機能型居宅介護】大平597", "url": "https://www.kaigokensaku.mhlw.go.jp/43/index.php?action_kouhyou_detail_004_kani=true&JigyosyoCd=4391000058-00&ServiceCd=730&Type=search", "url2": null }, "geometry": { "type": "Point", "coordinates": [ 130.829612713372256, 32.994544523534962 ] } },
{ "type": "Feature", "properties": { "内容": "小規模多機能事業所ぬくもり【小規模多機能型居宅介護】宇土市松山１９０８－１", "url": "https://www.kaigokensaku.mhlw.go.jp/43/index.php?action_kouhyou_detail_004_kani=true&JigyosyoCd=4391100015-00&ServiceCd=730&Type=search", "url2": "http://k-shinryou.jp/" }, "geometry": { "type": "Point", "coordinates": [ 130.671688924582952, 32.669657319221635 ] } },
{ "type": "Feature", "properties": { "内容": "小規模多機能ホームうと本町【小規模多機能型居宅介護】熊本県宇土市新小路町２番地", "url": "https://www.kaigokensaku.mhlw.go.jp/43/index.php?action_kouhyou_detail_004_kani=true&JigyosyoCd=4391100023-00&ServiceCd=730&Type=search", "url2": "http://www.kanamori.or.jp/" }, "geometry": { "type": "Point", "coordinates": [ 130.6636433, 32.6864488 ] } },
{ "type": "Feature", "properties": { "内容": "小規模多機能型居宅介護事業所あじさい【小規模多機能型居宅介護】熊本県宇土市住吉町2236番地1", "url": "https://www.kaigokensaku.mhlw.go.jp/43/index.php?action_kouhyou_detail_004_kani=true&JigyosyoCd=4391100031-00&ServiceCd=730&Type=search", "url2": "http://ajisai-uto.jp/" }, "geometry": { "type": "Point", "coordinates": [ 130.595019099999945, 32.7026856 ] } },
{ "type": "Feature", "properties": { "内容": "小規模多機能ホームゆあせるふ【小規模多機能型居宅介護】大矢野町登立１８６－３", "url": "https://www.kaigokensaku.mhlw.go.jp/43/index.php?action_kouhyou_detail_004_kani=true&JigyosyoCd=4391200104-00&ServiceCd=730&Type=search", "url2": "http://www.pcb-yourself.co.jp/" }, "geometry": { "type": "Point", "coordinates": [ 130.438545200000021, 32.5935078 ] } },
{ "type": "Feature", "properties": { "内容": "石蕗の郷【小規模多機能型居宅介護】熊本県上天草市姫戸町姫浦4749番地21", "url": "https://www.kaigokensaku.mhlw.go.jp/43/index.php?action_kouhyou_detail_004_kani=true&JigyosyoCd=4391200062-00&ServiceCd=730&Type=search", "url2": null }, "geometry": { "type": "Point", "coordinates": [ 130.433170396295168, 32.467007471103592 ] } },
{ "type": "Feature", "properties": { "内容": "小規模多機能型居宅介護　笑顔の楽園【小規模多機能型居宅介護】熊本県宇城市不知火町松合１２１－１", "url": "https://www.kaigokensaku.mhlw.go.jp/43/index.php?action_kouhyou_detail_004_kani=true&JigyosyoCd=4391300037-00&ServiceCd=730&Type=search", "url2": null }, "geometry": { "type": "Point", "coordinates": [ 130.608059599999933, 32.6298307 ] } },
{ "type": "Feature", "properties": { "内容": "フォーシーズン在宅ケアセンター【小規模多機能型居宅介護】熊本県宇城市松橋町両仲間781-1", "url": "https://www.kaigokensaku.mhlw.go.jp/43/index.php?action_kouhyou_detail_004_kani=true&JigyosyoCd=4391300045-00&ServiceCd=730&Type=search", "url2": "http://fo-season.jp/" }, "geometry": { "type": "Point", "coordinates": [ 130.698029, 32.6331237 ] } },
{ "type": "Feature", "properties": { "内容": "小規模多機能型居宅介護　プラスフォーシーズン【小規模多機能型居宅介護】宇城市松橋町久具２０５９－１", "url": "https://www.kaigokensaku.mhlw.go.jp/43/index.php?action_kouhyou_detail_004_kani=true&JigyosyoCd=4391300060-00&ServiceCd=730&Type=search", "url2": "http://fo-season.jp" }, "geometry": { "type": "Point", "coordinates": [ 130.697595411631028, 32.642022163286434 ] } },
{ "type": "Feature", "properties": { "内容": "小規模多機能ハウスきらら【小規模多機能型居宅介護】熊本県宇城市松橋町きらら1-9-8", "url": "https://www.kaigokensaku.mhlw.go.jp/43/index.php?action_kouhyou_detail_004_kani=true&JigyosyoCd=4391300078-00&ServiceCd=730&Type=search", "url2": null }, "geometry": { "type": "Point", "coordinates": [ 130.676521500000035, 32.6458526 ] } },
{ "type": "Feature", "properties": { "内容": "小規模多機能型居宅介護　フォーシーズン浦川内【小規模多機能型居宅介護】熊本県宇城市松橋町浦川内１３４２－６", "url": "https://www.kaigokensaku.mhlw.go.jp/43/index.php?action_kouhyou_detail_004_kani=true&JigyosyoCd=4391300086-00&ServiceCd=730&Type=search", "url2": "http://fo-season.jp/" }, "geometry": { "type": "Point", "coordinates": [ 130.718778653967291, 32.649340651669611 ] } },
{ "type": "Feature", "properties": { "内容": "ＪＡうきうき小規模多機能ホームさんさん【小規模多機能型居宅介護】熊本県宇城市不知火町長崎７２－１", "url": "https://www.kaigokensaku.mhlw.go.jp/43/index.php?action_kouhyou_detail_004_kani=true&JigyosyoCd=4391300219-00&ServiceCd=730&Type=search", "url2": null }, "geometry": { "type": "Point", "coordinates": [ 138.252924, 36.204824 ] } },
{ "type": "Feature", "properties": { "内容": "小規模多機能ハウス　インマイライフ【小規模多機能型居宅介護】熊本県宇城市松橋町砂川1732-1", "url": "https://www.kaigokensaku.mhlw.go.jp/43/index.php?action_kouhyou_detail_004_kani=true&JigyosyoCd=4391300227-00&ServiceCd=730&Type=search", "url2": "www.uki-nakamura-clinic.jp" }, "geometry": { "type": "Point", "coordinates": [ 130.677715, 32.6087058 ] } },
{ "type": "Feature", "properties": { "内容": "小規模多機能ホーム　　ひだまりの里【小規模多機能型居宅介護】熊本県阿蘇市一の宮町宮地5861-2", "url": "https://www.kaigokensaku.mhlw.go.jp/43/index.php?action_kouhyou_detail_004_kani=true&JigyosyoCd=4391400019-00&ServiceCd=730&Type=search", "url2": "http://www.daitokukai.info/" }, "geometry": { "type": "Point", "coordinates": [ 131.111997803881309, 32.934088690178299 ] } },
{ "type": "Feature", "properties": { "内容": "小規模多機能型居宅介護つどい【小規模多機能型居宅介護】阿蘇市小池9番地", "url": "https://www.kaigokensaku.mhlw.go.jp/43/index.php?action_kouhyou_detail_004_kani=true&JigyosyoCd=4391400035-00&ServiceCd=730&Type=search", "url2": "http://tsudoi.main.jp" }, "geometry": { "type": "Point", "coordinates": [ 131.059235400000034, 32.972721 ] } },
{ "type": "Feature", "properties": { "内容": "小規模多機能ホーム葉山苑　天領の杜【小規模多機能型居宅介護】熊本県天草市本町下河内2231", "url": "https://www.kaigokensaku.mhlw.go.jp/43/index.php?action_kouhyou_detail_004_kani=true&JigyosyoCd=4391500081-00&ServiceCd=730&Type=search", "url2": "http://www.hayamaen.com/" }, "geometry": { "type": "Point", "coordinates": [ 130.165366799999987, 32.4738778 ] } },
{ "type": "Feature", "properties": { "内容": "多機能ハウス泉寿苑【小規模多機能型居宅介護】熊本県天草市牛深町2525", "url": "https://www.kaigokensaku.mhlw.go.jp/43/index.php?action_kouhyou_detail_004_kani=true&JigyosyoCd=4391500131-00&ServiceCd=730&Type=search", "url2": "senjuen@mx41.tiki.ne.jp" }, "geometry": { "type": "Point", "coordinates": [ 130.023634899999934, 32.1950888 ] } },
{ "type": "Feature", "properties": { "内容": "小規模多機能ホーム大空【小規模多機能型居宅介護】天草市有明町下津浦　５１０３番地２", "url": "https://www.kaigokensaku.mhlw.go.jp/43/index.php?action_kouhyou_detail_004_kani=true&JigyosyoCd=4391500156-00&ServiceCd=730&Type=search", "url2": "http://amakusa.care" }, "geometry": { "type": "Point", "coordinates": [ 130.288765399999988, 32.4834186 ] } },
{ "type": "Feature", "properties": { "内容": "小規模多機能ホームひだまり【小規模多機能型居宅介護】新和町小宮地763番地11", "url": "https://www.kaigokensaku.mhlw.go.jp/43/index.php?action_kouhyou_detail_004_kani=true&JigyosyoCd=4391500230-00&ServiceCd=730&Type=search", "url2": null }, "geometry": { "type": "Point", "coordinates": [ 130.184970208598315, 32.370462867090673 ] } },
{ "type": "Feature", "properties": { "内容": "多機能ハウスあかね苑【小規模多機能型居宅介護】熊本県天草市久玉町5716-9", "url": "https://www.kaigokensaku.mhlw.go.jp/43/index.php?action_kouhyou_detail_004_kani=true&JigyosyoCd=4391500271-00&ServiceCd=730&Type=search", "url2": "https://matsumotonaikaganka.jp/" }, "geometry": { "type": "Point", "coordinates": [ 130.028464500000041, 32.2139567 ] } },
{ "type": "Feature", "properties": { "内容": "小規模多機能ホームみんなの家【小規模多機能型居宅介護】天草町大江7480番地6", "url": "https://www.kaigokensaku.mhlw.go.jp/43/index.php?action_kouhyou_detail_004_kani=true&JigyosyoCd=4391500248-00&ServiceCd=730&Type=search", "url2": null }, "geometry": { "type": "Point", "coordinates": [ 129.993177606607105, 32.323169720567243 ] } },
{ "type": "Feature", "properties": { "内容": "小規模多機能ホーム　帽子岳の里【小規模多機能型居宅介護】熊本県天草市亀場町食場1270-3", "url": "https://www.kaigokensaku.mhlw.go.jp/43/index.php?action_kouhyou_detail_004_kani=true&JigyosyoCd=4391500222-00&ServiceCd=730&Type=search", "url2": null }, "geometry": { "type": "Point", "coordinates": [ 130.175326300000052, 32.4322009 ] } },
{ "type": "Feature", "properties": { "内容": "小規模多機能あんじん【小規模多機能型居宅介護】熊本県天草市久玉町334番地1", "url": "https://www.kaigokensaku.mhlw.go.jp/43/index.php?action_kouhyou_detail_004_kani=true&JigyosyoCd=4391500453-00&ServiceCd=730&Type=search", "url2": null }, "geometry": { "type": "Point", "coordinates": [ 130.0511942, 32.2441638 ] } },
{ "type": "Feature", "properties": { "内容": "多機能ホームやまぐち【小規模多機能型居宅介護】本渡町本渡950番地1", "url": "https://www.kaigokensaku.mhlw.go.jp/43/index.php?action_kouhyou_detail_004_kani=true&JigyosyoCd=4391500214-00&ServiceCd=730&Type=search", "url2": "https://jikouen.com/" }, "geometry": { "type": "Point", "coordinates": [ 130.172730799999954, 32.4598568 ] } },
{ "type": "Feature", "properties": { "内容": "小規模多機能型居宅介護事業所　ののしまハウス【小規模多機能型居宅介護】熊本県合志市野々島２５９５番１", "url": "https://www.kaigokensaku.mhlw.go.jp/43/index.php?action_kouhyou_detail_004_kani=true&JigyosyoCd=4391600014-00&ServiceCd=730&Type=search", "url2": "http://www.sanshikaikikukaen.or.jp" }, "geometry": { "type": "Point", "coordinates": [ 130.734935299999961, 32.9054583 ] } },
{ "type": "Feature", "properties": { "内容": "小規模多機能ホームさくらんぼ須屋【小規模多機能型居宅介護】熊本県合志市須屋２８６３－４", "url": "https://www.kaigokensaku.mhlw.go.jp/43/index.php?action_kouhyou_detail_004_kani=true&JigyosyoCd=4391600030-00&ServiceCd=730&Type=search", "url2": "http://www.nakayamakai.jp/index.html" }, "geometry": { "type": "Point", "coordinates": [ 130.743583, 32.8681616 ] } },
{ "type": "Feature", "properties": { "内容": "コミュニティハウス　　みんなの家【小規模多機能型居宅介護】熊本県下益城郡美里町土喰４番地コミュニティハウス　みんなの家", "url": "https://www.kaigokensaku.mhlw.go.jp/43/index.php?action_kouhyou_detail_004_kani=true&JigyosyoCd=4392300051-00&ServiceCd=730&Type=search", "url2": "https://senjukai.jp/minnanoie-1.php" }, "geometry": { "type": "Point", "coordinates": [ 130.866713200000049, 32.617932 ] } },
{ "type": "Feature", "properties": { "内容": "サテライトみんなの家【小規模多機能型居宅介護】熊本県下益城郡美里町堅志田30番地１", "url": "https://www.kaigokensaku.mhlw.go.jp/43/index.php?action_kouhyou_detail_004_kani=true&JigyosyoCd=4392300093-00&ServiceCd=730&Type=search", "url2": "http://senjukai.jp/minnanoie-3.php" }, "geometry": { "type": "Point", "coordinates": [ 130.7874091, 32.6437994 ] } },
{ "type": "Feature", "properties": { "内容": "小規模多機能ホーム　慈幸苑【小規模多機能型居宅介護】熊本県玉名郡南関町大字関町28番地1", "url": "https://www.kaigokensaku.mhlw.go.jp/43/index.php?action_kouhyou_detail_004_kani=true&JigyosyoCd=4392400083-00&ServiceCd=730&Type=search", "url2": "https://souyukai.or.jp/" }, "geometry": { "type": "Point", "coordinates": [ 130.542450899999949, 33.0610737 ] } },
{ "type": "Feature", "properties": { "内容": "小規模多機能ホームせいわながすの里【小規模多機能型居宅介護】熊本県玉名郡長洲町長洲２９９０番地２", "url": "https://www.kaigokensaku.mhlw.go.jp/43/index.php?action_kouhyou_detail_004_kani=true&JigyosyoCd=4392400042-00&ServiceCd=730&Type=search", "url2": null }, "geometry": { "type": "Point", "coordinates": [ 130.448764465606729, 32.924928087027261 ] } },
{ "type": "Feature", "properties": { "内容": "小規模多機能型居宅介護事業所　花しのぶ【小規模多機能型居宅介護】熊本県玉名郡長洲町清源寺1060", "url": "https://www.kaigokensaku.mhlw.go.jp/43/index.php?action_kouhyou_detail_004_kani=true&JigyosyoCd=4392400067-00&ServiceCd=730&Type=search", "url2": "https://gekka-en.com/" }, "geometry": { "type": "Point", "coordinates": [ 130.464648899999929, 32.9291448 ] } },
{ "type": "Feature", "properties": { "内容": "おおづセンターホーム【小規模多機能型居宅介護】熊本県菊池郡大津町大字大津字前田1187-1", "url": "https://www.kaigokensaku.mhlw.go.jp/43/index.php?action_kouhyou_detail_004_kani=true&JigyosyoCd=4392600013-00&ServiceCd=730&Type=search", "url2": "http://kaigocsc.co.jp/tutuji" }, "geometry": { "type": "Point", "coordinates": [ 130.870014500000025, 32.879437 ] } },
{ "type": "Feature", "properties": { "内容": "小規模多機能ホーム　ブロッサム　つくれ【小規模多機能型居宅介護】熊本県菊池郡菊陽町花立1－14－1", "url": "https://www.kaigokensaku.mhlw.go.jp/43/index.php?action_kouhyou_detail_004_kani=true&JigyosyoCd=4392600047-00&ServiceCd=730&Type=search", "url2": "http://hc-b.com/shoukibo-tsukure/" }, "geometry": { "type": "Point", "coordinates": [ 130.758046299999933, 32.8570765 ] } },
{ "type": "Feature", "properties": { "内容": "小規模多機能ホーム　縁がわ小国【小規模多機能型居宅介護】熊本県阿蘇郡小国町宮原１４９３－１", "url": "https://www.kaigokensaku.mhlw.go.jp/43/index.php?action_kouhyou_detail_004_kani=true&JigyosyoCd=4392700110-00&ServiceCd=730&Type=search", "url2": null }, "geometry": { "type": "Point", "coordinates": [ 131.063694100000021, 33.1260175 ] } },
{ "type": "Feature", "properties": { "内容": "小規模多機能ホーム　みなもと【小規模多機能型居宅介護】熊本県阿蘇郡西原村布田1320-1", "url": "https://www.kaigokensaku.mhlw.go.jp/43/index.php?action_kouhyou_detail_004_kani=true&JigyosyoCd=4392700243-00&ServiceCd=730&Type=search", "url2": "https://www.big-advance.site/c/156/2204" }, "geometry": { "type": "Point", "coordinates": [ 130.901335644505906, 32.833760955053805 ] } },
{ "type": "Feature", "properties": { "内容": "小規模多機能ホームはなしのぶ【小規模多機能型居宅介護】熊本県阿蘇郡南阿蘇村久石2714-1", "url": "https://www.kaigokensaku.mhlw.go.jp/43/index.php?action_kouhyou_detail_004_kani=true&JigyosyoCd=4392700201-00&ServiceCd=730&Type=search", "url2": "http:/www.minamiasocare.com" }, "geometry": { "type": "Point", "coordinates": [ 131.0364234, 32.8197321 ] } },
{ "type": "Feature", "properties": { "内容": "小規模多機能ホーム　みどりの丘【小規模多機能型居宅介護】熊本県上益城郡御船町上野１５１９－２", "url": "https://www.kaigokensaku.mhlw.go.jp/43/index.php?action_kouhyou_detail_004_kani=true&JigyosyoCd=4392800118-00&ServiceCd=730&Type=search", "url2": "http://greenhillmifune.com" }, "geometry": { "type": "Point", "coordinates": [ 130.854089499999986, 32.7354949 ] } },
{ "type": "Feature", "properties": { "内容": "小規模多機能悠優みふね【小規模多機能型居宅介護】熊本県上益城郡御船町陣1999番地1", "url": "https://www.kaigokensaku.mhlw.go.jp/43/index.php?action_kouhyou_detail_004_kani=true&JigyosyoCd=4392800274-00&ServiceCd=730&Type=search", "url2": "https://senjukai.jp/" }, "geometry": { "type": "Point", "coordinates": [ 130.775395, 32.7185881 ] } },
{ "type": "Feature", "properties": { "内容": "小規模多機能型居宅介護事業所　かしまスマイル【小規模多機能型居宅介護】熊本県上益城郡嘉島町上六嘉２２６８番地", "url": "https://www.kaigokensaku.mhlw.go.jp/43/index.php?action_kouhyou_detail_004_kani=true&JigyosyoCd=4392800076-00&ServiceCd=730&Type=search", "url2": "http://kayuukai.or.jp" }, "geometry": { "type": "Point", "coordinates": [ 130.76905, 32.7477616 ] } },
{ "type": "Feature", "properties": { "内容": "小規模多機能　あんず【小規模多機能型居宅介護】熊本県上益城郡益城町馬水17番地3号", "url": "https://www.kaigokensaku.mhlw.go.jp/43/index.php?action_kouhyou_detail_004_kani=true&JigyosyoCd=4392800126-00&ServiceCd=730&Type=search", "url2": null }, "geometry": { "type": "Point", "coordinates": [ 130.8028468, 32.7882166 ] } },
{ "type": "Feature", "properties": { "内容": "桜の丘綾の家小規模多機能型居宅介護事業所【小規模多機能型居宅介護】熊本県上益城郡甲佐町岩下１９４番地１", "url": "https://www.kaigokensaku.mhlw.go.jp/43/index.php?action_kouhyou_detail_004_kani=true&JigyosyoCd=4392800043-00&ServiceCd=730&Type=search", "url2": "http://www.sakuranooka.or.jp/" }, "geometry": { "type": "Point", "coordinates": [ 130.808210199999962, 32.6518104 ] } },
{ "type": "Feature", "properties": { "内容": "小規模多機能ホーム　ほたる【小規模多機能型居宅介護】熊本県上益城郡甲佐町上早川22-1", "url": "https://www.kaigokensaku.mhlw.go.jp/43/index.php?action_kouhyou_detail_004_kani=true&JigyosyoCd=4392800084-00&ServiceCd=730&Type=search", "url2": null }, "geometry": { "type": "Point", "coordinates": [ 130.8219775, 32.6781001 ] } },
{ "type": "Feature", "properties": { "内容": "さくら荘【小規模多機能型居宅介護】上益城郡山都町野尻１０２６－１", "url": "https://www.kaigokensaku.mhlw.go.jp/43/index.php?action_kouhyou_detail_004_kani=true&JigyosyoCd=4392800019-00&ServiceCd=730&Type=search", "url2": null }, "geometry": { "type": "Point", "coordinates": [ 131.01155540000002, 32.684856 ] } },
{ "type": "Feature", "properties": { "内容": "小規模多機能　桜ヶ丘別荘【小規模多機能型居宅介護】八代郡氷川町宮原704-1", "url": "https://www.kaigokensaku.mhlw.go.jp/43/index.php?action_kouhyou_detail_004_kani=true&JigyosyoCd=4392900017-00&ServiceCd=730&Type=search", "url2": null }, "geometry": { "type": "Point", "coordinates": [ 130.681709800000021, 32.5530481 ] } },
{ "type": "Feature", "properties": { "内容": "ニチイケアセンターにしき東方【小規模多機能型居宅介護】熊本県球磨郡錦町大字一武1652番1ニチイケアセンターにしき東方", "url": "https://www.kaigokensaku.mhlw.go.jp/43/index.php?action_kouhyou_detail_004_kani=true&JigyosyoCd=4393100161-00&ServiceCd=730&Type=search", "url2": "www.nichiigakkan.co.jp" }, "geometry": { "type": "Point", "coordinates": [ 130.839756500000021, 32.2013466 ] } },
{ "type": "Feature", "properties": { "内容": "小規模多機能ホーム　わかば園【小規模多機能型居宅介護】熊本県球磨郡多良木町大字多良木１４８９", "url": "https://www.kaigokensaku.mhlw.go.jp/43/index.php?action_kouhyou_detail_004_kani=true&JigyosyoCd=4393100013-00&ServiceCd=730&Type=search", "url2": null }, "geometry": { "type": "Point", "coordinates": [ 130.937386299999957, 32.2632836 ] } },
{ "type": "Feature", "properties": { "内容": "小規模多機能ホーム里の城【小規模多機能型居宅介護】熊本県球磨郡多良木町大字多良木1735", "url": "https://www.kaigokensaku.mhlw.go.jp/43/index.php?action_kouhyou_detail_004_kani=true&JigyosyoCd=4393100237-00&ServiceCd=730&Type=search", "url2": null }, "geometry": { "type": "Point", "coordinates": [ 130.9292728, 32.274949 ] } },
{ "type": "Feature", "properties": { "内容": "小規模多機能ホーム　五木の友【小規模多機能型居宅介護】球磨郡五木村甲字宮園5670", "url": "https://www.kaigokensaku.mhlw.go.jp/43/index.php?action_kouhyou_detail_004_kani=true&JigyosyoCd=4393100070-00&ServiceCd=730&Type=search", "url2": "itsukinotomo@tsubame-taxi.co.jp" }, "geometry": { "type": "Point", "coordinates": [ 130.827280200000018, 32.3974959 ] } },
{ "type": "Feature", "properties": { "内容": "小規模多機能ホームほほえみ【小規模多機能型居宅介護】熊本県球磨郡あさぎり町免田西字黒田2193番地1", "url": "https://www.kaigokensaku.mhlw.go.jp/43/index.php?action_kouhyou_detail_004_kani=true&JigyosyoCd=4393100047-00&ServiceCd=730&Type=search", "url2": "https://egao-care.net/hohoemi-2/" }, "geometry": { "type": "Point", "coordinates": [ 130.8791225, 32.2302239 ] } },
{ "type": "Feature", "properties": { "内容": "小規模多機能ホームはるかぜ【小規模多機能型居宅介護】熊本県天草郡苓北町志岐1055番地小規模多機能ホームはるかぜ", "url": "https://www.kaigokensaku.mhlw.go.jp/43/index.php?action_kouhyou_detail_004_kani=true&JigyosyoCd=4393200045-00&ServiceCd=730&Type=search", "url2": null }, "geometry": { "type": "Point", "coordinates": [ 130.0522957, 32.503479300000023 ] } }
]
}
