{
"type": "FeatureCollection",
"name": "geo_43_定期巡回・随時対応型訪問介護看護",
"crs": { "type": "name", "properties": { "name": "urn:ogc:def:crs:OGC:1.3:CRS84" } },
"features": [
{ "type": "Feature", "properties": { "内容": "テージュン【定期巡回・随時対応型訪問介護看護】九品寺2丁目2-21", "url": "https://www.kaigokensaku.mhlw.go.jp/43/index.php?action_kouhyou_detail_004_kani=true&JigyosyoCd=4390103531-00&ServiceCd=760&Type=search", "url2": "https://www.te-jun.com/" }, "geometry": { "type": "Point", "coordinates": [ 130.717772700000012, 32.79829560000001 ] } },
{ "type": "Feature", "properties": { "内容": "ケアコールセンター結【定期巡回・随時対応型訪問介護看護】帯山4-29-25カーサ帯山A-102号室", "url": "https://www.kaigokensaku.mhlw.go.jp/43/index.php?action_kouhyou_detail_004_kani=true&JigyosyoCd=4390102871-00&ServiceCd=760&Type=search", "url2": "https://soshin-care.co.jp/index.html" }, "geometry": { "type": "Point", "coordinates": [ 130.751249133678868, 32.802173824588223 ] } },
{ "type": "Feature", "properties": { "内容": "定期巡回サービス　グッドファイブ【定期巡回・随時対応型訪問介護看護】熊本県熊本市中央区琴平2-6-44", "url": "https://www.kaigokensaku.mhlw.go.jp/43/index.php?action_kouhyou_detail_004_kani=true&JigyosyoCd=4390102806-00&ServiceCd=760&Type=search", "url2": "http://www.good-five.com" }, "geometry": { "type": "Point", "coordinates": [ 130.706528800000029, 32.785782900000015 ] } },
{ "type": "Feature", "properties": { "内容": "ライフサポート訪問介護ステーション【定期巡回・随時対応型訪問介護看護】熊本県熊本市東区戸島西1丁目23番63号小規模多機能ホームいつでんきなっせ　２Ｆ", "url": "https://www.kaigokensaku.mhlw.go.jp/43/index.php?action_kouhyou_detail_004_kani=true&JigyosyoCd=4390102509-00&ServiceCd=760&Type=search", "url2": "http://www.kinasse.jp" }, "geometry": { "type": "Point", "coordinates": [ 130.7860164, 32.8094165 ] } },
{ "type": "Feature", "properties": { "内容": "定期巡回サービス土屋熊本【定期巡回・随時対応型訪問介護看護】熊本県熊本市東区花立2丁目11-29", "url": "https://www.kaigokensaku.mhlw.go.jp/43/index.php?action_kouhyou_detail_004_kani=true&JigyosyoCd=4390103242-00&ServiceCd=760&Type=search", "url2": "https://teikijunkai.net/" }, "geometry": { "type": "Point", "coordinates": [ 130.7757719, 32.7802418 ] } },
{ "type": "Feature", "properties": { "内容": "せいじのヘルパーステーション【定期巡回・随時対応型訪問介護看護】熊本県熊本市西区島崎２丁目１１－１３", "url": "https://www.kaigokensaku.mhlw.go.jp/43/index.php?action_kouhyou_detail_004_kani=true&JigyosyoCd=4390101394-00&ServiceCd=760&Type=search", "url2": "http://www.seijino.or.jp" }, "geometry": { "type": "Point", "coordinates": [ 130.690703799999937, 32.8094659 ] } },
{ "type": "Feature", "properties": { "内容": "ケアネットはなぞの【定期巡回・随時対応型訪問介護看護】熊本県熊本市西区花園1-12-8", "url": "https://www.kaigokensaku.mhlw.go.jp/43/index.php?action_kouhyou_detail_004_kani=true&JigyosyoCd=4390103010-00&ServiceCd=760&Type=search", "url2": null }, "geometry": { "type": "Point", "coordinates": [ 130.696496345368985, 32.812385735916955 ] } },
{ "type": "Feature", "properties": { "内容": "御幸病院訪問介護事業所【定期巡回・随時対応型訪問介護看護】熊本県熊本市南区御幸笛田3丁目10番10号", "url": "https://www.kaigokensaku.mhlw.go.jp/43/index.php?action_kouhyou_detail_004_kani=true&JigyosyoCd=4390103556-00&ServiceCd=760&Type=search", "url2": "ｗｗｗ.miyukinosato.or.jp" }, "geometry": { "type": "Point", "coordinates": [ 130.70334189999997, 32.7563132 ] } },
{ "type": "Feature", "properties": { "内容": "ケアネットワークひゅうが　田迎【定期巡回・随時対応型訪問介護看護】熊本県熊本市南区田迎3丁目11－18", "url": "https://www.kaigokensaku.mhlw.go.jp/43/index.php?action_kouhyou_detail_004_kani=true&JigyosyoCd=4390103564-00&ServiceCd=760&Type=search", "url2": "https://www.hyuga-primary.care/ja/index.html" }, "geometry": { "type": "Point", "coordinates": [ 130.7146971, 32.7772725 ] } },
{ "type": "Feature", "properties": { "内容": "定期巡回サービス　桜十字【定期巡回・随時対応型訪問介護看護】熊本県熊本市南区御幸木部1丁目1番1号", "url": "https://www.kaigokensaku.mhlw.go.jp/43/index.php?action_kouhyou_detail_004_kani=true&JigyosyoCd=4390103671-00&ServiceCd=760&Type=search", "url2": null }, "geometry": { "type": "Point", "coordinates": [ 130.7145744, 32.7503792 ] } },
{ "type": "Feature", "properties": { "内容": "定期巡回サービス　クルト【定期巡回・随時対応型訪問介護看護】熊本市南区城南町下宮地497-1", "url": "https://www.kaigokensaku.mhlw.go.jp/43/index.php?action_kouhyou_detail_004_kani=true&JigyosyoCd=4390103549-00&ServiceCd=760&Type=search", "url2": null }, "geometry": { "type": "Point", "coordinates": [ 130.7307869, 32.7018286 ] } },
{ "type": "Feature", "properties": { "内容": "むべの里定期巡回・随時対応型訪問介護事業所うえき【定期巡回・随時対応型訪問介護看護】熊本県北区植木町大和24番地5", "url": "https://www.kaigokensaku.mhlw.go.jp/43/index.php?action_kouhyou_detail_004_kani=true&JigyosyoCd=4390103580-00&ServiceCd=760&Type=search", "url2": null }, "geometry": { "type": "Point", "coordinates": [ 130.670564500000012, 32.8836524 ] } },
{ "type": "Feature", "properties": { "内容": "定期巡回随時対応型訪問介護看護　ステーション　ひかり野Ⅲ【定期巡回・随時対応型訪問介護看護】熊本県熊本市北区八景水谷1丁目24番26号", "url": "https://www.kaigokensaku.mhlw.go.jp/43/index.php?action_kouhyou_detail_004_kani=true&JigyosyoCd=4390103457-00&ServiceCd=760&Type=search", "url2": "https://www.office-hikarino.jp/" }, "geometry": { "type": "Point", "coordinates": [ 130.725193600000011, 32.849835 ] } },
{ "type": "Feature", "properties": { "内容": "定期巡回サービス　ケンプロ２４【定期巡回・随時対応型訪問介護看護】熊本県熊本市北区飛田4-5-25", "url": "https://www.kaigokensaku.mhlw.go.jp/43/index.php?action_kouhyou_detail_004_kani=true&JigyosyoCd=4390103168-00&ServiceCd=760&Type=search", "url2": "http://kenpro24.com/" }, "geometry": { "type": "Point", "coordinates": [ 130.7252507, 32.852165 ] } },
{ "type": "Feature", "properties": { "内容": "定期巡回ケアしらさぎおざや【定期巡回・随時対応型訪問介護看護】熊本県八代市千丁町太牟田1220-1", "url": "https://www.kaigokensaku.mhlw.go.jp/43/index.php?action_kouhyou_detail_004_kani=true&JigyosyoCd=4390200477-00&ServiceCd=760&Type=search", "url2": "http://www.sirasagi-care.co.jp/" }, "geometry": { "type": "Point", "coordinates": [ 130.6409118, 32.5454852 ] } },
{ "type": "Feature", "properties": { "内容": "定期巡回・随時対応型訪問介護看護事業所ブロッサムやつしろ【定期巡回・随時対応型訪問介護看護】熊本県八代市郡築三番町81番2号103号室", "url": "https://www.kaigokensaku.mhlw.go.jp/43/index.php?action_kouhyou_detail_004_kani=true&JigyosyoCd=4390200626-00&ServiceCd=760&Type=search", "url2": "https://hc-b.com" }, "geometry": { "type": "Point", "coordinates": [ 130.5673887, 32.5246499 ] } },
{ "type": "Feature", "properties": { "内容": "金森会２４時間ケアサービス(サテライト)【定期巡回・随時対応型訪問介護看護】熊本県宇土市築籠町139番地4", "url": "https://www.kaigokensaku.mhlw.go.jp/43/index.php?action_kouhyou_detail_004_kani=true&JigyosyoCd=4391100080-00&ServiceCd=760&Type=search", "url2": "http://www.kanamori.or.jp/" }, "geometry": { "type": "Point", "coordinates": [ 130.661878202117862, 32.689476605401445 ] } },
{ "type": "Feature", "properties": { "内容": "定期巡回ケアシラサギおがわ【定期巡回・随時対応型訪問介護看護】熊本県宇城市小川町新田429-1", "url": "https://www.kaigokensaku.mhlw.go.jp/43/index.php?action_kouhyou_detail_004_kani=true&JigyosyoCd=4391300235-00&ServiceCd=760&Type=search", "url2": "https://www.sirasagi-care.co.jp/" }, "geometry": { "type": "Point", "coordinates": [ 130.6884694, 32.5942034 ] } },
{ "type": "Feature", "properties": { "内容": "むべの里　訪問介護事業所合志定期巡回随時対応型訪問介護看護【定期巡回・随時対応型訪問介護看護】熊本県合志市豊岡1900番地の6", "url": "https://www.kaigokensaku.mhlw.go.jp/43/index.php?action_kouhyou_detail_004_kani=true&JigyosyoCd=4391600147-00&ServiceCd=760&Type=search", "url2": "https://mubekouei.com/" }, "geometry": { "type": "Point", "coordinates": [ 130.7586562, 32.872905 ] } },
{ "type": "Feature", "properties": { "内容": "定期巡回・随時対応型訪問介護看護ステーションひかり野Ⅰ【定期巡回・随時対応型訪問介護看護】熊本県合志市須屋622-3ライフサポート須屋１F", "url": "https://www.kaigokensaku.mhlw.go.jp/43/index.php?action_kouhyou_detail_004_kani=true&JigyosyoCd=4391600139-00&ServiceCd=760&Type=search", "url2": "www.office-hikarino.com" }, "geometry": { "type": "Point", "coordinates": [ 130.726589499999989, 32.8528787 ] } },
{ "type": "Feature", "properties": { "内容": "定期巡回・随時対応型訪問介護看護ステーションひかり野Ⅱ【定期巡回・随時対応型訪問介護看護】熊本県菊池郡菊陽町光の森１丁目16-5ダイコー光の森303号", "url": "https://www.kaigokensaku.mhlw.go.jp/43/index.php?action_kouhyou_detail_004_kani=true&JigyosyoCd=4392600187-00&ServiceCd=760&Type=search", "url2": null }, "geometry": { "type": "Point", "coordinates": [ 130.7783426, 32.8589805 ] } },
{ "type": "Feature", "properties": { "内容": "24時間介護看護サービスはな【定期巡回・随時対応型訪問介護看護】熊本県阿蘇郡南阿蘇村久石2715-1", "url": "https://www.kaigokensaku.mhlw.go.jp/43/index.php?action_kouhyou_detail_004_kani=true&JigyosyoCd=4392700169-00&ServiceCd=760&Type=search", "url2": "https://www.minamiasocare.com/" }, "geometry": { "type": "Point", "coordinates": [ 131.036969655819689, 32.819639953073789 ] } },
{ "type": "Feature", "properties": { "内容": "定期巡回・随時対応型訪問介護看護ステーションSUMUTOCODE【定期巡回・随時対応型訪問介護看護】熊本県上益城郡山都町城平340番地1", "url": "https://www.kaigokensaku.mhlw.go.jp/43/index.php?action_kouhyou_detail_004_kani=true&JigyosyoCd=4392800290-00&ServiceCd=760&Type=search", "url2": "http://uniteon.jp" }, "geometry": { "type": "Point", "coordinates": [ 130.988935700000013, 32.6893332 ] } }
]
}
