{
"type": "FeatureCollection",
"name": "geo_43_認知症対応型通所介護",
"crs": { "type": "name", "properties": { "name": "urn:ogc:def:crs:OGC:1.3:CRS84" } },
"features": [
{ "type": "Feature", "properties": { "内容": "ユーカリ苑デイサービスセンター【認知症対応型通所介護】熊本市中央区黒髪5丁目23番1号", "url": "https://www.kaigokensaku.mhlw.go.jp/43/index.php?action_kouhyou_detail_004_kani=true&JigyosyoCd=4370101430-00&ServiceCd=720&Type=search", "url2": "http://riddell-wright.com/" }, "geometry": { "type": "Point", "coordinates": [ 130.73079789999997, 32.8189855 ] } },
{ "type": "Feature", "properties": { "内容": "デイサービス　あやめの里【認知症対応型通所介護】熊本県熊本市中央区渡鹿５丁目１７－２６", "url": "https://www.kaigokensaku.mhlw.go.jp/43/index.php?action_kouhyou_detail_004_kani=true&JigyosyoCd=4370105266-00&ServiceCd=720&Type=search", "url2": "https://ayamenosato.jp" }, "geometry": { "type": "Point", "coordinates": [ 130.7330756, 32.8093669 ] } },
{ "type": "Feature", "properties": { "内容": "グッドスマイルいずみの里デイサービスセンター【認知症対応型通所介護】熊本県熊本市中央区出水5丁目11-38出水ガーデンハイツ2-1階", "url": "https://www.kaigokensaku.mhlw.go.jp/43/index.php?action_kouhyou_detail_004_kani=true&JigyosyoCd=4390101592-00&ServiceCd=720&Type=search", "url2": "https://www.goodsmile.biz/" }, "geometry": { "type": "Point", "coordinates": [ 130.729359599999952, 32.7790724 ] } },
{ "type": "Feature", "properties": { "内容": "認知症デイサービスセンター青明【認知症対応型通所介護】熊本市中央区渡鹿５丁目１番３７号", "url": "https://www.kaigokensaku.mhlw.go.jp/43/index.php?action_kouhyou_detail_004_kani=true&JigyosyoCd=4390100610-00&ServiceCd=720&Type=search", "url2": "http://www.kyouninkai.jp/seimei-hp/" }, "geometry": { "type": "Point", "coordinates": [ 130.730322900000033, 32.8106251 ] } },
{ "type": "Feature", "properties": { "内容": "有限会社　九州松栄産業　黒髪しょうぶ苑【認知症対応型通所介護】熊本市中央区黒髪５丁目４番３０号", "url": "https://www.kaigokensaku.mhlw.go.jp/43/index.php?action_kouhyou_detail_004_kani=true&JigyosyoCd=4390101238-00&ServiceCd=720&Type=search", "url2": "http://www.shoubuen.com/" }, "geometry": { "type": "Point", "coordinates": [ 130.730142300000011, 32.8153802 ] } },
{ "type": "Feature", "properties": { "内容": "デイハウス　ほのか【認知症対応型通所介護】熊本県熊本市中央区東京塚町５－４２－１", "url": "https://www.kaigokensaku.mhlw.go.jp/43/index.php?action_kouhyou_detail_004_kani=true&JigyosyoCd=4390100115-00&ServiceCd=720&Type=search", "url2": "https://road-kokorohonoka.com/" }, "geometry": { "type": "Point", "coordinates": [ 130.756186903427079, 32.798758043832315 ] } },
{ "type": "Feature", "properties": { "内容": "デイサービスセンター昭和【認知症対応型通所介護】熊本県熊本市東区尾ノ上３丁目３-１０７", "url": "https://www.kaigokensaku.mhlw.go.jp/43/index.php?action_kouhyou_detail_004_kani=true&JigyosyoCd=4390101642-00&ServiceCd=720&Type=search", "url2": "http://zinpukai.com/" }, "geometry": { "type": "Point", "coordinates": [ 130.755045804194992, 32.795185184802712 ] } },
{ "type": "Feature", "properties": { "内容": "愛の家デイサービス花立【認知症対応型通所介護】熊本県熊本市東区花立6丁目16-140", "url": "https://www.kaigokensaku.mhlw.go.jp/43/index.php?action_kouhyou_detail_004_kani=true&JigyosyoCd=4390102269-00&ServiceCd=720&Type=search", "url2": "http://www.mcsg.co.jp" }, "geometry": { "type": "Point", "coordinates": [ 130.776795900000025, 32.787369200000022 ] } },
{ "type": "Feature", "properties": { "内容": "グループホーム泉ヶ丘認知症対応型通所介護【認知症対応型通所介護】南町１６番８号グループホーム泉ヶ丘", "url": "https://www.kaigokensaku.mhlw.go.jp/43/index.php?action_kouhyou_detail_004_kani=true&JigyosyoCd=4390101568-00&ServiceCd=720&Type=search", "url2": "http://kaigonomirai.com" }, "geometry": { "type": "Point", "coordinates": [ 130.758645891814297, 32.773376421305649 ] } },
{ "type": "Feature", "properties": { "内容": "認知症対応型通所介護事業所　白川の里【認知症対応型通所介護】熊本市東区小山町２４９３番地", "url": "https://www.kaigokensaku.mhlw.go.jp/43/index.php?action_kouhyou_detail_004_kani=true&JigyosyoCd=4390100743-00&ServiceCd=720&Type=search", "url2": "http://shirakawa.ed.jp/" }, "geometry": { "type": "Point", "coordinates": [ 130.810450599999967, 32.8345786 ] } },
{ "type": "Feature", "properties": { "内容": "ホームデイサービスあやの里【認知症対応型通所介護】熊本市山ノ内2-1-14", "url": "https://www.kaigokensaku.mhlw.go.jp/43/index.php?action_kouhyou_detail_004_kani=true&JigyosyoCd=4390100917-00&ServiceCd=720&Type=search", "url2": "http://www.ayanosato.net/" }, "geometry": { "type": "Point", "coordinates": [ 130.768965200000054, 32.7983858 ] } },
{ "type": "Feature", "properties": { "内容": "江津しょうぶ苑【認知症対応型通所介護】熊本県熊本市東区画図町所島1040", "url": "https://www.kaigokensaku.mhlw.go.jp/43/index.php?action_kouhyou_detail_004_kani=true&JigyosyoCd=4390100248-00&ServiceCd=720&Type=search", "url2": "http:/www.shoubuen.com/edu.html" }, "geometry": { "type": "Point", "coordinates": [ 130.734651100000065, 32.7716675 ] } },
{ "type": "Feature", "properties": { "内容": "江津しょうぶ苑　グループホーム　認知症デイサービス【認知症対応型通所介護】熊本市東区画図町所島１０４０", "url": "https://www.kaigokensaku.mhlw.go.jp/43/index.php?action_kouhyou_detail_004_kani=true&JigyosyoCd=4390100800-00&ServiceCd=720&Type=search", "url2": "http://www.shoubuen.com/" }, "geometry": { "type": "Point", "coordinates": [ 130.734651100000065, 32.7716675 ] } },
{ "type": "Feature", "properties": { "内容": "デイサービスセンターなかよしパートⅡ【認知症対応型通所介護】熊本県熊本市東区尾ノ上３丁目３－１", "url": "https://www.kaigokensaku.mhlw.go.jp/43/index.php?action_kouhyou_detail_004_kani=true&JigyosyoCd=4390100586-00&ServiceCd=720&Type=search", "url2": "swc.zinpukai.com" }, "geometry": { "type": "Point", "coordinates": [ 130.754844425131267, 32.795586672208167 ] } },
{ "type": "Feature", "properties": { "内容": "そよ風エミテラス　くまもと【認知症対応型通所介護】熊本県熊本市東区山ノ内3-9-27", "url": "https://www.kaigokensaku.mhlw.go.jp/43/index.php?action_kouhyou_detail_004_kani=true&JigyosyoCd=4390102681-00&ServiceCd=720&Type=search", "url2": "https://www.sykz.co.jp/" }, "geometry": { "type": "Point", "coordinates": [ 130.765315500000014, 32.7949066 ] } },
{ "type": "Feature", "properties": { "内容": "熊本市山ノ内デイサービスセンター【認知症対応型通所介護】熊本市東区山ノ内2-1-7", "url": "https://www.kaigokensaku.mhlw.go.jp/43/index.php?action_kouhyou_detail_004_kani=true&JigyosyoCd=4370103048-00&ServiceCd=720&Type=search", "url2": "http://www.ayanosato.net/" }, "geometry": { "type": "Point", "coordinates": [ 130.768532068682475, 32.798626306423856 ] } },
{ "type": "Feature", "properties": { "内容": "あやの里デイサービスセンター【認知症対応型通所介護】熊本県熊本市東区山ノ内２－１－４", "url": "https://www.kaigokensaku.mhlw.go.jp/43/index.php?action_kouhyou_detail_004_kani=true&JigyosyoCd=4390103044-00&ServiceCd=720&Type=search", "url2": "http://www.ayanosato.net/" }, "geometry": { "type": "Point", "coordinates": [ 130.7685299, 32.7983362 ] } },
{ "type": "Feature", "properties": { "内容": "グループホーム　あおばの家【認知症対応型通所介護】熊本市西区島崎2丁目29-5", "url": "https://www.kaigokensaku.mhlw.go.jp/43/index.php?action_kouhyou_detail_004_kani=true&JigyosyoCd=4370101455-00&ServiceCd=720&Type=search", "url2": "http://www.seijino.or.jp/" }, "geometry": { "type": "Point", "coordinates": [ 130.691387, 32.807905 ] } },
{ "type": "Feature", "properties": { "内容": "長寿の里認知症対応型通所介護事業所　ゆるり【認知症対応型通所介護】熊本県熊本市西区城山薬師２丁目１０－１０", "url": "https://www.kaigokensaku.mhlw.go.jp/43/index.php?action_kouhyou_detail_004_kani=true&JigyosyoCd=4390101485-00&ServiceCd=720&Type=search", "url2": "http://ksfj.hinokuni-net.jp/" }, "geometry": { "type": "Point", "coordinates": [ 130.646708399999966, 32.771288500000018 ] } },
{ "type": "Feature", "properties": { "内容": "デイサービスあん堵【認知症対応型通所介護】熊本市西区池上町1139-4", "url": "https://www.kaigokensaku.mhlw.go.jp/43/index.php?action_kouhyou_detail_004_kani=true&JigyosyoCd=4390100784-00&ServiceCd=720&Type=search", "url2": "http://www.hanamomen.net/" }, "geometry": { "type": "Point", "coordinates": [ 130.668958699999962, 32.7958977 ] } },
{ "type": "Feature", "properties": { "内容": "デイ木乃庭【認知症対応型通所介護】熊本市西区中原町１２８０番地", "url": "https://www.kaigokensaku.mhlw.go.jp/43/index.php?action_kouhyou_detail_004_kani=true&JigyosyoCd=4390101071-00&ServiceCd=720&Type=search", "url2": null }, "geometry": { "type": "Point", "coordinates": [ 130.63421470000003, 32.7720242 ] } },
{ "type": "Feature", "properties": { "内容": "青翔苑デイサービスセンター【認知症対応型通所介護】熊本市西区島崎2丁目21-10", "url": "https://www.kaigokensaku.mhlw.go.jp/43/index.php?action_kouhyou_detail_004_kani=true&JigyosyoCd=4390100594-00&ServiceCd=720&Type=search", "url2": "https://www.seijino.or.jp" }, "geometry": { "type": "Point", "coordinates": [ 130.690442699999949, 32.8080688 ] } },
{ "type": "Feature", "properties": { "内容": "デイサービス　オハナ【認知症対応型通所介護】熊本県熊本市西区松尾2丁目26-33", "url": "https://www.kaigokensaku.mhlw.go.jp/43/index.php?action_kouhyou_detail_004_kani=true&JigyosyoCd=4390102392-00&ServiceCd=720&Type=search", "url2": "http://wwww.ponoheart.co.jp" }, "geometry": { "type": "Point", "coordinates": [ 130.642584422090181, 32.785007318947144 ] } },
{ "type": "Feature", "properties": { "内容": "共用型デイサービス　はるの里【認知症対応型通所介護】熊本県熊本市南区城南町舞原253番地-1", "url": "https://www.kaigokensaku.mhlw.go.jp/43/index.php?action_kouhyou_detail_004_kani=true&JigyosyoCd=4390102608-00&ServiceCd=720&Type=search", "url2": null }, "geometry": { "type": "Point", "coordinates": [ 130.746943900000019, 32.7076058 ] } },
{ "type": "Feature", "properties": { "内容": "虹の家デイサービスセンター【認知症対応型通所介護】熊本県熊本市南区奥古閑町４２９６番１", "url": "https://www.kaigokensaku.mhlw.go.jp/43/index.php?action_kouhyou_detail_004_kani=true&JigyosyoCd=4390100198-00&ServiceCd=720&Type=search", "url2": "http://www.fuku-juryo.jp" }, "geometry": { "type": "Point", "coordinates": [ 130.621155499999986, 32.731377500000015 ] } },
{ "type": "Feature", "properties": { "内容": "デイサービスセンター　Cruto【認知症対応型通所介護】熊本県熊本市南区城南町東阿高字一ノ尾1279-1", "url": "https://www.kaigokensaku.mhlw.go.jp/43/index.php?action_kouhyou_detail_004_kani=true&JigyosyoCd=4390102525-00&ServiceCd=720&Type=search", "url2": "http://cruto.group/" }, "geometry": { "type": "Point", "coordinates": [ 130.7276809, 32.690055 ] } },
{ "type": "Feature", "properties": { "内容": "ケアサポートメロン【認知症対応型通所介護】熊本市南区日吉２丁目３－８４", "url": "https://www.kaigokensaku.mhlw.go.jp/43/index.php?action_kouhyou_detail_004_kani=true&JigyosyoCd=4390100826-00&ServiceCd=720&Type=search", "url2": "http://www.care-melon.co.jp/" }, "geometry": { "type": "Point", "coordinates": [ 130.685483299999987, 32.7598342 ] } },
{ "type": "Feature", "properties": { "内容": "デイサービス今町ホーム【認知症対応型通所介護】熊本市南区今町６７９番１", "url": "https://www.kaigokensaku.mhlw.go.jp/43/index.php?action_kouhyou_detail_004_kani=true&JigyosyoCd=4390100834-00&ServiceCd=720&Type=search", "url2": "https://fuku-juryo.jp" }, "geometry": { "type": "Point", "coordinates": [ 130.652888699999949, 32.7664419 ] } },
{ "type": "Feature", "properties": { "内容": "ケアサポートメロン３Ｒ【認知症対応型通所介護】熊本市南区日吉２丁目３－８１", "url": "https://www.kaigokensaku.mhlw.go.jp/43/index.php?action_kouhyou_detail_004_kani=true&JigyosyoCd=4390101113-00&ServiceCd=720&Type=search", "url2": "https://www.care-melon.co.jp/" }, "geometry": { "type": "Point", "coordinates": [ 130.685383300000012, 32.759712 ] } },
{ "type": "Feature", "properties": { "内容": "デイサービスしんち【認知症対応型通所介護】熊本市南区八分字町2918-1", "url": "https://www.kaigokensaku.mhlw.go.jp/43/index.php?action_kouhyou_detail_004_kani=true&JigyosyoCd=4390100404-00&ServiceCd=720&Type=search", "url2": "snnt-4-sinka@nifty.com" }, "geometry": { "type": "Point", "coordinates": [ 130.609382399999959, 32.7813593 ] } },
{ "type": "Feature", "properties": { "内容": "グループホームあそうだ【認知症対応型通所介護】熊本市北区麻生田2丁目5-41", "url": "https://www.kaigokensaku.mhlw.go.jp/43/index.php?action_kouhyou_detail_004_kani=true&JigyosyoCd=4390100867-00&ServiceCd=720&Type=search", "url2": "http:/shafuku-aiseikai.or.jp/" }, "geometry": { "type": "Point", "coordinates": [ 130.74342230000002, 32.8472163 ] } },
{ "type": "Feature", "properties": { "内容": "認知症対応型通所介護みつぐ苑【認知症対応型通所介護】熊本市北区貢町135番地", "url": "https://www.kaigokensaku.mhlw.go.jp/43/index.php?action_kouhyou_detail_004_kani=true&JigyosyoCd=4390100412-00&ServiceCd=720&Type=search", "url2": "http://www.iseikai.info" }, "geometry": { "type": "Point", "coordinates": [ 130.702219300000024, 32.8424772 ] } },
{ "type": "Feature", "properties": { "内容": "デイサービスセンターかてて【認知症対応型通所介護】熊本県熊本市北区鹿子木町372-1", "url": "https://www.kaigokensaku.mhlw.go.jp/43/index.php?action_kouhyou_detail_004_kani=true&JigyosyoCd=4390100537-00&ServiceCd=720&Type=search", "url2": "http://www.kuwa.or.jp/" }, "geometry": { "type": "Point", "coordinates": [ 130.696804225843863, 32.872013147991709 ] } },
{ "type": "Feature", "properties": { "内容": "共用型デイサービスカムさぁ【認知症対応型通所介護】熊本市北区龍田陣内3丁目37-7", "url": "https://www.kaigokensaku.mhlw.go.jp/43/index.php?action_kouhyou_detail_004_kani=true&JigyosyoCd=4390101816-00&ServiceCd=720&Type=search", "url2": "http://riddell-wright.com" }, "geometry": { "type": "Point", "coordinates": [ 130.748822867953578, 32.83065883002493 ] } },
{ "type": "Feature", "properties": { "内容": "SecondPlaceハレノヒ【認知症対応型通所介護】熊本県熊本市北区植木町岩野939-1", "url": "https://www.kaigokensaku.mhlw.go.jp/43/index.php?action_kouhyou_detail_004_kani=true&JigyosyoCd=4390102764-00&ServiceCd=720&Type=search", "url2": "https://www.ease20.com" }, "geometry": { "type": "Point", "coordinates": [ 130.6982655, 32.9033892 ] } },
{ "type": "Feature", "properties": { "内容": "認知症デイサービスセンターひまわり【認知症対応型通所介護】熊本県熊本市北区植木町山本８８６－１", "url": "https://www.kaigokensaku.mhlw.go.jp/43/index.php?action_kouhyou_detail_004_kani=true&JigyosyoCd=4392500056-00&ServiceCd=720&Type=search", "url2": "http://www.himawari-kaigo.com/" }, "geometry": { "type": "Point", "coordinates": [ 130.689641700000038, 32.913043 ] } },
{ "type": "Feature", "properties": { "内容": "すずらんの里デイサービスセンター【認知症対応型通所介護】熊本県八代市葭牟田町435番地", "url": "https://www.kaigokensaku.mhlw.go.jp/43/index.php?action_kouhyou_detail_004_kani=true&JigyosyoCd=4370200554-00&ServiceCd=720&Type=search", "url2": "http://www.tenryuukai.jp/" }, "geometry": { "type": "Point", "coordinates": [ 130.578987500000039, 32.4937344 ] } },
{ "type": "Feature", "properties": { "内容": "よろこびの里【認知症対応型通所介護】熊本県八代市高小原町1508-1", "url": "https://www.kaigokensaku.mhlw.go.jp/43/index.php?action_kouhyou_detail_004_kani=true&JigyosyoCd=4390200089-00&ServiceCd=720&Type=search", "url2": "yorokobi0501@royal.ocn.ne.jp" }, "geometry": { "type": "Point", "coordinates": [ 130.590969, 32.5299212 ] } },
{ "type": "Feature", "properties": { "内容": "デイサービス八代のぞみ【認知症対応型通所介護】熊本県八代市千丁町古閑出421-16", "url": "https://www.kaigokensaku.mhlw.go.jp/43/index.php?action_kouhyou_detail_004_kani=true&JigyosyoCd=4390200139-00&ServiceCd=720&Type=search", "url2": null }, "geometry": { "type": "Point", "coordinates": [ 130.625102199999986, 32.536097 ] } },
{ "type": "Feature", "properties": { "内容": "認知症対応型通所介護事業所桃の花【認知症対応型通所介護】熊本県八代市鏡町両出1327番地1", "url": "https://www.kaigokensaku.mhlw.go.jp/43/index.php?action_kouhyou_detail_004_kani=true&JigyosyoCd=4390200170-00&ServiceCd=720&Type=search", "url2": null }, "geometry": { "type": "Point", "coordinates": [ 130.629429, 32.558362400000014 ] } },
{ "type": "Feature", "properties": { "内容": "デイサービスセンター陽だまりの里　はなぞの【認知症対応型通所介護】熊本県八代市花園町１１－１ガレリア１F", "url": "https://www.kaigokensaku.mhlw.go.jp/43/index.php?action_kouhyou_detail_004_kani=true&JigyosyoCd=4390200196-00&ServiceCd=720&Type=search", "url2": null }, "geometry": { "type": "Point", "coordinates": [ 130.611854900000026, 32.5035875 ] } },
{ "type": "Feature", "properties": { "内容": "ハートケア　ひかり【認知症対応型通所介護】熊本県八代市渡町1717番地", "url": "https://www.kaigokensaku.mhlw.go.jp/43/index.php?action_kouhyou_detail_004_kani=true&JigyosyoCd=4390200287-00&ServiceCd=720&Type=search", "url2": "http://www.minetoma-hos.jp" }, "geometry": { "type": "Point", "coordinates": [ 130.623585711500482, 32.492321207535781 ] } },
{ "type": "Feature", "properties": { "内容": "デイサービスセンターのぞみ【認知症対応型通所介護】熊本県八代市千丁町古閑出421-16", "url": "https://www.kaigokensaku.mhlw.go.jp/43/index.php?action_kouhyou_detail_004_kani=true&JigyosyoCd=4390200618-00&ServiceCd=720&Type=search", "url2": null }, "geometry": { "type": "Point", "coordinates": [ 130.6252106, 32.5361059 ] } },
{ "type": "Feature", "properties": { "内容": "認知症デイサービス愛生【認知症対応型通所介護】熊本県人吉市南泉田町115", "url": "https://www.kaigokensaku.mhlw.go.jp/43/index.php?action_kouhyou_detail_004_kani=true&JigyosyoCd=4390300632-00&ServiceCd=720&Type=search", "url2": null }, "geometry": { "type": "Point", "coordinates": [ 130.763502985844383, 32.215981213723317 ] } },
{ "type": "Feature", "properties": { "内容": "白寿園デイサービスセンター【認知症対応型通所介護】熊本県荒尾市一部字鴻巣2122", "url": "https://www.kaigokensaku.mhlw.go.jp/43/index.php?action_kouhyou_detail_004_kani=true&JigyosyoCd=4370400311-00&ServiceCd=720&Type=search", "url2": "http://www.hakujuen.jp" }, "geometry": { "type": "Point", "coordinates": [ 130.45434309999996, 32.9686958 ] } },
{ "type": "Feature", "properties": { "内容": "ゆうきの家【認知症対応型通所介護】熊本県玉名市上小田１１８０番地", "url": "https://www.kaigokensaku.mhlw.go.jp/43/index.php?action_kouhyou_detail_004_kani=true&JigyosyoCd=4370600506-00&ServiceCd=720&Type=search", "url2": "http://www.yukikai.or.jp/" }, "geometry": { "type": "Point", "coordinates": [ 130.588398699999971, 32.9544963 ] } },
{ "type": "Feature", "properties": { "内容": "グループホーム　ありあけの丘【認知症対応型通所介護】熊本県玉名市天水町部田見４４８番地１", "url": "https://www.kaigokensaku.mhlw.go.jp/43/index.php?action_kouhyou_detail_004_kani=true&JigyosyoCd=4372400947-00&ServiceCd=720&Type=search", "url2": "http://www.ariakehome.jp/" }, "geometry": { "type": "Point", "coordinates": [ 130.569654899999932, 32.8845798 ] } },
{ "type": "Feature", "properties": { "内容": "デイサービスセンター　結いの里【認知症対応型通所介護】熊本県玉名市伊倉北方1542番地1", "url": "https://www.kaigokensaku.mhlw.go.jp/43/index.php?action_kouhyou_detail_004_kani=true&JigyosyoCd=4390600015-00&ServiceCd=720&Type=search", "url2": "https://www.sakura-en.com/" }, "geometry": { "type": "Point", "coordinates": [ 130.588769299999967, 32.918119 ] } },
{ "type": "Feature", "properties": { "内容": "共用型認知症対応型通所介護　かけはし【認知症対応型通所介護】菊鹿町下内田75", "url": "https://www.kaigokensaku.mhlw.go.jp/43/index.php?action_kouhyou_detail_004_kani=true&JigyosyoCd=4390800086-00&ServiceCd=720&Type=search", "url2": "http://www.seisinkai.co.jp" }, "geometry": { "type": "Point", "coordinates": [ 130.7513339, 33.0323721 ] } },
{ "type": "Feature", "properties": { "内容": "デイサービス大道【認知症対応型通所介護】熊本県山鹿市方保田828番地2", "url": "https://www.kaigokensaku.mhlw.go.jp/43/index.php?action_kouhyou_detail_004_kani=true&JigyosyoCd=4390810077-00&ServiceCd=720&Type=search", "url2": "https://www.andantes.org/" }, "geometry": { "type": "Point", "coordinates": [ 130.7215205, 32.998506 ] } },
{ "type": "Feature", "properties": { "内容": "グループホーム　ソーレ【認知症対応型通所介護】熊本県山鹿市古閑1160-1", "url": "https://www.kaigokensaku.mhlw.go.jp/43/index.php?action_kouhyou_detail_004_kani=true&JigyosyoCd=4390810044-00&ServiceCd=720&Type=search", "url2": "https://www.yamagakaisei.or.jp/sole/" }, "geometry": { "type": "Point", "coordinates": [ 130.705128, 33.0058356 ] } },
{ "type": "Feature", "properties": { "内容": "Communityplace夢日和【認知症対応型通所介護】熊本県山鹿市鹿本町高橋766-1", "url": "https://www.kaigokensaku.mhlw.go.jp/43/index.php?action_kouhyou_detail_004_kani=true&JigyosyoCd=4390810085-00&ServiceCd=720&Type=search", "url2": "https://www.you-mon.com/" }, "geometry": { "type": "Point", "coordinates": [ 130.76010070000001, 33.0026051 ] } },
{ "type": "Feature", "properties": { "内容": "ポジティブリーケア山鹿【認知症対応型通所介護】熊本県山鹿市山鹿900-2", "url": "https://www.kaigokensaku.mhlw.go.jp/43/index.php?action_kouhyou_detail_004_kani=true&JigyosyoCd=4390810119-00&ServiceCd=720&Type=search", "url2": "https://rehealthia-corp.com/" }, "geometry": { "type": "Point", "coordinates": [ 130.691478500000017, 33.0184911 ] } },
{ "type": "Feature", "properties": { "内容": "デイサービス草佳苑【認知症対応型通所介護】熊本県菊池市深川４００番", "url": "https://www.kaigokensaku.mhlw.go.jp/43/index.php?action_kouhyou_detail_004_kani=true&JigyosyoCd=4311010997-00&ServiceCd=720&Type=search", "url2": "http://care-net.biz/43/soukaen/" }, "geometry": { "type": "Point", "coordinates": [ 130.801673299999948, 32.9696028 ] } },
{ "type": "Feature", "properties": { "内容": "goodlocation【認知症対応型通所介護】熊本県菊池市藤田38-1", "url": "https://www.kaigokensaku.mhlw.go.jp/43/index.php?action_kouhyou_detail_004_kani=true&JigyosyoCd=4391000231-00&ServiceCd=720&Type=search", "url2": "https://sasaeru.crayonsite.com/p/4/" }, "geometry": { "type": "Point", "coordinates": [ 130.8246336, 32.9775572 ] } },
{ "type": "Feature", "properties": { "内容": "デイサービスえがお【認知症対応型通所介護】宇土市花園町1054-1", "url": "https://www.kaigokensaku.mhlw.go.jp/43/index.php?action_kouhyou_detail_004_kani=true&JigyosyoCd=4371100605-00&ServiceCd=720&Type=search", "url2": "http://www.kanamori.or.jp" }, "geometry": { "type": "Point", "coordinates": [ 130.697300009336942, 32.681726178978273 ] } },
{ "type": "Feature", "properties": { "内容": "ﾃﾞｲｻｰﾋﾞｽ　ファミリー倶楽部【認知症対応型通所介護】熊本県上天草市松島町合津１０６８番地１", "url": "https://www.kaigokensaku.mhlw.go.jp/43/index.php?action_kouhyou_detail_004_kani=true&JigyosyoCd=4391200039-00&ServiceCd=720&Type=search", "url2": null }, "geometry": { "type": "Point", "coordinates": [ 130.430583399999932, 32.5065198 ] } },
{ "type": "Feature", "properties": { "内容": "グループホームおおやのデイサービス【認知症対応型通所介護】大矢野町上1520番地8", "url": "https://www.kaigokensaku.mhlw.go.jp/43/index.php?action_kouhyou_detail_004_kani=true&JigyosyoCd=4371200058-00&ServiceCd=720&Type=search", "url2": null }, "geometry": { "type": "Point", "coordinates": [ 130.430561899999987, 32.5860375 ] } },
{ "type": "Feature", "properties": { "内容": "デイサービスセンター椿【認知症対応型通所介護】熊本県上天草市龍ヶ岳町高戸1237-15", "url": "https://www.kaigokensaku.mhlw.go.jp/43/index.php?action_kouhyou_detail_004_kani=true&JigyosyoCd=4391200112-00&ServiceCd=720&Type=search", "url2": "amakusa.care/" }, "geometry": { "type": "Point", "coordinates": [ 130.389595, 32.3935786 ] } },
{ "type": "Feature", "properties": { "内容": "オレンジハウス【認知症対応型通所介護】宇城市小川町南部田131番地１", "url": "https://www.kaigokensaku.mhlw.go.jp/43/index.php?action_kouhyou_detail_004_kani=true&JigyosyoCd=4371300189-00&ServiceCd=720&Type=search", "url2": "http://www.jinsuikai-hp.jp" }, "geometry": { "type": "Point", "coordinates": [ 130.71002180000005, 32.5919225 ] } },
{ "type": "Feature", "properties": { "内容": "認知症対応型通所介護　オリーブハウス【認知症対応型通所介護】熊本県宇城市松橋町松山3591番地4", "url": "https://www.kaigokensaku.mhlw.go.jp/43/index.php?action_kouhyou_detail_004_kani=true&JigyosyoCd=4391300052-00&ServiceCd=720&Type=search", "url2": "https://www.jinsuikai-hp.jp/matsubase_nursingcare.php" }, "geometry": { "type": "Point", "coordinates": [ 130.68284570000003, 32.660457 ] } },
{ "type": "Feature", "properties": { "内容": "グループホームといはた共用型通所介護【認知症対応型通所介護】熊本県阿蘇市内牧１１７", "url": "https://www.kaigokensaku.mhlw.go.jp/43/index.php?action_kouhyou_detail_004_kani=true&JigyosyoCd=4372701039-00&ServiceCd=720&Type=search", "url2": null }, "geometry": { "type": "Point", "coordinates": [ 131.043798, 32.9748866 ] } },
{ "type": "Feature", "properties": { "内容": "大阿蘇病院にこにこデイサービスセンター【認知症対応型通所介護】阿蘇市一の宮町宮地5857番地7", "url": "https://www.kaigokensaku.mhlw.go.jp/43/index.php?action_kouhyou_detail_004_kani=true&JigyosyoCd=4391400043-00&ServiceCd=720&Type=search", "url2": "https://www.daitokukai.info" }, "geometry": { "type": "Point", "coordinates": [ 131.1131342, 32.9336493 ] } },
{ "type": "Feature", "properties": { "内容": "明香里ねすと【認知症対応型通所介護】熊本県天草市二浦町亀浦1066番地6", "url": "https://www.kaigokensaku.mhlw.go.jp/43/index.php?action_kouhyou_detail_004_kani=true&JigyosyoCd=4391500255-00&ServiceCd=720&Type=search", "url2": "http://kenzyukai-tokoton.or.jp" }, "geometry": { "type": "Point", "coordinates": [ 130.025992299999984, 32.2717431 ] } },
{ "type": "Feature", "properties": { "内容": "デイサービスセンター優海【認知症対応型通所介護】熊本県天草市御所浦町御所浦3916-6番地", "url": "https://www.kaigokensaku.mhlw.go.jp/43/index.php?action_kouhyou_detail_004_kani=true&JigyosyoCd=4391500016-00&ServiceCd=720&Type=search", "url2": "http://amakusa.care/" }, "geometry": { "type": "Point", "coordinates": [ 130.340699099999938, 32.3359699 ] } },
{ "type": "Feature", "properties": { "内容": "デイサービス桜ん里【認知症対応型通所介護】熊本県天草市河浦町白木河内１１６-１", "url": "https://www.kaigokensaku.mhlw.go.jp/43/index.php?action_kouhyou_detail_004_kani=true&JigyosyoCd=4391500032-00&ServiceCd=720&Type=search", "url2": "http://www.matsumotonaikaganka.jp" }, "geometry": { "type": "Point", "coordinates": [ 130.082207100000034, 32.3143489 ] } },
{ "type": "Feature", "properties": { "内容": "デイサービスセンター明香里【認知症対応型通所介護】熊本県天草市二浦町亀浦１０６６番地６", "url": "https://www.kaigokensaku.mhlw.go.jp/43/index.php?action_kouhyou_detail_004_kani=true&JigyosyoCd=4391500123-00&ServiceCd=720&Type=search", "url2": "http://kenzyukai-tokoton.or.jp" }, "geometry": { "type": "Point", "coordinates": [ 130.025992299999984, 32.2717431 ] } },
{ "type": "Feature", "properties": { "内容": "共用型デイサービスあかね苑【認知症対応型通所介護】熊本県天草市久玉町5716-9", "url": "https://www.kaigokensaku.mhlw.go.jp/43/index.php?action_kouhyou_detail_004_kani=true&JigyosyoCd=4391500339-00&ServiceCd=720&Type=search", "url2": "http://www.matsumotonaikaganka.jp/" }, "geometry": { "type": "Point", "coordinates": [ 130.028464500000041, 32.2139567 ] } },
{ "type": "Feature", "properties": { "内容": "デイサービスさくらんぼ須屋【認知症対応型通所介護】合志市須屋2863－4", "url": "https://www.kaigokensaku.mhlw.go.jp/43/index.php?action_kouhyou_detail_004_kani=true&JigyosyoCd=4391600055-00&ServiceCd=720&Type=search", "url2": "http://www.nakayamakai.jp/index.html" }, "geometry": { "type": "Point", "coordinates": [ 130.743583, 32.8681616 ] } },
{ "type": "Feature", "properties": { "内容": "ポジティブリーケア合志栄【認知症対応型通所介護】熊本県合志市栄2325-1", "url": "https://www.kaigokensaku.mhlw.go.jp/43/index.php?action_kouhyou_detail_004_kani=true&JigyosyoCd=4391600162-00&ServiceCd=720&Type=search", "url2": null }, "geometry": { "type": "Point", "coordinates": [ 130.7704036, 32.9024037 ] } },
{ "type": "Feature", "properties": { "内容": "デイサービス　はる【認知症対応型通所介護】熊本県玉名郡玉東町西安寺302-1", "url": "https://www.kaigokensaku.mhlw.go.jp/43/index.php?action_kouhyou_detail_004_kani=true&JigyosyoCd=4392400034-00&ServiceCd=720&Type=search", "url2": "http://www.haru86.co.jp" }, "geometry": { "type": "Point", "coordinates": [ 130.634262700000022, 32.8931718 ] } },
{ "type": "Feature", "properties": { "内容": "グループホームはる【認知症対応型通所介護】熊本県玉名郡玉東町西安寺302-１", "url": "https://www.kaigokensaku.mhlw.go.jp/43/index.php?action_kouhyou_detail_004_kani=true&JigyosyoCd=4372401077-00&ServiceCd=720&Type=search", "url2": "https://group-yamamoto.com/" }, "geometry": { "type": "Point", "coordinates": [ 130.6342835, 32.8932031 ] } },
{ "type": "Feature", "properties": { "内容": "和楽荘デイサービス南関の里【認知症対応型通所介護】熊本県玉名郡南関町大字久重3424番地3", "url": "https://www.kaigokensaku.mhlw.go.jp/43/index.php?action_kouhyou_detail_004_kani=true&JigyosyoCd=4392400018-00&ServiceCd=720&Type=search", "url2": "mikawa-fukusikai.com" }, "geometry": { "type": "Point", "coordinates": [ 130.526294, 33.0422365 ] } },
{ "type": "Feature", "properties": { "内容": "脳活デイサービス　Blanc〜ブラン〜大津店【認知症対応型通所介護】熊本県菊池郡大津町大津308-1", "url": "https://www.kaigokensaku.mhlw.go.jp/43/index.php?action_kouhyou_detail_004_kani=true&JigyosyoCd=4392600245-00&ServiceCd=720&Type=search", "url2": null }, "geometry": { "type": "Point", "coordinates": [ 130.86801871305417, 32.888501210697648 ] } },
{ "type": "Feature", "properties": { "内容": "グループホーム武蔵ヶ丘認知症対応型通所介護【認知症対応型通所介護】武蔵ヶ丘北１丁目８－１", "url": "https://www.kaigokensaku.mhlw.go.jp/43/index.php?action_kouhyou_detail_004_kani=true&JigyosyoCd=4392600096-00&ServiceCd=720&Type=search", "url2": "http://kaigonomirai.com" }, "geometry": { "type": "Point", "coordinates": [ 130.7677583, 32.8605885 ] } },
{ "type": "Feature", "properties": { "内容": "なでしこデイサービスセンター【認知症対応型通所介護】熊本県阿蘇郡産山村大字田尻618番地２", "url": "https://www.kaigokensaku.mhlw.go.jp/43/index.php?action_kouhyou_detail_004_kani=true&JigyosyoCd=4392700060-00&ServiceCd=720&Type=search", "url2": "http://www.yamanami.or.jp" }, "geometry": { "type": "Point", "coordinates": [ 131.173794276057379, 33.031103276544592 ] } },
{ "type": "Feature", "properties": { "内容": "みどりの館認知症対応型デイサービス【認知症対応型通所介護】熊本県阿蘇郡西原村布田845", "url": "https://www.kaigokensaku.mhlw.go.jp/43/index.php?action_kouhyou_detail_004_kani=true&JigyosyoCd=4392700185-00&ServiceCd=720&Type=search", "url2": "http://seijinkai-midori.org/" }, "geometry": { "type": "Point", "coordinates": [ 130.884445300000039, 32.8291973 ] } },
{ "type": "Feature", "properties": { "内容": "グループホーム日々輝【認知症対応型通所介護】熊本県上益城郡御船町辺田見１８１－１", "url": "https://www.kaigokensaku.mhlw.go.jp/43/index.php?action_kouhyou_detail_004_kani=true&JigyosyoCd=4372800989-00&ServiceCd=720&Type=search", "url2": null }, "geometry": { "type": "Point", "coordinates": [ 130.804216399999973, 32.711216 ] } },
{ "type": "Feature", "properties": { "内容": "グループホーム　グリーンヒルみふね【認知症対応型通所介護】熊本県上益城郡御船町木倉1720-6", "url": "https://www.kaigokensaku.mhlw.go.jp/43/index.php?action_kouhyou_detail_004_kani=true&JigyosyoCd=4372800799-00&ServiceCd=720&Type=search", "url2": "http://greenhillmifune.web.fc2.com/greenhillmifunetop.html" }, "geometry": { "type": "Point", "coordinates": [ 130.8162959, 32.7212651 ] } },
{ "type": "Feature", "properties": { "内容": "ひろやす荘認知症対応型通所介護事業所【認知症対応型通所介護】熊本県上益城郡益城町大字安永1080番地", "url": "https://www.kaigokensaku.mhlw.go.jp/43/index.php?action_kouhyou_detail_004_kani=true&JigyosyoCd=4372800484-00&ServiceCd=720&Type=search", "url2": "https://jikou-kai.com/" }, "geometry": { "type": "Point", "coordinates": [ 130.811785, 32.7908609 ] } },
{ "type": "Feature", "properties": { "内容": "認知症生活支援センター　せせらぎ【認知症対応型通所介護】熊本県上益城郡甲佐町大字白旗986番地", "url": "https://www.kaigokensaku.mhlw.go.jp/43/index.php?action_kouhyou_detail_004_kani=true&JigyosyoCd=4392800142-00&ServiceCd=720&Type=search", "url2": "seseragi@rose.plala.or.jp" }, "geometry": { "type": "Point", "coordinates": [ 130.783376099999941, 32.707213 ] } },
{ "type": "Feature", "properties": { "内容": "共用型デイ　和鹿島【認知症対応型通所介護】熊本県八代郡氷川町鹿野1301-2", "url": "https://www.kaigokensaku.mhlw.go.jp/43/index.php?action_kouhyou_detail_004_kani=true&JigyosyoCd=4392900058-00&ServiceCd=720&Type=search", "url2": null }, "geometry": { "type": "Point", "coordinates": [ 130.664761399999946, 32.5902492 ] } },
{ "type": "Feature", "properties": { "内容": "グループホームつわぶき【認知症対応型通所介護】熊本県葦北郡芦北町大字湯浦1505－1", "url": "https://www.kaigokensaku.mhlw.go.jp/43/index.php?action_kouhyou_detail_004_kani=true&JigyosyoCd=4373000589-00&ServiceCd=720&Type=search", "url2": "ghtuwabuki@fsint.or.jp" }, "geometry": { "type": "Point", "coordinates": [ 130.497009100000014, 32.2797516 ] } },
{ "type": "Feature", "properties": { "内容": "共用型指定認知症対応型デイサービスおおづる【認知症対応型通所介護】熊本県球磨郡錦町大字西７０番地", "url": "https://www.kaigokensaku.mhlw.go.jp/43/index.php?action_kouhyou_detail_004_kani=true&JigyosyoCd=4393100229-00&ServiceCd=720&Type=search", "url2": "nishikien.com" }, "geometry": { "type": "Point", "coordinates": [ 130.828559300000052, 32.1940638 ] } },
{ "type": "Feature", "properties": { "内容": "グループホーム花みずき【認知症対応型通所介護】熊本県球磨郡多良木町久米1325番地", "url": "https://www.kaigokensaku.mhlw.go.jp/43/index.php?action_kouhyou_detail_004_kani=true&JigyosyoCd=4393100179-00&ServiceCd=720&Type=search", "url2": "https://www.hanamizuki.taragi.jp" }, "geometry": { "type": "Point", "coordinates": [ 130.965244007942147, 32.24862794595996 ] } }
]
}
