{
"type": "FeatureCollection",
"name": "geo_43_各種学校",
"crs": { "type": "name", "properties": { "name": "urn:ogc:def:crs:EPSG::6668" } },
"features": [
{ "type": "Feature", "properties": { "P29_001": "43101", "P29_002": "H243310000012", "P29_003": "16015", "P29_004": "九州音楽専門学院", "P29_005": "熊本県熊本市中央区水前寺公園23-21", "P29_006": "4", "P29_007": "0", "P29_008": "00", "P29_009": null }, "geometry": { "type": "Point", "coordinates": [ 130.737148146556052, 32.791800104802263 ] } },
{ "type": "Feature", "properties": { "P29_001": "43101", "P29_002": "H243310000021", "P29_003": "16015", "P29_004": "寺原自動車学校", "P29_005": "熊本県熊本市中央区壺川2-3-78", "P29_006": "4", "P29_007": "0", "P29_008": "00", "P29_009": null }, "geometry": { "type": "Point", "coordinates": [ 130.709842175343397, 32.817511105965487 ] } },
{ "type": "Feature", "properties": { "P29_001": "43203", "P29_002": "H243310000030", "P29_003": "16015", "P29_004": "人吉球磨准看護学院", "P29_005": "熊本県人吉市南泉田町72-2", "P29_006": "4", "P29_007": "0", "P29_008": "00", "P29_009": null }, "geometry": { "type": "Point", "coordinates": [ 130.763994404291907, 32.216595371941466 ] } },
{ "type": "Feature", "properties": { "P29_001": "43208", "P29_002": "H243310000049", "P29_003": "16015", "P29_004": "松浦服装学院", "P29_005": "熊本県山鹿市山鹿344-4", "P29_006": "4", "P29_007": "0", "P29_008": "00", "P29_009": null }, "geometry": { "type": "Point", "coordinates": [ 130.692168843196697, 33.015261384866868 ] } },
{ "type": "Feature", "properties": { "P29_001": "43101", "P29_002": "H243310000058", "P29_003": "16015", "P29_004": "塩渕総合料理学園", "P29_005": "熊本県熊本市中央区水道町8-1よねはくビル", "P29_006": "4", "P29_007": "0", "P29_008": "00", "P29_009": null }, "geometry": { "type": "Point", "coordinates": [ 130.713495309526394, 32.802749737341905 ] } },
{ "type": "Feature", "properties": { "P29_001": "43215", "P29_002": "H243310000067", "P29_003": "16015", "P29_004": "本渡文化服装学院", "P29_005": "熊本県天草市諏訪町5-4", "P29_006": "4", "P29_007": "0", "P29_008": "00", "P29_009": null }, "geometry": { "type": "Point", "coordinates": [ 130.189409995688237, 32.453939997985991 ] } },
{ "type": "Feature", "properties": { "P29_001": "43102", "P29_002": "H243310000076", "P29_003": "16015", "P29_004": "熊本インターナショナルスクール", "P29_005": "熊本県熊本市東区西原1-22-24", "P29_006": "4", "P29_007": "0", "P29_008": "00", "P29_009": null }, "geometry": { "type": "Point", "coordinates": [ 130.754722187623116, 32.814731449731624 ] } }
]
}
