{
"type": "FeatureCollection",
"name": "geo_43_特別支援学校",
"crs": { "type": "name", "properties": { "name": "urn:ogc:def:crs:EPSG::6668" } },
"features": [
{ "type": "Feature", "properties": { "P29_001": "43101", "P29_002": "E143110000013", "P29_003": "16012", "P29_004": "熊本大学教育学部附属特別支援学校", "P29_005": "熊本県熊本市中央区黒髪5-17-1", "P29_006": "1", "P29_007": "0", "P29_008": "00", "P29_009": null }, "geometry": { "type": "Point", "coordinates": [ 130.730810675896237, 32.816400461197404 ] } },
{ "type": "Feature", "properties": { "P29_001": "43102", "P29_002": "E143210000011", "P29_003": "16012", "P29_004": "熊本県立盲学校", "P29_005": "熊本県熊本市東区東町3-14-1", "P29_006": "2", "P29_007": "0", "P29_008": "00", "P29_009": null }, "geometry": { "type": "Point", "coordinates": [ 130.769104359887308, 32.782281399459293 ] } },
{ "type": "Feature", "properties": { "P29_001": "43102", "P29_002": "E143210000020", "P29_003": "16012", "P29_004": "熊本県立熊本聾学校", "P29_005": "熊本県熊本市東区東町3-14-2", "P29_006": "2", "P29_007": "0", "P29_008": "00", "P29_009": null }, "geometry": { "type": "Point", "coordinates": [ 130.768663617277497, 32.783638591273608 ] } },
{ "type": "Feature", "properties": { "P29_001": "43213", "P29_002": "E143210000039", "P29_003": "16012", "P29_004": "熊本県立松橋支援学校", "P29_005": "熊本県宇城市松橋町南豊崎252", "P29_006": "2", "P29_007": "0", "P29_008": "00", "P29_009": null }, "geometry": { "type": "Point", "coordinates": [ 130.68184248380993, 32.623217422420332 ] } },
{ "type": "Feature", "properties": { "P29_001": "43216", "P29_002": "E143210000048", "P29_003": "16012", "P29_004": "熊本県立菊池支援学校", "P29_005": "熊本県合志市合生4300", "P29_006": "2", "P29_007": "0", "P29_008": "00", "P29_009": null }, "geometry": { "type": "Point", "coordinates": [ 130.76057915327371, 32.89759520202027 ] } },
{ "type": "Feature", "properties": { "P29_001": "43216", "P29_002": "E143210000057", "P29_003": "16012", "P29_004": "熊本県立黒石原支援学校", "P29_005": "熊本県合志市須屋2659", "P29_006": "2", "P29_007": "0", "P29_008": "00", "P29_009": null }, "geometry": { "type": "Point", "coordinates": [ 130.749615076322385, 32.878267843831367 ] } },
{ "type": "Feature", "properties": { "P29_001": "43213", "P29_002": "E143210000066", "P29_003": "16012", "P29_004": "熊本県立松橋東支援学校", "P29_005": "熊本県宇城市松橋町豊福2910", "P29_006": "2", "P29_007": "0", "P29_008": "00", "P29_009": null }, "geometry": { "type": "Point", "coordinates": [ 130.700054818308672, 32.644225816197022 ] } },
{ "type": "Feature", "properties": { "P29_001": "43202", "P29_002": "E143210000075", "P29_003": "16012", "P29_004": "八代市立八代支援学校", "P29_005": "熊本県八代市高島町1-6", "P29_006": "3", "P29_007": "0", "P29_008": "00", "P29_009": null }, "geometry": { "type": "Point", "coordinates": [ 130.579371657025689, 32.521627915140314 ] } },
{ "type": "Feature", "properties": { "P29_001": "43101", "P29_002": "E143210000084", "P29_003": "16012", "P29_004": "熊本県立熊本支援学校", "P29_005": "熊本県熊本市中央区出水5-5-16", "P29_006": "2", "P29_007": "0", "P29_008": "00", "P29_009": null }, "geometry": { "type": "Point", "coordinates": [ 130.728864504725408, 32.783418556346987 ] } },
{ "type": "Feature", "properties": { "P29_001": "43215", "P29_002": "E143210000093", "P29_003": "16012", "P29_004": "熊本県立天草支援学校", "P29_005": "熊本県天草市本町新休972", "P29_006": "2", "P29_007": "0", "P29_008": "00", "P29_009": null }, "geometry": { "type": "Point", "coordinates": [ 130.145887713996501, 32.469017269037757 ] } },
{ "type": "Feature", "properties": { "P29_001": "43213", "P29_002": "E143210000100", "P29_003": "16012", "P29_004": "熊本県立松橋西支援学校", "P29_005": "熊本県宇城市松橋町松橋308-1", "P29_006": "2", "P29_007": "0", "P29_008": "00", "P29_009": null }, "geometry": { "type": "Point", "coordinates": [ 130.67932395631675, 32.647317381438995 ] } },
{ "type": "Feature", "properties": { "P29_001": "43482", "P29_002": "E143210000119", "P29_003": "16012", "P29_004": "熊本県立芦北支援学校", "P29_005": "熊本県葦北郡芦北町芦北2829-8", "P29_006": "2", "P29_007": "0", "P29_008": "00", "P29_009": null }, "geometry": { "type": "Point", "coordinates": [ 130.496544259967209, 32.296428391756294 ] } },
{ "type": "Feature", "properties": { "P29_001": "43531", "P29_002": "E143210000128", "P29_003": "16012", "P29_004": "熊本県立苓北支援学校", "P29_005": "熊本県天草郡苓北町志岐1217-1", "P29_006": "2", "P29_007": "0", "P29_008": "00", "P29_009": null }, "geometry": { "type": "Point", "coordinates": [ 130.06237898461444, 32.51355224962429 ] } },
{ "type": "Feature", "properties": { "P29_001": "43204", "P29_002": "E143210000137", "P29_003": "16012", "P29_004": "熊本県立荒尾支援学校", "P29_005": "熊本県荒尾市増永西長浦2299-3", "P29_006": "2", "P29_007": "0", "P29_008": "00", "P29_009": null }, "geometry": { "type": "Point", "coordinates": [ 130.4524915294229, 32.97259423022264 ] } },
{ "type": "Feature", "properties": { "P29_001": "43424", "P29_002": "E143210000146", "P29_003": "16012", "P29_004": "熊本県立小国支援学校", "P29_005": "熊本県阿蘇郡小国町宮原2635-2", "P29_006": "2", "P29_007": "0", "P29_008": "00", "P29_009": null }, "geometry": { "type": "Point", "coordinates": [ 131.059350799173046, 33.112049529369123 ] } },
{ "type": "Feature", "properties": { "P29_001": "43505", "P29_002": "E143210000155", "P29_003": "16012", "P29_004": "熊本県立球磨支援学校", "P29_005": "熊本県球磨郡多良木町多良木4217", "P29_006": "2", "P29_007": "0", "P29_008": "00", "P29_009": null }, "geometry": { "type": "Point", "coordinates": [ 130.926867143205072, 32.254136195520985 ] } },
{ "type": "Feature", "properties": { "P29_001": "43403", "P29_002": "E143210000164", "P29_003": "16012", "P29_004": "熊本県立大津支援学校", "P29_005": "熊本県菊池郡大津町室1381", "P29_006": "2", "P29_007": "0", "P29_008": "00", "P29_009": null }, "geometry": { "type": "Point", "coordinates": [ 130.856890917906668, 32.885523926959053 ] } },
{ "type": "Feature", "properties": { "P29_001": "43216", "P29_002": "E143210000173", "P29_003": "16012", "P29_004": "熊本県立ひのくに高等支援学校", "P29_005": "熊本県合志市合生4360-7", "P29_006": "2", "P29_007": "0", "P29_008": "00", "P29_009": null }, "geometry": { "type": "Point", "coordinates": [ 130.759916059830374, 32.895915149527788 ] } },
{ "type": "Feature", "properties": { "P29_001": "43103", "P29_002": "E143210000182", "P29_003": "16012", "P29_004": "熊本県立熊本かがやきの森支援学校", "P29_005": "熊本県熊本市西区横手5-16-28", "P29_006": "2", "P29_007": "0", "P29_008": "00", "P29_009": null }, "geometry": { "type": "Point", "coordinates": [ 130.684809608926003, 32.805005068803545 ] } },
{ "type": "Feature", "properties": { "P29_001": "43104", "P29_002": "E143210000191", "P29_003": "16012", "P29_004": "熊本市立平成さくら支援学校", "P29_005": "熊本県熊本市南区平成2-20-1", "P29_006": "3", "P29_007": "0", "P29_008": "00", "P29_009": null }, "geometry": { "type": "Point", "coordinates": [ 130.701527569955147, 32.777473962084699 ] } },
{ "type": "Feature", "properties": { "P29_001": "43102", "P29_002": "E143210000208", "P29_003": "16012", "P29_004": "熊本県立熊本はばたき高等支援学校", "P29_005": "熊本県熊本市東区東町3-14-3", "P29_006": "2", "P29_007": "0", "P29_008": "00", "P29_009": null }, "geometry": { "type": "Point", "coordinates": [ 130.769934425135773, 32.783945294272812 ] } },
{ "type": "Feature", "properties": { "P29_001": "43101", "P29_002": "E143210000217", "P29_003": "16012", "P29_004": "熊本市立あおば支援学校", "P29_005": "熊本県熊本市中央区千葉城町5-3", "P29_006": "3", "P29_007": "0", "P29_008": "00", "P29_009": null }, "geometry": { "type": "Point", "coordinates": [ 130.708989878217778, 32.808954811968952 ] } },
{ "type": "Feature", "properties": { "P29_001": "43202", "P29_002": "E143210000226", "P29_003": "16012", "P29_004": "熊本県立鏡わかあゆ高等支援学校", "P29_005": "熊本県八代市鏡町鏡村937", "P29_006": "2", "P29_007": "0", "P29_008": "00", "P29_009": null }, "geometry": { "type": "Point", "coordinates": [ 130.656876811741625, 32.571359900783534 ] } },
{ "type": "Feature", "properties": { "P29_001": "43208", "P29_002": "E143210000235", "P29_003": "16012", "P29_004": "熊本県立かもと稲田支援学校", "P29_005": "熊本県山鹿市鹿本町高橋638", "P29_006": "2", "P29_007": "0", "P29_008": "00", "P29_009": null }, "geometry": { "type": "Point", "coordinates": [ 130.755363120297403, 33.005911385618035 ] } }
]
}
