{
"type": "FeatureCollection",
"name": "geo_43_地域密着型介護老人福祉施設入所者生活介護",
"crs": { "type": "name", "properties": { "name": "urn:ogc:def:crs:OGC:1.3:CRS84" } },
"features": [
{ "type": "Feature", "properties": { "内容": "ノットホーム【地域密着型介護老人福祉施設入所者生活介護】黒髪5丁目23番1号", "url": "https://www.kaigokensaku.mhlw.go.jp/43/index.php?action_kouhyou_detail_004_kani=true&JigyosyoCd=4390101626-00&ServiceCd=540&Type=search", "url2": "http://www.riddell-wright.com/" }, "geometry": { "type": "Point", "coordinates": [ 130.731351414819301, 32.818485055261178 ] } },
{ "type": "Feature", "properties": { "内容": "地域密着型特別養護老人ホーム　向山つくし庵【地域密着型介護老人福祉施設入所者生活介護】熊本県熊本市中央区本山1丁目6-17", "url": "https://www.kaigokensaku.mhlw.go.jp/43/index.php?action_kouhyou_detail_004_kani=true&JigyosyoCd=4390101139-00&ServiceCd=540&Type=search", "url2": "http://www.sanko-kai.or.jp/kouzan/pr/" }, "geometry": { "type": "Point", "coordinates": [ 130.698414599999978, 32.7907095 ] } },
{ "type": "Feature", "properties": { "内容": "地域密着型介護老人福祉施設　託麻苑【地域密着型介護老人福祉施設入所者生活介護】熊本県熊本市東区戸島町460番1", "url": "https://www.kaigokensaku.mhlw.go.jp/43/index.php?action_kouhyou_detail_004_kani=true&JigyosyoCd=4390101824-00&ServiceCd=540&Type=search", "url2": "http://www.takumakai.or.jp/index.html" }, "geometry": { "type": "Point", "coordinates": [ 130.819849213530688, 32.829082106857363 ] } },
{ "type": "Feature", "properties": { "内容": "特別養護老人ホーム　風の木苑【地域密着型介護老人福祉施設入所者生活介護】熊本市東区西原1丁目１１－６３", "url": "https://www.kaigokensaku.mhlw.go.jp/43/index.php?action_kouhyou_detail_004_kani=true&JigyosyoCd=4390100602-00&ServiceCd=540&Type=search", "url2": "http://www.eikou.or.jp" }, "geometry": { "type": "Point", "coordinates": [ 130.751452800000038, 32.8150942 ] } },
{ "type": "Feature", "properties": { "内容": "特別養護老人ホームこもれび桜木東【地域密着型介護老人福祉施設入所者生活介護】熊本県熊本市東区佐土原二丁目7番20号", "url": "https://www.kaigokensaku.mhlw.go.jp/43/index.php?action_kouhyou_detail_004_kani=true&JigyosyoCd=4390103408-00&ServiceCd=540&Type=search", "url2": "http://shinseiki.jp/" }, "geometry": { "type": "Point", "coordinates": [ 130.7812505, 32.792882 ] } },
{ "type": "Feature", "properties": { "内容": "おとなの学校八角堂校【地域密着型介護老人福祉施設入所者生活介護】熊本市西区花園２丁目１０番１６号", "url": "https://www.kaigokensaku.mhlw.go.jp/43/index.php?action_kouhyou_detail_004_kani=true&JigyosyoCd=4390100727-00&ServiceCd=540&Type=search", "url2": "https://shoukei-kai.com/" }, "geometry": { "type": "Point", "coordinates": [ 130.692653599999971, 32.8156488 ] } },
{ "type": "Feature", "properties": { "内容": "特別養護老人ホーム　上熊本苑【地域密着型介護老人福祉施設入所者生活介護】熊本市西区上熊本３丁目１２番２４号", "url": "https://www.kaigokensaku.mhlw.go.jp/43/index.php?action_kouhyou_detail_004_kani=true&JigyosyoCd=4390101188-00&ServiceCd=540&Type=search", "url2": "http://www.shafuku-aiseikai.or.jp/" }, "geometry": { "type": "Point", "coordinates": [ 130.701811099999986, 32.82339 ] } },
{ "type": "Feature", "properties": { "内容": "リバーサイド熊本　ユニットホーム【地域密着型介護老人福祉施設入所者生活介護】熊本市西区河内町野出1936-1", "url": "https://www.kaigokensaku.mhlw.go.jp/43/index.php?action_kouhyou_detail_004_kani=true&JigyosyoCd=4390101469-00&ServiceCd=540&Type=search", "url2": "https://shunkokai.jp" }, "geometry": { "type": "Point", "coordinates": [ 130.62728919999995, 32.8264693 ] } },
{ "type": "Feature", "properties": { "内容": "特別養護老人ホーム　小島苑【地域密着型介護老人福祉施設入所者生活介護】熊本県熊本市西区小島5丁目15番45号", "url": "https://www.kaigokensaku.mhlw.go.jp/43/index.php?action_kouhyou_detail_004_kani=true&JigyosyoCd=4390102897-00&ServiceCd=540&Type=search", "url2": "https://www.shafuku-aiseikai.or.jp/" }, "geometry": { "type": "Point", "coordinates": [ 130.6381753, 32.7802451 ] } },
{ "type": "Feature", "properties": { "内容": "みゆき東館【地域密着型介護老人福祉施設入所者生活介護】熊本市南区御幸笛田６－６－７１", "url": "https://www.kaigokensaku.mhlw.go.jp/43/index.php?action_kouhyou_detail_004_kani=true&JigyosyoCd=4390101295-00&ServiceCd=540&Type=search", "url2": "http://www.miyukinosato.or.jp/" }, "geometry": { "type": "Point", "coordinates": [ 130.710595199999943, 32.7585072 ] } },
{ "type": "Feature", "properties": { "内容": "地域密着型特別養護老人ホーム天寿園NeO【地域密着型介護老人福祉施設入所者生活介護】熊本県熊本市南区奥古閑町4345", "url": "https://www.kaigokensaku.mhlw.go.jp/43/index.php?action_kouhyou_detail_004_kani=true&JigyosyoCd=4390101832-00&ServiceCd=540&Type=search", "url2": "https:/fuku-juryo.jp" }, "geometry": { "type": "Point", "coordinates": [ 130.622258399999964, 32.7290443 ] } },
{ "type": "Feature", "properties": { "内容": "特別養護老人ホーム天寿園青葉【地域密着型介護老人福祉施設入所者生活介護】熊本県熊本市南区奥古閑町4375番1", "url": "https://www.kaigokensaku.mhlw.go.jp/43/index.php?action_kouhyou_detail_004_kani=true&JigyosyoCd=4390101477-00&ServiceCd=540&Type=search", "url2": "https://fuku-juryo.jp" }, "geometry": { "type": "Point", "coordinates": [ 130.620838899999967, 32.7294554 ] } },
{ "type": "Feature", "properties": { "内容": "はるの里【地域密着型介護老人福祉施設入所者生活介護】熊本県熊本市南区城南町舞原253番地-1", "url": "https://www.kaigokensaku.mhlw.go.jp/43/index.php?action_kouhyou_detail_004_kani=true&JigyosyoCd=4390101352-00&ServiceCd=540&Type=search", "url2": "http：//kayuukai.or.jp" }, "geometry": { "type": "Point", "coordinates": [ 130.746578199999931, 32.7090176 ] } },
{ "type": "Feature", "properties": { "内容": "地域密着型特別養護老人ホーム　かわしり御蔵【地域密着型介護老人福祉施設入所者生活介護】熊本市南区南高江7丁目3番ケアタウン　かわしり", "url": "https://www.kaigokensaku.mhlw.go.jp/43/index.php?action_kouhyou_detail_004_kani=true&JigyosyoCd=4390102624-00&ServiceCd=540&Type=search", "url2": "take-fuku@muse.ocn.ne.jp" }, "geometry": { "type": "Point", "coordinates": [ 130.686540499999978, 32.7447094 ] } },
{ "type": "Feature", "properties": { "内容": "地域密着型ユニット型介護老人福祉施設　リデルホーム龍田【地域密着型介護老人福祉施設入所者生活介護】熊本市北区龍田陳内３丁目１９番１２号", "url": "https://www.kaigokensaku.mhlw.go.jp/43/index.php?action_kouhyou_detail_004_kani=true&JigyosyoCd=4390100750-00&ServiceCd=540&Type=search", "url2": "http://www.riddell-wright.com/" }, "geometry": { "type": "Point", "coordinates": [ 130.749147578282589, 32.83021813977733 ] } },
{ "type": "Feature", "properties": { "内容": "サンビレッジ高平台【地域密着型介護老人福祉施設入所者生活介護】熊本県熊本市北区大窪３丁目１１番４７号", "url": "https://www.kaigokensaku.mhlw.go.jp/43/index.php?action_kouhyou_detail_004_kani=true&JigyosyoCd=4390100842-00&ServiceCd=540&Type=search", "url2": "http://www.ikueikai-kumamoto.or.jp/sunvillage/index.htm" }, "geometry": { "type": "Point", "coordinates": [ 130.712835, 32.8504879 ] } },
{ "type": "Feature", "properties": { "内容": "地域密着型特別養護老人ホームあいこう　ひかり館【地域密着型介護老人福祉施設入所者生活介護】熊本県熊本市北区清水新地三丁目５番３３号", "url": "https://www.kaigokensaku.mhlw.go.jp/43/index.php?action_kouhyou_detail_004_kani=true&JigyosyoCd=4390101501-00&ServiceCd=540&Type=search", "url2": "http://www.aikou.or.jp" }, "geometry": { "type": "Point", "coordinates": [ 130.739469699999972, 32.8479301 ] } },
{ "type": "Feature", "properties": { "内容": "特別養護老人ホームつるのはら【地域密着型介護老人福祉施設入所者生活介護】熊本県熊本市北区梶尾町1779番7", "url": "https://www.kaigokensaku.mhlw.go.jp/43/index.php?action_kouhyou_detail_004_kani=true&JigyosyoCd=4390102129-00&ServiceCd=540&Type=search", "url2": "http//www.syafuku-aiseikai.or.jp" }, "geometry": { "type": "Point", "coordinates": [ 130.728917200000069, 32.8676505 ] } },
{ "type": "Feature", "properties": { "内容": "田原の郷【地域密着型介護老人福祉施設入所者生活介護】熊本県熊本市北区植木町鞍掛１５２２－１", "url": "https://www.kaigokensaku.mhlw.go.jp/43/index.php?action_kouhyou_detail_004_kani=true&JigyosyoCd=4390101493-00&ServiceCd=540&Type=search", "url2": "http://tabarunosato.com/" }, "geometry": { "type": "Point", "coordinates": [ 130.676519317721585, 32.902734258376391 ] } },
{ "type": "Feature", "properties": { "内容": "地域密着型特別養護老人ホーム　れいめいの家【地域密着型介護老人福祉施設入所者生活介護】熊本県熊本市北区植木町豊田１８７番地", "url": "https://www.kaigokensaku.mhlw.go.jp/43/index.php?action_kouhyou_detail_004_kani=true&JigyosyoCd=4390101097-00&ServiceCd=540&Type=search", "url2": "sanpo-fukushi.com" }, "geometry": { "type": "Point", "coordinates": [ 130.71296602980803, 32.93583957539213 ] } },
{ "type": "Feature", "properties": { "内容": "地域密着型介護老人福祉施設希望【地域密着型介護老人福祉施設入所者生活介護】熊本県八代市興善寺町495番地1", "url": "https://www.kaigokensaku.mhlw.go.jp/43/index.php?action_kouhyou_detail_004_kani=true&JigyosyoCd=4390200162-00&ServiceCd=540&Type=search", "url2": "http://www.ryuhou-kibou.com" }, "geometry": { "type": "Point", "coordinates": [ 130.659298300000046, 32.5276744 ] } },
{ "type": "Feature", "properties": { "内容": "地域密着型特別養護老人ホーム　八代草【地域密着型介護老人福祉施設入所者生活介護】熊本県八代市海士江町2833番地1", "url": "https://www.kaigokensaku.mhlw.go.jp/43/index.php?action_kouhyou_detail_004_kani=true&JigyosyoCd=4390200261-00&ServiceCd=540&Type=search", "url2": "http://yatsushirosou.or.jp" }, "geometry": { "type": "Point", "coordinates": [ 130.621977710559122, 32.523711861138061 ] } },
{ "type": "Feature", "properties": { "内容": "地域密着型特別養護老人ホーム　キャッスル麦島【地域密着型介護老人福祉施設入所者生活介護】熊本県八代市古城町1938-1", "url": "https://www.kaigokensaku.mhlw.go.jp/43/index.php?action_kouhyou_detail_004_kani=true&JigyosyoCd=4390200279-00&ServiceCd=540&Type=search", "url2": "http//y-aiiku.com/castle-mugishima/" }, "geometry": { "type": "Point", "coordinates": [ 130.597443800000036, 32.500045800000024 ] } },
{ "type": "Feature", "properties": { "内容": "地域密着型特別養護老人ホーム　サテライト　安寿の里【地域密着型介護老人福祉施設入所者生活介護】熊本県八代市鏡町内田742番2", "url": "https://www.kaigokensaku.mhlw.go.jp/43/index.php?action_kouhyou_detail_004_kani=true&JigyosyoCd=4390200378-00&ServiceCd=540&Type=search", "url2": "anju@spice.ocn.ne.jp" }, "geometry": { "type": "Point", "coordinates": [ 130.6563688, 32.567396 ] } },
{ "type": "Feature", "properties": { "内容": "地域密着型特別養護老人ホームあさひ園みやじ【地域密着型介護老人福祉施設入所者生活介護】熊本県八代市宮地町１６９番地１", "url": "https://www.kaigokensaku.mhlw.go.jp/43/index.php?action_kouhyou_detail_004_kani=true&JigyosyoCd=4390200451-00&ServiceCd=540&Type=search", "url2": "http://www.kyoujukai.jp" }, "geometry": { "type": "Point", "coordinates": [ 130.6376697, 32.4987071 ] } },
{ "type": "Feature", "properties": { "内容": "個室ユニット型特別養護老人ホーム　聖心ホーム【地域密着型介護老人福祉施設入所者生活介護】熊本県人吉市寺町9-5", "url": "https://www.kaigokensaku.mhlw.go.jp/43/index.php?action_kouhyou_detail_004_kani=true&JigyosyoCd=4390300558-00&ServiceCd=540&Type=search", "url2": null }, "geometry": { "type": "Point", "coordinates": [ 130.761740700000018, 32.2067298 ] } },
{ "type": "Feature", "properties": { "内容": "地域密着型特別養護老人ホーム　アゼリア【地域密着型介護老人福祉施設入所者生活介護】熊本県人吉市蟹作町3690番地", "url": "https://www.kaigokensaku.mhlw.go.jp/43/index.php?action_kouhyou_detail_004_kani=true&JigyosyoCd=4390300533-00&ServiceCd=540&Type=search", "url2": "http://www.kaiseikai-azelea.com" }, "geometry": { "type": "Point", "coordinates": [ 130.774992503600231, 32.195784624796609 ] } },
{ "type": "Feature", "properties": { "内容": "特別養護老人ホーム和光苑【地域密着型介護老人福祉施設入所者生活介護】熊本県水俣市袋2501番地252", "url": "https://www.kaigokensaku.mhlw.go.jp/43/index.php?action_kouhyou_detail_004_kani=true&JigyosyoCd=4390500199-00&ServiceCd=540&Type=search", "url2": "https://tunaginosato.wixsite.com/koueikai" }, "geometry": { "type": "Point", "coordinates": [ 130.3751122, 32.1720556 ] } },
{ "type": "Feature", "properties": { "内容": "特別養護老人ホーム生喜の里【地域密着型介護老人福祉施設入所者生活介護】熊本県水俣市月浦928番地1", "url": "https://www.kaigokensaku.mhlw.go.jp/43/index.php?action_kouhyou_detail_004_kani=true&JigyosyoCd=4390500207-00&ServiceCd=540&Type=search", "url2": null }, "geometry": { "type": "Point", "coordinates": [ 130.3842192, 32.1884648 ] } },
{ "type": "Feature", "properties": { "内容": "特別養護老人ホーム　ビハーラまどか【地域密着型介護老人福祉施設入所者生活介護】熊本県水俣市石坂川113番2", "url": "https://www.kaigokensaku.mhlw.go.jp/43/index.php?action_kouhyou_detail_004_kani=true&JigyosyoCd=4390500124-00&ServiceCd=540&Type=search", "url2": "http://syotoku.jp/" }, "geometry": { "type": "Point", "coordinates": [ 130.479284600000028, 32.162239600000021 ] } },
{ "type": "Feature", "properties": { "内容": "特別養護老人ホームもやい処【地域密着型介護老人福祉施設入所者生活介護】熊本県玉名市築地64番1特別養護老人ホームもやい処", "url": "https://www.kaigokensaku.mhlw.go.jp/43/index.php?action_kouhyou_detail_004_kani=true&JigyosyoCd=4390600056-00&ServiceCd=540&Type=search", "url2": "http://www.ariakehome.jp/" }, "geometry": { "type": "Point", "coordinates": [ 130.5338941, 32.9319481 ] } },
{ "type": "Feature", "properties": { "内容": "ユニット型　さくら苑【地域密着型介護老人福祉施設入所者生活介護】熊本県玉名市伊倉北方1533番地", "url": "https://www.kaigokensaku.mhlw.go.jp/43/index.php?action_kouhyou_detail_004_kani=true&JigyosyoCd=4390600072-00&ServiceCd=540&Type=search", "url2": "https://www.sakura-en.com" }, "geometry": { "type": "Point", "coordinates": [ 130.574748, 32.9141274 ] } },
{ "type": "Feature", "properties": { "内容": "地域密着型特別養護老人ホーム慈幸苑【地域密着型介護老人福祉施設入所者生活介護】熊本県玉名市横島町横島2381-1", "url": "https://www.kaigokensaku.mhlw.go.jp/43/index.php?action_kouhyou_detail_004_kani=true&JigyosyoCd=4390600080-00&ServiceCd=540&Type=search", "url2": "https://souyukai.or.jp/" }, "geometry": { "type": "Point", "coordinates": [ 130.561586300000045, 32.8793661 ] } },
{ "type": "Feature", "properties": { "内容": "特別養護老人ホーム　有明ホーム　ユニット陽だまり【地域密着型介護老人福祉施設入所者生活介護】熊本県玉名市天水町部田見440番地", "url": "https://www.kaigokensaku.mhlw.go.jp/43/index.php?action_kouhyou_detail_004_kani=true&JigyosyoCd=4390600098-00&ServiceCd=540&Type=search", "url2": "http://www.ariakehome.jp/" }, "geometry": { "type": "Point", "coordinates": [ 130.569768699999941, 32.885413 ] } },
{ "type": "Feature", "properties": { "内容": "さくら苑　立願の森【地域密着型介護老人福祉施設入所者生活介護】熊本県玉名市立願寺623-1", "url": "https://www.kaigokensaku.mhlw.go.jp/43/index.php?action_kouhyou_detail_004_kani=true&JigyosyoCd=4390600148-00&ServiceCd=540&Type=search", "url2": "https://www.sakura-en.com/" }, "geometry": { "type": "Point", "coordinates": [ 130.557009, 32.9387366 ] } },
{ "type": "Feature", "properties": { "内容": "ケアビレッジたがの里【地域密着型介護老人福祉施設入所者生活介護】熊本県玉名市天水町小天字権現下６６３３番地１", "url": "https://www.kaigokensaku.mhlw.go.jp/43/index.php?action_kouhyou_detail_004_kani=true&JigyosyoCd=4390600130-00&ServiceCd=540&Type=search", "url2": "taganosato@tensui.or.jp" }, "geometry": { "type": "Point", "coordinates": [ 130.589097151945452, 32.859302125769084 ] } },
{ "type": "Feature", "properties": { "内容": "地域密着型特別養護老人ホーム　あいさと【地域密着型介護老人福祉施設入所者生活介護】熊本県山鹿市鹿央町合里1039番地", "url": "https://www.kaigokensaku.mhlw.go.jp/43/index.php?action_kouhyou_detail_004_kani=true&JigyosyoCd=4390800227-00&ServiceCd=540&Type=search", "url2": "http://www.keisho-kai.jp/" }, "geometry": { "type": "Point", "coordinates": [ 130.675617779762177, 32.978454802951362 ] } },
{ "type": "Feature", "properties": { "内容": "特別養護老人ホーム不二の里【地域密着型介護老人福祉施設入所者生活介護】熊本県菊池市泗水町吉富2276-1", "url": "https://www.kaigokensaku.mhlw.go.jp/43/index.php?action_kouhyou_detail_004_kani=true&JigyosyoCd=4391000033-00&ServiceCd=540&Type=search", "url2": "www.fwp.or.jp" }, "geometry": { "type": "Point", "coordinates": [ 130.781987299999969, 32.9341059 ] } },
{ "type": "Feature", "properties": { "内容": "地域密着型特別養護老人ホーム清泉【地域密着型介護老人福祉施設入所者生活介護】熊本県菊池市七城町亀尾2429番地2", "url": "https://www.kaigokensaku.mhlw.go.jp/43/index.php?action_kouhyou_detail_004_kani=true&JigyosyoCd=4391000066-00&ServiceCd=540&Type=search", "url2": "https://sesen-aikei.wixsite.com/seisen" }, "geometry": { "type": "Point", "coordinates": [ 130.768224, 32.9553711 ] } },
{ "type": "Feature", "properties": { "内容": "地域密着型介護老人福祉施設あさひが丘荘和楽【地域密着型介護老人福祉施設入所者生活介護】熊本県菊池市旭志伊坂４４９番地１", "url": "https://www.kaigokensaku.mhlw.go.jp/43/index.php?action_kouhyou_detail_004_kani=true&JigyosyoCd=4391000082-00&ServiceCd=540&Type=search", "url2": "http://www.ashigaokasou.or.jp" }, "geometry": { "type": "Point", "coordinates": [ 130.8323772, 32.9347365 ] } },
{ "type": "Feature", "properties": { "内容": "ユニット型特別養護老人ホーム泗水苑【地域密着型介護老人福祉施設入所者生活介護】熊本県菊池市泗水町永１０２１番地", "url": "https://www.kaigokensaku.mhlw.go.jp/43/index.php?action_kouhyou_detail_004_kani=true&JigyosyoCd=4391100064-00&ServiceCd=540&Type=search", "url2": "http://www.sisuien.com" }, "geometry": { "type": "Point", "coordinates": [ 130.802902300000028, 32.9260092 ] } },
{ "type": "Feature", "properties": { "内容": "社会福祉法人東康会特別養護老人ホームつまごめ荘（地域密着型）【地域密着型介護老人福祉施設入所者生活介護】熊本県菊池市今５８番地", "url": "https://www.kaigokensaku.mhlw.go.jp/43/index.php?action_kouhyou_detail_004_kani=true&JigyosyoCd=4391000140-00&ServiceCd=540&Type=search", "url2": null }, "geometry": { "type": "Point", "coordinates": [ 130.8148683, 32.9710317 ] } },
{ "type": "Feature", "properties": { "内容": "特別養護老人ホームわいふ桜座【地域密着型介護老人福祉施設入所者生活介護】熊本県菊池市隈府114番地3", "url": "https://www.kaigokensaku.mhlw.go.jp/43/index.php?action_kouhyou_detail_004_kani=true&JigyosyoCd=4391000124-00&ServiceCd=540&Type=search", "url2": null }, "geometry": { "type": "Point", "coordinates": [ 130.812388300000066, 32.9834744 ] } },
{ "type": "Feature", "properties": { "内容": "特別養護老人ホーム西城園【地域密着型介護老人福祉施設入所者生活介護】下網田町1905", "url": "https://www.kaigokensaku.mhlw.go.jp/43/index.php?action_kouhyou_detail_004_kani=true&JigyosyoCd=4391100049-00&ServiceCd=540&Type=search", "url2": "https://www.seijyo-en.com/" }, "geometry": { "type": "Point", "coordinates": [ 130.550295419296276, 32.668003808045562 ] } },
{ "type": "Feature", "properties": { "内容": "地域密着型介護老人福祉施設　照古苑ひまわりホーム【地域密着型介護老人福祉施設入所者生活介護】宇土市松山町1988", "url": "https://www.kaigokensaku.mhlw.go.jp/43/index.php?action_kouhyou_detail_004_kani=true&JigyosyoCd=4391100056-00&ServiceCd=540&Type=search", "url2": "http://hakujitsukai.jp" }, "geometry": { "type": "Point", "coordinates": [ 130.671844001049749, 32.668541987383755 ] } },
{ "type": "Feature", "properties": { "内容": "特別養護老人ホームひかりの園指月館【地域密着型介護老人福祉施設入所者生活介護】熊本県上天草市松島町今泉1004-1", "url": "https://www.kaigokensaku.mhlw.go.jp/43/index.php?action_kouhyou_detail_004_kani=true&JigyosyoCd=4391200070-00&ServiceCd=540&Type=search", "url2": "http://hikarinosono1995.com" }, "geometry": { "type": "Point", "coordinates": [ 130.4234735, 32.4900876 ] } },
{ "type": "Feature", "properties": { "内容": "特別養護老人ホーム翔洋苑ユニット棟【地域密着型介護老人福祉施設入所者生活介護】熊本県上天草市姫戸町姫浦字西成川内3055番地45、106", "url": "https://www.kaigokensaku.mhlw.go.jp/43/index.php?action_kouhyou_detail_004_kani=true&JigyosyoCd=4391200088-00&ServiceCd=540&Type=search", "url2": "http://www.shoyoen.or.jp/" }, "geometry": { "type": "Point", "coordinates": [ 130.415303194724061, 32.445119519344104 ] } },
{ "type": "Feature", "properties": { "内容": "特別養護老人ホーム相生荘（従来型）【地域密着型介護老人福祉施設入所者生活介護】熊本県上天草市龍ヶ岳町大道158番地", "url": "https://www.kaigokensaku.mhlw.go.jp/43/index.php?action_kouhyou_detail_004_kani=true&JigyosyoCd=4391200096-00&ServiceCd=540&Type=search", "url2": null }, "geometry": { "type": "Point", "coordinates": [ 130.351074, 32.394711 ] } },
{ "type": "Feature", "properties": { "内容": "ユニット型指定地域密着型介護老人福祉施設　サテライトしらぬい荘【地域密着型介護老人福祉施設入所者生活介護】熊本県宇城市松橋町曲野35番地の1", "url": "https://www.kaigokensaku.mhlw.go.jp/43/index.php?action_kouhyou_detail_004_kani=true&JigyosyoCd=4391300094-00&ServiceCd=540&Type=search", "url2": "http//www.shiranuiso.or.jp" }, "geometry": { "type": "Point", "coordinates": [ 130.687116282385404, 32.651780641563555 ] } },
{ "type": "Feature", "properties": { "内容": "地域密着型特別養護老人ホームサテライトおひさま【地域密着型介護老人福祉施設入所者生活介護】熊本県宇城市小川町河江209番地", "url": "https://www.kaigokensaku.mhlw.go.jp/43/index.php?action_kouhyou_detail_004_kani=true&JigyosyoCd=4391300110-00&ServiceCd=540&Type=search", "url2": "http:hidakekai.hippy.jp" }, "geometry": { "type": "Point", "coordinates": [ 130.702825, 32.5953691 ] } },
{ "type": "Feature", "properties": { "内容": "ユニット　豊洋【地域密着型介護老人福祉施設入所者生活介護】熊本県宇城市三角町里浦２８５５番5", "url": "https://www.kaigokensaku.mhlw.go.jp/43/index.php?action_kouhyou_detail_004_kani=true&JigyosyoCd=4391300128-00&ServiceCd=540&Type=search", "url2": "http://houyouen.jp/" }, "geometry": { "type": "Point", "coordinates": [ 130.553989300000012, 32.6234886 ] } },
{ "type": "Feature", "properties": { "内容": "地域密着型特別養護老人ホームひだけ荘里山【地域密着型介護老人福祉施設入所者生活介護】熊本県宇城市小川町南海東2030番地", "url": "https://www.kaigokensaku.mhlw.go.jp/43/index.php?action_kouhyou_detail_004_kani=true&JigyosyoCd=4391300136-00&ServiceCd=540&Type=search", "url2": "http:hidakekai.hippy.jp" }, "geometry": { "type": "Point", "coordinates": [ 130.742847899999987, 32.5815605 ] } },
{ "type": "Feature", "properties": { "内容": "特別養護老人ホームきらら【地域密着型介護老人福祉施設入所者生活介護】熊本県宇城市松橋町きらら1丁目9番地3", "url": "https://www.kaigokensaku.mhlw.go.jp/43/index.php?action_kouhyou_detail_004_kani=true&JigyosyoCd=4391300185-00&ServiceCd=540&Type=search", "url2": "seikaien.jp" }, "geometry": { "type": "Point", "coordinates": [ 130.676760400000035, 32.6457248 ] } },
{ "type": "Feature", "properties": { "内容": "特別養護老人ホームひのおか順心館【地域密着型介護老人福祉施設入所者生活介護】熊本県阿蘇市赤水字無田ノ上1894番地1", "url": "https://www.kaigokensaku.mhlw.go.jp/43/index.php?action_kouhyou_detail_004_kani=true&JigyosyoCd=4391400050-00&ServiceCd=540&Type=search", "url2": "http://www.hinooka1990.or.jp" }, "geometry": { "type": "Point", "coordinates": [ 130.995035200404345, 32.911362639585683 ] } },
{ "type": "Feature", "properties": { "内容": "地域密着型特別養護老人ホームあその杜【地域密着型介護老人福祉施設入所者生活介護】熊本県阿蘇市乙姫1776番地", "url": "https://www.kaigokensaku.mhlw.go.jp/43/index.php?action_kouhyou_detail_004_kani=true&JigyosyoCd=4391400092-00&ServiceCd=540&Type=search", "url2": "http://www.yamanami.or.jp" }, "geometry": { "type": "Point", "coordinates": [ 131.044058008598341, 32.936471559922083 ] } },
{ "type": "Feature", "properties": { "内容": "地域密着型特別養護老人ホーム　悠ほーむ【地域密着型介護老人福祉施設入所者生活介護】熊本県天草市久玉町1411番4", "url": "https://www.kaigokensaku.mhlw.go.jp/43/index.php?action_kouhyou_detail_004_kani=true&JigyosyoCd=4391500263-00&ServiceCd=540&Type=search", "url2": "https://www.ensoukai-yuhome.com/" }, "geometry": { "type": "Point", "coordinates": [ 130.032955774762769, 32.216965110573447 ] } },
{ "type": "Feature", "properties": { "内容": "地域密着型特別養護老人ホーム聖和園【地域密着型介護老人福祉施設入所者生活介護】下浦町2081-7", "url": "https://www.kaigokensaku.mhlw.go.jp/43/index.php?action_kouhyou_detail_004_kani=true&JigyosyoCd=4391500289-00&ServiceCd=540&Type=search", "url2": "https://seiwakai-kumamoto.com/" }, "geometry": { "type": "Point", "coordinates": [ 130.223295396789581, 32.425168798653665 ] } },
{ "type": "Feature", "properties": { "内容": "地域密着型特別養護老人ホーム新和苑　あがんなっせ【地域密着型介護老人福祉施設入所者生活介護】熊本県天草市新和町小宮地７６３番地２", "url": "https://www.kaigokensaku.mhlw.go.jp/43/index.php?action_kouhyou_detail_004_kani=true&JigyosyoCd=4391500305-00&ServiceCd=540&Type=search", "url2": "http://www.shinwaen.net" }, "geometry": { "type": "Point", "coordinates": [ 130.186059076721222, 32.371387546656599 ] } },
{ "type": "Feature", "properties": { "内容": "地域密着型特別養護老人ホーム梅寿荘【地域密着型介護老人福祉施設入所者生活介護】熊本県天草市栖本町湯船原661番地", "url": "https://www.kaigokensaku.mhlw.go.jp/43/index.php?action_kouhyou_detail_004_kani=true&JigyosyoCd=4391500321-00&ServiceCd=540&Type=search", "url2": "http//www.baijuso.sakura.ne.jp/" }, "geometry": { "type": "Point", "coordinates": [ 130.277099264417956, 32.416458792275719 ] } },
{ "type": "Feature", "properties": { "内容": "特別養護老人ホーム葉山苑　天領の杜【地域密着型介護老人福祉施設入所者生活介護】本町下河内2234番地", "url": "https://www.kaigokensaku.mhlw.go.jp/43/index.php?action_kouhyou_detail_004_kani=true&JigyosyoCd=4391500370-00&ServiceCd=540&Type=search", "url2": "http://www.hayamaen.com/" }, "geometry": { "type": "Point", "coordinates": [ 130.165794771389642, 32.474144960308514 ] } },
{ "type": "Feature", "properties": { "内容": "地域密着型特別養護老人ホーム　サザンテラス五和【地域密着型介護老人福祉施設入所者生活介護】熊本県天草市五和町御領9113番地", "url": "https://www.kaigokensaku.mhlw.go.jp/43/index.php?action_kouhyou_detail_004_kani=true&JigyosyoCd=4391500388-00&ServiceCd=540&Type=search", "url2": "https://www.ichiyokai.or.jp/" }, "geometry": { "type": "Point", "coordinates": [ 130.188883199999964, 32.514497 ] } },
{ "type": "Feature", "properties": { "内容": "地域密着型特別養護老人ホーム　シャトー天草【地域密着型介護老人福祉施設入所者生活介護】熊本県天草市今釜町８番５８号", "url": "https://www.kaigokensaku.mhlw.go.jp/43/index.php?action_kouhyou_detail_004_kani=true&JigyosyoCd=4391500297-00&ServiceCd=540&Type=search", "url2": "https://www.chateau-amakusa.com" }, "geometry": { "type": "Point", "coordinates": [ 130.191832829885925, 32.462530219301435 ] } },
{ "type": "Feature", "properties": { "内容": "グランビュー有明【地域密着型介護老人福祉施設入所者生活介護】熊本県天草市有明町小島子1358番9グランビュー有明", "url": "https://www.kaigokensaku.mhlw.go.jp/43/index.php?action_kouhyou_detail_004_kani=true&JigyosyoCd=4391500446-00&ServiceCd=540&Type=search", "url2": "URL.http//ichiyokai.or.jp/" }, "geometry": { "type": "Point", "coordinates": [ 130.2741603, 32.4827581 ] } },
{ "type": "Feature", "properties": { "内容": "地域密着型特別養護老人ホーム慈晃園【地域密着型介護老人福祉施設入所者生活介護】熊本県天草市佐伊津町928", "url": "https://www.kaigokensaku.mhlw.go.jp/43/index.php?action_kouhyou_detail_004_kani=true&JigyosyoCd=4391500313-00&ServiceCd=540&Type=search", "url2": "https://jikouen2016.com/" }, "geometry": { "type": "Point", "coordinates": [ 130.1941369, 32.4860771 ] } },
{ "type": "Feature", "properties": { "内容": "ヒューマン・ケア　こうしの杜【地域密着型介護老人福祉施設入所者生活介護】合志市豊岡2000番地190", "url": "https://www.kaigokensaku.mhlw.go.jp/43/index.php?action_kouhyou_detail_004_kani=true&JigyosyoCd=4391600071-00&ServiceCd=540&Type=search", "url2": "http://zikeikai.jp/kousino_mori" }, "geometry": { "type": "Point", "coordinates": [ 130.763304863159902, 32.877732613652967 ] } },
{ "type": "Feature", "properties": { "内容": "ヒューマン・ケア　たかばの杜【地域密着型介護老人福祉施設入所者生活介護】熊本県合志市幾久富1121-1", "url": "https://www.kaigokensaku.mhlw.go.jp/43/index.php?action_kouhyou_detail_004_kani=true&JigyosyoCd=4391600105-00&ServiceCd=540&Type=search", "url2": "http://zikeikai.jp/hp1/takabano_mori/" }, "geometry": { "type": "Point", "coordinates": [ 130.795461101123749, 32.893396625174191 ] } },
{ "type": "Feature", "properties": { "内容": "地域密着型介護老人福祉施設　くぬぎ荘【地域密着型介護老人福祉施設入所者生活介護】熊本県合志市野々島5678番2", "url": "https://www.kaigokensaku.mhlw.go.jp/43/index.php?action_kouhyou_detail_004_kani=true&JigyosyoCd=4391600113-00&ServiceCd=540&Type=search", "url2": "https://taito-kunugi.jp/" }, "geometry": { "type": "Point", "coordinates": [ 130.73242212601167, 32.879633481589714 ] } },
{ "type": "Feature", "properties": { "内容": "特別養護老人ホーム　大地の里　えがお【地域密着型介護老人福祉施設入所者生活介護】熊本県合志市須屋2670番地3", "url": "https://www.kaigokensaku.mhlw.go.jp/43/index.php?action_kouhyou_detail_004_kani=true&JigyosyoCd=4391600089-00&ServiceCd=540&Type=search", "url2": "daichi-egao.com" }, "geometry": { "type": "Point", "coordinates": [ 130.746304799999962, 32.8765386 ] } },
{ "type": "Feature", "properties": { "内容": "地域密着型特別養護老人ホーム　サポートハウスきらきら【地域密着型介護老人福祉施設入所者生活介護】熊本県玉名郡南関町関町355番地", "url": "https://www.kaigokensaku.mhlw.go.jp/43/index.php?action_kouhyou_detail_004_kani=true&JigyosyoCd=4392400109-00&ServiceCd=540&Type=search", "url2": "http://www.shafuku-kirakira.com/" }, "geometry": { "type": "Point", "coordinates": [ 130.546779579083363, 33.065633149286064 ] } },
{ "type": "Feature", "properties": { "内容": "地域密着型特別養護老人ホーム　喜寿園【地域密着型介護老人福祉施設入所者生活介護】熊本県菊池郡大津町大字室1713番地", "url": "https://www.kaigokensaku.mhlw.go.jp/43/index.php?action_kouhyou_detail_004_kani=true&JigyosyoCd=4392600104-00&ServiceCd=540&Type=search", "url2": "http://koshin-kai.jp/" }, "geometry": { "type": "Point", "coordinates": [ 130.855354483514475, 32.888601796177497 ] } },
{ "type": "Feature", "properties": { "内容": "地域密着型特別養護老人ホームケアタウン光の森【地域密着型介護老人福祉施設入所者生活介護】熊本県菊池郡菊陽町大字津久礼3002番地1", "url": "https://www.kaigokensaku.mhlw.go.jp/43/index.php?action_kouhyou_detail_004_kani=true&JigyosyoCd=4392600120-00&ServiceCd=540&Type=search", "url2": "http://caretown-hikari.or.jp" }, "geometry": { "type": "Point", "coordinates": [ 130.791222258642961, 32.864209566565279 ] } },
{ "type": "Feature", "properties": { "内容": "地域密着型特別養護老人ホーム音ねの森【地域密着型介護老人福祉施設入所者生活介護】熊本県菊池郡菊陽町大字原水4643番地2", "url": "https://www.kaigokensaku.mhlw.go.jp/43/index.php?action_kouhyou_detail_004_kani=true&JigyosyoCd=4392600203-00&ServiceCd=540&Type=search", "url2": "https://otonomori.org/" }, "geometry": { "type": "Point", "coordinates": [ 130.832807958613557, 32.877312148559923 ] } },
{ "type": "Feature", "properties": { "内容": "地域密着型特別養護老人ホームきほう苑きらら【地域密着型介護老人福祉施設入所者生活介護】熊本県菊池郡菊陽町辛川1936-1", "url": "https://www.kaigokensaku.mhlw.go.jp/43/index.php?action_kouhyou_detail_004_kani=true&JigyosyoCd=4392600088-00&ServiceCd=540&Type=search", "url2": "http://seiyou-kai.net/" }, "geometry": { "type": "Point", "coordinates": [ 130.806150200264, 32.848090052471818 ] } },
{ "type": "Feature", "properties": { "内容": "地域密着型ホーム悠清苑【地域密着型介護老人福祉施設入所者生活介護】熊本県阿蘇郡南小国町大字満願寺5854番１特別養護老人ホーム悠清苑", "url": "https://www.kaigokensaku.mhlw.go.jp/43/index.php?action_kouhyou_detail_004_kani=true&JigyosyoCd=4392700136-00&ServiceCd=540&Type=search", "url2": "https://yuseien.grupo.jp/" }, "geometry": { "type": "Point", "coordinates": [ 131.126372, 33.0726103 ] } },
{ "type": "Feature", "properties": { "内容": "特別養護老人ホーム　なでしこの里【地域密着型介護老人福祉施設入所者生活介護】熊本県阿蘇郡産山村大字田尻618番地２", "url": "https://www.kaigokensaku.mhlw.go.jp/43/index.php?action_kouhyou_detail_004_kani=true&JigyosyoCd=4392700060-00&ServiceCd=540&Type=search", "url2": "http://www.yamanami.or.jp" }, "geometry": { "type": "Point", "coordinates": [ 131.173762089549172, 33.030990841652603 ] } },
{ "type": "Feature", "properties": { "内容": "地域密着型特別養護老人ホームひめゆり【地域密着型介護老人福祉施設入所者生活介護】熊本県阿蘇郡高森町高森993番地8", "url": "https://www.kaigokensaku.mhlw.go.jp/43/index.php?action_kouhyou_detail_004_kani=true&JigyosyoCd=4392700102-00&ServiceCd=540&Type=search", "url2": "http://baikouen.com" }, "geometry": { "type": "Point", "coordinates": [ 131.1225445, 32.8161852 ] } },
{ "type": "Feature", "properties": { "内容": "地域密着型特別養護老人ホームみどりの館【地域密着型介護老人福祉施設入所者生活介護】熊本県阿蘇郡西原村布田897番地1", "url": "https://www.kaigokensaku.mhlw.go.jp/43/index.php?action_kouhyou_detail_004_kani=true&JigyosyoCd=4392700128-00&ServiceCd=540&Type=search", "url2": "https://seijinkai-midori.org/" }, "geometry": { "type": "Point", "coordinates": [ 130.883587, 32.8294945 ] } },
{ "type": "Feature", "properties": { "内容": "ユニット型特別養護老人ホーム水生苑【地域密着型介護老人福祉施設入所者生活介護】熊本県阿蘇郡南阿蘇村大字一関１２８２番地", "url": "https://www.kaigokensaku.mhlw.go.jp/43/index.php?action_kouhyou_detail_004_kani=true&JigyosyoCd=4392700144-00&ServiceCd=540&Type=search", "url2": "suiseien.com/" }, "geometry": { "type": "Point", "coordinates": [ 131.072139600000014, 32.8358056 ] } },
{ "type": "Feature", "properties": { "内容": "特別養護老人ホーム陽ノ丘荘さくら館【地域密着型介護老人福祉施設入所者生活介護】熊本県阿蘇郡南阿蘇村大字河陽4457番地1", "url": "https://www.kaigokensaku.mhlw.go.jp/43/index.php?action_kouhyou_detail_004_kani=true&JigyosyoCd=4392700151-00&ServiceCd=540&Type=search", "url2": "http://www.hinooka1990.or.jp" }, "geometry": { "type": "Point", "coordinates": [ 131.003236854417423, 32.867956463204713 ] } },
{ "type": "Feature", "properties": { "内容": "地域密着型特別養護老人ホーム　華ほたる【地域密着型介護老人福祉施設入所者生活介護】熊本県上益城郡御船町辺田見840番地3", "url": "https://www.kaigokensaku.mhlw.go.jp/43/index.php?action_kouhyou_detail_004_kani=true&JigyosyoCd=4392800241-00&ServiceCd=540&Type=search", "url2": "https://greenhillmifune.com/" }, "geometry": { "type": "Point", "coordinates": [ 130.8112207, 32.7145951 ] } },
{ "type": "Feature", "properties": { "内容": "特別養護老人ホーム　悠優かしま【地域密着型介護老人福祉施設入所者生活介護】熊本県上益城郡嘉島町上仲間151番地1", "url": "https://www.kaigokensaku.mhlw.go.jp/43/index.php?action_kouhyou_detail_004_kani=true&JigyosyoCd=4392800159-00&ServiceCd=540&Type=search", "url2": "https://senjukai.jp/" }, "geometry": { "type": "Point", "coordinates": [ 130.735883100000024, 32.7405259 ] } },
{ "type": "Feature", "properties": { "内容": "桜の丘綾の家　地域密着型介護老人福祉施設入所者生活介護事業所【地域密着型介護老人福祉施設入所者生活介護】熊本県上益城郡甲佐町大字岩下194番地1", "url": "https://www.kaigokensaku.mhlw.go.jp/43/index.php?action_kouhyou_detail_004_kani=true&JigyosyoCd=4392800035-00&ServiceCd=540&Type=search", "url2": "http://www.sakuranooka.or.jp" }, "geometry": { "type": "Point", "coordinates": [ 130.808210199999962, 32.6518104 ] } },
{ "type": "Feature", "properties": { "内容": "ユニット型特別養護老人ホーム桜の丘【地域密着型介護老人福祉施設入所者生活介護】熊本県上益城郡甲佐町西寒野1161番地", "url": "https://www.kaigokensaku.mhlw.go.jp/43/index.php?action_kouhyou_detail_004_kani=true&JigyosyoCd=4392800183-00&ServiceCd=540&Type=search", "url2": "http://www.sakuranooka.or.jp" }, "geometry": { "type": "Point", "coordinates": [ 130.812210700000037, 32.6387062 ] } },
{ "type": "Feature", "properties": { "内容": "特別養護老人ホーム風ノ木【地域密着型介護老人福祉施設入所者生活介護】熊本県上益城郡山都町千滝211", "url": "https://www.kaigokensaku.mhlw.go.jp/43/index.php?action_kouhyou_detail_004_kani=true&JigyosyoCd=4392800167-00&ServiceCd=540&Type=search", "url2": "www.tokuseikai.org" }, "geometry": { "type": "Point", "coordinates": [ 130.98372489999997, 32.6809223 ] } },
{ "type": "Feature", "properties": { "内容": "特別養護老人ホームそよ風の里“ほたる”【地域密着型介護老人福祉施設入所者生活介護】熊本県上益城郡山都町今322-1", "url": "https://www.kaigokensaku.mhlw.go.jp/43/index.php?action_kouhyou_detail_004_kani=true&JigyosyoCd=4392800175-00&ServiceCd=540&Type=search", "url2": "www.soyokazenosato-hotaru.com" }, "geometry": { "type": "Point", "coordinates": [ 131.165296200000057, 32.7296424 ] } },
{ "type": "Feature", "properties": { "内容": "蘇望苑ユニット【地域密着型介護老人福祉施設入所者生活介護】熊本県上益城郡山都町滝上223-1", "url": "https://www.kaigokensaku.mhlw.go.jp/43/index.php?action_kouhyou_detail_004_kani=true&JigyosyoCd=4392800191-00&ServiceCd=540&Type=search", "url2": "https://sobouen.com" }, "geometry": { "type": "Point", "coordinates": [ 131.140247899999906, 32.6886658 ] } },
{ "type": "Feature", "properties": { "内容": "特別養護老人ホーム　つなぎの里【地域密着型介護老人福祉施設入所者生活介護】熊本県葦北郡津奈木町大字小津奈木2120番62", "url": "https://www.kaigokensaku.mhlw.go.jp/43/index.php?action_kouhyou_detail_004_kani=true&JigyosyoCd=4393000056-00&ServiceCd=540&Type=search", "url2": "http://www.koueikai-t.com/index.html" }, "geometry": { "type": "Point", "coordinates": [ 130.436886644180277, 32.230702476917642 ] } },
{ "type": "Feature", "properties": { "内容": "地域密着型介護老人福祉施設錦寿豊苑【地域密着型介護老人福祉施設入所者生活介護】熊本県球磨郡錦町大字一武原田川１２３４番地", "url": "https://www.kaigokensaku.mhlw.go.jp/43/index.php?action_kouhyou_detail_004_kani=true&JigyosyoCd=4393100054-00&ServiceCd=540&Type=search", "url2": "http://nishiki-juhouen.com" }, "geometry": { "type": "Point", "coordinates": [ 130.841114800000014, 32.2011966 ] } },
{ "type": "Feature", "properties": { "内容": "地域密着型特別養護老人ホーム桜なみき【地域密着型介護老人福祉施設入所者生活介護】熊本県球磨郡水上村大字岩野2649番地1", "url": "https://www.kaigokensaku.mhlw.go.jp/43/index.php?action_kouhyou_detail_004_kani=true&JigyosyoCd=4393100153-00&ServiceCd=540&Type=search", "url2": "http://www.oyakuen-g.or.jp/index.html" }, "geometry": { "type": "Point", "coordinates": [ 130.985579199999961, 32.2945322 ] } },
{ "type": "Feature", "properties": { "内容": "地域密着型特別養護老人ホーム川辺川園【地域密着型介護老人福祉施設入所者生活介護】熊本県球磨郡相良村大字川辺1771番地", "url": "https://www.kaigokensaku.mhlw.go.jp/43/index.php?action_kouhyou_detail_004_kani=true&JigyosyoCd=4393100138-00&ServiceCd=540&Type=search", "url2": "http://www.pe-toru.or.jp" }, "geometry": { "type": "Point", "coordinates": [ 130.81518449073792, 32.25634950166247 ] } },
{ "type": "Feature", "properties": { "内容": "千寿園　別館　まごころ【地域密着型介護老人福祉施設入所者生活介護】熊本県球磨郡球磨村大字渡乙880番地21", "url": "https://www.kaigokensaku.mhlw.go.jp/43/index.php?action_kouhyou_detail_004_kani=true&JigyosyoCd=4393100146-00&ServiceCd=540&Type=search", "url2": "http://www.jiaikai1010.or.jp/" }, "geometry": { "type": "Point", "coordinates": [ 130.704210144419307, 32.23475343033477 ] } },
{ "type": "Feature", "properties": { "内容": "地域密着型介護老人福祉施設　りゅうきんか【地域密着型介護老人福祉施設入所者生活介護】熊本県球磨郡あさぎり町免田東字北築地3333番地3", "url": "https://www.kaigokensaku.mhlw.go.jp/43/index.php?action_kouhyou_detail_004_kani=true&JigyosyoCd=4393100062-00&ServiceCd=540&Type=search", "url2": "http://ryukinka.to-yo-kai.com/" }, "geometry": { "type": "Point", "coordinates": [ 130.9128167, 32.249365 ] } },
{ "type": "Feature", "properties": { "内容": "鐘ヶ丘ホーム　いちふさ【地域密着型介護老人福祉施設入所者生活介護】熊本県球磨郡あさぎり町上西字清水835番地", "url": "https://www.kaigokensaku.mhlw.go.jp/43/index.php?action_kouhyou_detail_004_kani=true&JigyosyoCd=4393100112-00&ServiceCd=540&Type=search", "url2": "http://kanegaoka.com/" }, "geometry": { "type": "Point", "coordinates": [ 130.88635, 32.2148381 ] } },
{ "type": "Feature", "properties": { "内容": "ユニット型特別養護老人ホーム　あさぎりホーム【地域密着型介護老人福祉施設入所者生活介護】熊本県球磨郡あさぎり町岡原南77-1", "url": "https://www.kaigokensaku.mhlw.go.jp/43/index.php?action_kouhyou_detail_004_kani=true&JigyosyoCd=4393100120-00&ServiceCd=540&Type=search", "url2": "http://nisikien.com/" }, "geometry": { "type": "Point", "coordinates": [ 130.920297, 32.2344247 ] } },
{ "type": "Feature", "properties": { "内容": "地域密着型介護老人福祉施設　梧葉苑【地域密着型介護老人福祉施設入所者生活介護】熊本県天草郡苓北町上津深江９４番地１", "url": "https://www.kaigokensaku.mhlw.go.jp/43/index.php?action_kouhyou_detail_004_kani=true&JigyosyoCd=4393200037-00&ServiceCd=540&Type=search", "url2": "http://www.jieikai.com/" }, "geometry": { "type": "Point", "coordinates": [ 130.06651439999996, 32.5158785 ] } }
]
}
