{
"type": "FeatureCollection",
"name": "geo_43_義務教育学校",
"crs": { "type": "name", "properties": { "name": "urn:ogc:def:crs:EPSG::6668" } },
"features": [
{ "type": "Feature", "properties": { "P29_001": "43428", "P29_002": "C243210000015", "P29_003": "16014", "P29_004": "高森町立高森東学園義務教育学校", "P29_005": "熊本県阿蘇郡高森町大字野尻1912", "P29_006": "3", "P29_007": "1", "P29_008": "00", "P29_009": null }, "geometry": { "type": "Point", "coordinates": [ 131.244997345957103, 32.824287759552433 ] } },
{ "type": "Feature", "properties": { "P29_001": "43425", "P29_002": "C243210000024", "P29_003": "16014", "P29_004": "産山村立産山学園", "P29_005": "熊本県阿蘇郡産山村大字山鹿476", "P29_006": "3", "P29_007": "1", "P29_008": "00", "P29_009": null }, "geometry": { "type": "Point", "coordinates": [ 131.218025396910662, 32.995146932521251 ] } },
{ "type": "Feature", "properties": { "P29_001": "43506", "P29_002": "C243210000033", "P29_003": "16014", "P29_004": "水上村立水上学園", "P29_005": "熊本県球磨郡水上村大字湯山1", "P29_006": "3", "P29_007": "1", "P29_008": "00", "P29_009": null }, "geometry": { "type": "Point", "coordinates": [ 131.00907460905168, 32.317537940621555 ] } }
]
}
