{
"type": "FeatureCollection",
"name": "geo_43_専修学校",
"crs": { "type": "name", "properties": { "name": "urn:ogc:def:crs:EPSG::6668" } },
"features": [
{ "type": "Feature", "properties": { "P29_001": "43212", "P29_002": "H143210000015", "P29_003": "16016", "P29_004": "上天草看護専門学校", "P29_005": "熊本県上天草市龍ヶ岳町高戸1419-2", "P29_006": "3", "P29_007": "0", "P29_008": "00", "P29_009": null }, "geometry": { "type": "Point", "coordinates": [ 130.389999962380415, 32.39370829109464 ] } },
{ "type": "Feature", "properties": { "P29_001": "43103", "P29_002": "H143210000024", "P29_003": "16016", "P29_004": "熊本市立総合ビジネス専門学校", "P29_005": "熊本県熊本市西区上熊本3-25-5", "P29_006": "3", "P29_007": "0", "P29_008": "00", "P29_009": null }, "geometry": { "type": "Point", "coordinates": [ 130.699027092732109, 32.820110372533961 ] } },
{ "type": "Feature", "properties": { "P29_001": "43215", "P29_002": "H143210000033", "P29_003": "16016", "P29_004": "天草市立本渡看護専門学校", "P29_005": "熊本県天草市亀場町亀川12-1", "P29_006": "3", "P29_007": "0", "P29_008": "00", "P29_009": null }, "geometry": { "type": "Point", "coordinates": [ 130.200672036883589, 32.445478570007502 ] } },
{ "type": "Feature", "properties": { "P29_001": "43216", "P29_002": "H143210000042", "P29_003": "16016", "P29_004": "熊本県立農業大学校", "P29_005": "熊本県合志市栄3805", "P29_006": "2", "P29_007": "0", "P29_008": "00", "P29_009": null }, "geometry": { "type": "Point", "coordinates": [ 130.762668755323432, 32.892424584973654 ] } },
{ "type": "Feature", "properties": { "P29_001": "43101", "P29_002": "H143310000013", "P29_003": "16016", "P29_004": "専修学校熊本壺溪塾", "P29_005": "熊本県熊本市中央区内坪井町5-10", "P29_006": "4", "P29_007": "0", "P29_008": "00", "P29_009": null }, "geometry": { "type": "Point", "coordinates": [ 130.708505260238411, 32.811331225252452 ] } },
{ "type": "Feature", "properties": { "P29_001": "43102", "P29_002": "H143310000022", "P29_003": "16016", "P29_004": "西日本教育医療専門学校", "P29_005": "熊本県熊本市東区健軍3-50-21", "P29_006": "4", "P29_007": "0", "P29_008": "00", "P29_009": null }, "geometry": { "type": "Point", "coordinates": [ 130.760004188655074, 32.778846230255887 ] } },
{ "type": "Feature", "properties": { "P29_001": "43101", "P29_002": "H143310000031", "P29_003": "16016", "P29_004": "九州工科自動車専門学校", "P29_005": "熊本県熊本市中央区本荘町657", "P29_006": "4", "P29_007": "0", "P29_008": "00", "P29_009": null }, "geometry": { "type": "Point", "coordinates": [ 130.700915272821021, 32.787840766953124 ] } },
{ "type": "Feature", "properties": { "P29_001": "43101", "P29_002": "H143310000040", "P29_003": "16016", "P29_004": "ヒロ・デザイン専門学校", "P29_005": "熊本県熊本市中央区紺屋今町3-14", "P29_006": "4", "P29_007": "0", "P29_008": "00", "P29_009": null }, "geometry": { "type": "Point", "coordinates": [ 130.705485124772565, 32.796794384868733 ] } },
{ "type": "Feature", "properties": { "P29_001": "43101", "P29_002": "H143310000059", "P29_003": "16016", "P29_004": "シェフパティシエ学院", "P29_005": "熊本県熊本市中央区春竹町481", "P29_006": "4", "P29_007": "0", "P29_008": "00", "P29_009": null }, "geometry": { "type": "Point", "coordinates": [ 130.703616825210304, 32.785982093965913 ] } },
{ "type": "Feature", "properties": { "P29_001": "43105", "P29_002": "H143310000068", "P29_003": "16016", "P29_004": "九州測量専門学校", "P29_005": "熊本県熊本市北区龍田7-36-80", "P29_006": "4", "P29_007": "0", "P29_008": "00", "P29_009": null }, "geometry": { "type": "Point", "coordinates": [ 130.764692227707883, 32.841945939861482 ] } },
{ "type": "Feature", "properties": { "P29_001": "43101", "P29_002": "H143310000077", "P29_003": "16016", "P29_004": "専修学校熊本ＹＭＣＡ学院", "P29_005": "熊本県熊本市中央区段山本町4-1", "P29_006": "4", "P29_007": "0", "P29_008": "00", "P29_009": null }, "geometry": { "type": "Point", "coordinates": [ 130.695241387600191, 32.806745570979771 ] } },
{ "type": "Feature", "properties": { "P29_001": "43103", "P29_002": "H143310000086", "P29_003": "16016", "P29_004": "熊本看護専門学校", "P29_005": "熊本県熊本市西区上熊本1-10-8", "P29_006": "4", "P29_007": "0", "P29_008": "00", "P29_009": null }, "geometry": { "type": "Point", "coordinates": [ 130.700920876627549, 32.816051126901613 ] } },
{ "type": "Feature", "properties": { "P29_001": "43101", "P29_002": "H143310000095", "P29_003": "16016", "P29_004": "熊本歯科技術専門学校", "P29_005": "熊本県熊本市中央区本荘3-1-6", "P29_006": "4", "P29_007": "0", "P29_008": "00", "P29_009": null }, "geometry": { "type": "Point", "coordinates": [ 130.709644771488485, 32.796195617595011 ] } },
{ "type": "Feature", "properties": { "P29_001": "43101", "P29_002": "H143310000102", "P29_003": "16016", "P29_004": "熊本市医師会看護専門学校", "P29_005": "熊本県熊本市中央区本荘3-3-3", "P29_006": "4", "P29_007": "0", "P29_008": "00", "P29_009": null }, "geometry": { "type": "Point", "coordinates": [ 130.710308994456483, 32.794869178765708 ] } },
{ "type": "Feature", "properties": { "P29_001": "43202", "P29_002": "H143310000111", "P29_003": "16016", "P29_004": "八代実業専門学校", "P29_005": "熊本県八代市迎町1-16-33", "P29_006": "4", "P29_007": "0", "P29_008": "00", "P29_009": null }, "geometry": { "type": "Point", "coordinates": [ 130.601170587841182, 32.497940829108039 ] } },
{ "type": "Feature", "properties": { "P29_001": "43202", "P29_002": "H143310000120", "P29_003": "16016", "P29_004": "熊本労災看護専門学校", "P29_005": "熊本県八代市竹原町1517-2", "P29_006": "0", "P29_007": "0", "P29_008": "00", "P29_009": null }, "geometry": { "type": "Point", "coordinates": [ 130.626951513235497, 32.518270194165893 ] } },
{ "type": "Feature", "properties": { "P29_001": "43203", "P29_002": "H143310000139", "P29_003": "16016", "P29_004": "九州技術教育専門学校", "P29_005": "熊本県人吉市駒井田町216-12", "P29_006": "4", "P29_007": "0", "P29_008": "00", "P29_009": null }, "geometry": { "type": "Point", "coordinates": [ 130.75846774904582, 32.216274744740772 ] } },
{ "type": "Feature", "properties": { "P29_001": "43204", "P29_002": "H143310000148", "P29_003": "16016", "P29_004": "専修学校九州高等商業学校", "P29_005": "熊本県荒尾市西原町2-1-24", "P29_006": "4", "P29_007": "0", "P29_008": "00", "P29_009": null }, "geometry": { "type": "Point", "coordinates": [ 130.433452179219387, 33.00257030636223 ] } },
{ "type": "Feature", "properties": { "P29_001": "43215", "P29_002": "H143310000157", "P29_003": "16016", "P29_004": "天草郡市医師会附属天草准看護高等専修学校", "P29_005": "熊本県天草市本渡町本戸馬場1078-2", "P29_006": "4", "P29_007": "0", "P29_008": "00", "P29_009": null }, "geometry": { "type": "Point", "coordinates": [ 130.184136138190411, 32.461132336501763 ] } },
{ "type": "Feature", "properties": { "P29_001": "43208", "P29_002": "H143310000166", "P29_003": "16016", "P29_004": "鹿本医師会看護学校", "P29_005": "熊本県山鹿市山鹿332-1", "P29_006": "4", "P29_007": "0", "P29_008": "00", "P29_009": null }, "geometry": { "type": "Point", "coordinates": [ 130.692077232729076, 33.014265401577383 ] } },
{ "type": "Feature", "properties": { "P29_001": "43213", "P29_002": "H143310000175", "P29_003": "16016", "P29_004": "三角商業専門学校", "P29_005": "熊本県宇城市三角町三角浦1159-78", "P29_006": "4", "P29_007": "0", "P29_008": "00", "P29_009": null }, "geometry": { "type": "Point", "coordinates": [ 130.468462248011974, 32.607743871476515 ] } },
{ "type": "Feature", "properties": { "P29_001": "43213", "P29_002": "H143310000184", "P29_003": "16016", "P29_004": "宇城看護高等専修学校", "P29_005": "熊本県宇城市松橋町松橋351", "P29_006": "4", "P29_007": "0", "P29_008": "00", "P29_009": null }, "geometry": { "type": "Point", "coordinates": [ 130.6788445934246, 32.648682997287899 ] } },
{ "type": "Feature", "properties": { "P29_001": "43210", "P29_002": "H143310000193", "P29_003": "16016", "P29_004": "菊池郡市医師会立看護高等専修学校", "P29_005": "熊本県菊池市大字隈府764-1", "P29_006": "4", "P29_007": "0", "P29_008": "00", "P29_009": null }, "geometry": { "type": "Point", "coordinates": [ 130.808900206687724, 32.978114487965868 ] } },
{ "type": "Feature", "properties": { "P29_001": "43102", "P29_002": "H143310000200", "P29_003": "16016", "P29_004": "専門学校湖東カレッジ", "P29_005": "熊本県熊本市東区湖東1-12-26", "P29_006": "4", "P29_007": "0", "P29_008": "00", "P29_009": null }, "geometry": { "type": "Point", "coordinates": [ 130.746167231277354, 32.780624241111859 ] } },
{ "type": "Feature", "properties": { "P29_001": "43101", "P29_002": "H143310000219", "P29_003": "16016", "P29_004": "熊本歯科衛生士専門学院", "P29_005": "熊本県熊本市中央区坪井2-3-6", "P29_006": "4", "P29_007": "0", "P29_008": "00", "P29_009": null }, "geometry": { "type": "Point", "coordinates": [ 130.713807371534926, 32.80954883126747 ] } },
{ "type": "Feature", "properties": { "P29_001": "43202", "P29_002": "H143310000228", "P29_003": "16016", "P29_004": "八代看護学校", "P29_005": "熊本県八代市平山新町4453-2", "P29_006": "4", "P29_007": "0", "P29_008": "00", "P29_009": null }, "geometry": { "type": "Point", "coordinates": [ 130.608811953995769, 32.478426258715189 ] } },
{ "type": "Feature", "properties": { "P29_001": "43101", "P29_002": "H143310000237", "P29_003": "16016", "P29_004": "和洋学園専門学校", "P29_005": "熊本県熊本市中央区大江6-29-21", "P29_006": "4", "P29_007": "0", "P29_008": "00", "P29_009": null }, "geometry": { "type": "Point", "coordinates": [ 130.727439089283308, 32.797204593027807 ] } },
{ "type": "Feature", "properties": { "P29_001": "43102", "P29_002": "H143310000246", "P29_003": "16016", "P29_004": "熊本総合医療リハビリテーション学院", "P29_005": "熊本県熊本市東区小山2-25-35", "P29_006": "4", "P29_007": "0", "P29_008": "00", "P29_009": null }, "geometry": { "type": "Point", "coordinates": [ 130.790690666034436, 32.829193510347494 ] } },
{ "type": "Feature", "properties": { "P29_001": "43102", "P29_002": "H143310000255", "P29_003": "16016", "P29_004": "熊本工業専門学校", "P29_005": "熊本県熊本市東区長嶺東5-1-1", "P29_006": "4", "P29_007": "0", "P29_008": "00", "P29_009": null }, "geometry": { "type": "Point", "coordinates": [ 130.781454517365574, 32.818927460841763 ] } },
{ "type": "Feature", "properties": { "P29_001": "43101", "P29_002": "H143310000264", "P29_003": "16016", "P29_004": "九州美容専門学校", "P29_005": "熊本県熊本市中央区南坪井町10-28", "P29_006": "4", "P29_007": "0", "P29_008": "00", "P29_009": null }, "geometry": { "type": "Point", "coordinates": [ 130.714499349697803, 32.80777255603121 ] } },
{ "type": "Feature", "properties": { "P29_001": "43101", "P29_002": "H143310000273", "P29_003": "16016", "P29_004": "熊本電子ビジネス専門学校", "P29_005": "熊本県熊本市中央区九品寺2-2-38", "P29_006": "4", "P29_007": "0", "P29_008": "00", "P29_009": null }, "geometry": { "type": "Point", "coordinates": [ 130.716719033412886, 32.798592751808698 ] } },
{ "type": "Feature", "properties": { "P29_001": "43101", "P29_002": "H143310000282", "P29_003": "16016", "P29_004": "熊本ベルェベル美容専門学校", "P29_005": "熊本県熊本市中央区紺屋今町2-18", "P29_006": "4", "P29_007": "0", "P29_008": "00", "P29_009": null }, "geometry": { "type": "Point", "coordinates": [ 130.704916167524203, 32.796749944902928 ] } },
{ "type": "Feature", "properties": { "P29_001": "43101", "P29_002": "H143310000291", "P29_003": "16016", "P29_004": "熊本外語専門学校", "P29_005": "熊本県熊本市中央区辛島町8-14", "P29_006": "4", "P29_007": "0", "P29_008": "00", "P29_009": null }, "geometry": { "type": "Point", "coordinates": [ 130.703026930646161, 32.798437545798826 ] } },
{ "type": "Feature", "properties": { "P29_001": "43101", "P29_002": "H143310000308", "P29_003": "16016", "P29_004": "専門学校湖東カレッジ唐人町校", "P29_005": "熊本県熊本市中央区上鍛冶屋町8-2", "P29_006": "4", "P29_007": "0", "P29_008": "00", "P29_009": null }, "geometry": { "type": "Point", "coordinates": [ 130.700681427063984, 32.79638718899249 ] } },
{ "type": "Feature", "properties": { "P29_001": "43202", "P29_002": "H143310000317", "P29_003": "16016", "P29_004": "専門学校国際文化教養大学校", "P29_005": "熊本県八代市日置町651-1", "P29_006": "4", "P29_007": "0", "P29_008": "00", "P29_009": null }, "geometry": { "type": "Point", "coordinates": [ 130.621508803413803, 32.509793107530065 ] } },
{ "type": "Feature", "properties": { "P29_001": "43101", "P29_002": "H143310000326", "P29_003": "16016", "P29_004": "熊本デザイン専門学校", "P29_005": "熊本県熊本市中央区大江本町2-5", "P29_006": "4", "P29_007": "0", "P29_008": "00", "P29_009": null }, "geometry": { "type": "Point", "coordinates": [ 130.720894541898957, 32.795917190344355 ] } },
{ "type": "Feature", "properties": { "P29_001": "43101", "P29_002": "H143310000335", "P29_003": "16016", "P29_004": "熊本高等理容学校", "P29_005": "熊本県熊本市中央区白山2-13-20", "P29_006": "4", "P29_007": "0", "P29_008": "00", "P29_009": null }, "geometry": { "type": "Point", "coordinates": [ 130.723273174752308, 32.792263312581674 ] } },
{ "type": "Feature", "properties": { "P29_001": "43213", "P29_002": "H143310000344", "P29_003": "16016", "P29_004": "メディカル・カレッジ青照館", "P29_005": "熊本県宇城市三角町波多2864-111", "P29_006": "4", "P29_007": "0", "P29_008": "00", "P29_009": null }, "geometry": { "type": "Point", "coordinates": [ 130.489456623660942, 32.613719171100733 ] } },
{ "type": "Feature", "properties": { "P29_001": "43101", "P29_002": "H143310000353", "P29_003": "16016", "P29_004": "独立行政法人国立病院機構熊本医療センター附属看護学校", "P29_005": "熊本県熊本市中央区二の丸1-5", "P29_006": "0", "P29_007": "0", "P29_008": "00", "P29_009": null }, "geometry": { "type": "Point", "coordinates": [ 130.700778274828025, 32.804641352000324 ] } },
{ "type": "Feature", "properties": { "P29_001": "43103", "P29_002": "H143310000362", "P29_003": "16016", "P29_004": "専門学校公務員ゼミナール熊本校", "P29_005": "熊本県熊本市西区池亀町5-5", "P29_006": "4", "P29_007": "0", "P29_008": "00", "P29_009": null }, "geometry": { "type": "Point", "coordinates": [ 130.698205078896535, 32.8234375533075 ] } },
{ "type": "Feature", "properties": { "P29_001": "43103", "P29_002": "H143310000371", "P29_003": "16016", "P29_004": "北九州予備校熊本校", "P29_005": "熊本県熊本市西区春日2-3-26", "P29_006": "4", "P29_007": "0", "P29_008": "00", "P29_009": null }, "geometry": { "type": "Point", "coordinates": [ 130.690069906378255, 32.789162244056548 ] } },
{ "type": "Feature", "properties": { "P29_001": "43101", "P29_002": "H143310000380", "P29_003": "16016", "P29_004": "九州技術教育専門学校熊本校", "P29_005": "熊本県熊本市中央区細工町5-35-1", "P29_006": "4", "P29_007": "0", "P29_008": "00", "P29_009": null }, "geometry": { "type": "Point", "coordinates": [ 130.694060127340691, 32.793340156782968 ] } },
{ "type": "Feature", "properties": { "P29_001": "43101", "P29_002": "H143310000399", "P29_003": "16016", "P29_004": "専修学校モア・ヘアメイクカレッジ", "P29_005": "熊本県熊本市中央区本山4-1-46", "P29_006": "4", "P29_007": "0", "P29_008": "00", "P29_009": null }, "geometry": { "type": "Point", "coordinates": [ 130.700845236815582, 32.790830293639445 ] } },
{ "type": "Feature", "properties": { "P29_001": "43101", "P29_002": "H143310000406", "P29_003": "16016", "P29_004": "九州中央リハビリテーション学院", "P29_005": "熊本県熊本市中央区本山3-3-84", "P29_006": "4", "P29_007": "0", "P29_008": "00", "P29_009": null }, "geometry": { "type": "Point", "coordinates": [ 130.695688463179295, 32.789569223305492 ] } },
{ "type": "Feature", "properties": { "P29_001": "43206", "P29_002": "H143310000415", "P29_003": "16016", "P29_004": "日本総合教育専門学校", "P29_005": "熊本県玉名市中4", "P29_006": "4", "P29_007": "0", "P29_008": "00", "P29_009": null }, "geometry": { "type": "Point", "coordinates": [ 130.551282553880696, 32.928168631284457 ] } },
{ "type": "Feature", "properties": { "P29_001": "43103", "P29_002": "H143310000424", "P29_003": "16016", "P29_004": "熊本駅前看護リハビリテーション学院", "P29_005": "熊本県熊本市西区春日2-1-15", "P29_006": "4", "P29_007": "0", "P29_008": "00", "P29_009": null }, "geometry": { "type": "Point", "coordinates": [ 130.691445191355001, 32.789047038432898 ] } },
{ "type": "Feature", "properties": { "P29_001": "43103", "P29_002": "H143310000433", "P29_003": "16016", "P29_004": "専門学校東京ＣＰＡ会計学院熊本校", "P29_005": "熊本県熊本市西区春日2-4-5", "P29_006": "4", "P29_007": "0", "P29_008": "00", "P29_009": null }, "geometry": { "type": "Point", "coordinates": [ 130.69024818438848, 32.787961333239444 ] } },
{ "type": "Feature", "properties": { "P29_001": "43103", "P29_002": "H143310000442", "P29_003": "16016", "P29_004": "大原簿記情報専門学校熊本校", "P29_005": "熊本県熊本市西区春日2-2-35", "P29_006": "4", "P29_007": "0", "P29_008": "00", "P29_009": null }, "geometry": { "type": "Point", "coordinates": [ 130.690520811312354, 32.789478794706369 ] } },
{ "type": "Feature", "properties": { "P29_001": "43103", "P29_002": "H143310000451", "P29_003": "16016", "P29_004": "大原スポーツ公務員専門学校熊本校", "P29_005": "熊本県熊本市西区春日2-2-35", "P29_006": "4", "P29_007": "0", "P29_008": "00", "P29_009": null }, "geometry": { "type": "Point", "coordinates": [ 130.690513748394778, 32.789418435946843 ] } },
{ "type": "Feature", "properties": { "P29_001": "43103", "P29_002": "H143310000460", "P29_003": "16016", "P29_004": "大原保育医療福祉専門学校熊本校", "P29_005": "熊本県熊本市西区春日2-2-35", "P29_006": "4", "P29_007": "0", "P29_008": "00", "P29_009": null }, "geometry": { "type": "Point", "coordinates": [ 130.690478057611728, 32.789510155591351 ] } },
{ "type": "Feature", "properties": { "P29_001": "43101", "P29_002": "H143310000479", "P29_003": "16016", "P29_004": "九州動物学院", "P29_005": "熊本県熊本市中央区本荘6-16-34", "P29_006": "4", "P29_007": "0", "P29_008": "00", "P29_009": null }, "geometry": { "type": "Point", "coordinates": [ 130.704763174063771, 32.792113310778014 ] } },
{ "type": "Feature", "properties": { "P29_001": "43433", "P29_002": "H143310000488", "P29_003": "16016", "P29_004": "イデアＩＴカレッジ阿蘇", "P29_005": "熊本県阿蘇郡南阿蘇村大字河陽4518", "P29_006": "4", "P29_007": "0", "P29_008": "00", "P29_009": null }, "geometry": { "type": "Point", "coordinates": [ 131.007846168455814, 32.871517411096178 ] } }
]
}
