{
"type": "FeatureCollection",
"name": "geo_43_看護小規模多機能型居宅介護（複合型サービス）",
"crs": { "type": "name", "properties": { "name": "urn:ogc:def:crs:OGC:1.3:CRS84" } },
"features": [
{ "type": "Feature", "properties": { "内容": "看護小規模多機能型居宅介護事業所　八王寺の杜【看護小規模多機能型居宅介護（複合型サービス）】熊本県熊本市中央区国府3丁目19－42", "url": "https://www.kaigokensaku.mhlw.go.jp/43/index.php?action_kouhyou_detail_004_kani=true&JigyosyoCd=4390102079-00&ServiceCd=&Type=search", "url2": "http://houwakai.sub.jp" }, "geometry": { "type": "Point", "coordinates": [ 130.722284700000046, 32.7873633 ] } },
{ "type": "Feature", "properties": { "内容": "ブロッサムわかば【看護小規模多機能型居宅介護（複合型サービス）】熊本県熊本市東区若葉１丁目33番１６号ブロッサムわかば", "url": "https://www.kaigokensaku.mhlw.go.jp/43/index.php?action_kouhyou_detail_004_kani=true&JigyosyoCd=4390102277-00&ServiceCd=&Type=search", "url2": "https://hc-b.com" }, "geometry": { "type": "Point", "coordinates": [ 130.761244, 32.776356 ] } },
{ "type": "Feature", "properties": { "内容": "看護小規模多機能型居宅介護事業所　はーとの樹【看護小規模多機能型居宅介護（複合型サービス）】熊本市東区佐土原３－９－２５", "url": "https://www.kaigokensaku.mhlw.go.jp/43/index.php?action_kouhyou_detail_004_kani=true&JigyosyoCd=4390103515-00&ServiceCd=&Type=search", "url2": "https://heartnoki-hc.com/" }, "geometry": { "type": "Point", "coordinates": [ 130.780510211639438, 32.794836159390144 ] } },
{ "type": "Feature", "properties": { "内容": "セントケア看護小規模くまもと【看護小規模多機能型居宅介護（複合型サービス）】熊本県熊本市東区新外3丁目3-33", "url": "https://www.kaigokensaku.mhlw.go.jp/43/index.php?action_kouhyou_detail_004_kani=true&JigyosyoCd=4390102582-00&ServiceCd=&Type=search", "url2": "https://www.saint-care.com" }, "geometry": { "type": "Point", "coordinates": [ 130.7666898, 32.7991872 ] } },
{ "type": "Feature", "properties": { "内容": "セントケア看護小規模おぜき【看護小規模多機能型居宅介護（複合型サービス）】熊本県熊本市東区新南部1丁目2-12", "url": "https://www.kaigokensaku.mhlw.go.jp/43/index.php?action_kouhyou_detail_004_kani=true&JigyosyoCd=4390103622-00&ServiceCd=&Type=search", "url2": "coozeki_sc43＠saint-care.com" }, "geometry": { "type": "Point", "coordinates": [ 130.744316, 32.8167482 ] } },
{ "type": "Feature", "properties": { "内容": "看護小規模多機能型居宅介護はるかぜ【看護小規模多機能型居宅介護（複合型サービス）】熊本県熊本市西区春日4丁目18番28号地域包括ケア杏心の丘　１階", "url": "https://www.kaigokensaku.mhlw.go.jp/43/index.php?action_kouhyou_detail_004_kani=true&JigyosyoCd=4390101519-00&ServiceCd=&Type=search", "url2": "https://seisinkai.or.jp/" }, "geometry": { "type": "Point", "coordinates": [ 130.686007199999949, 32.7942478 ] } },
{ "type": "Feature", "properties": { "内容": "看護小規模多機能型居宅介護事業所とりい【看護小規模多機能型居宅介護（複合型サービス）】熊本県熊本市南区薄場１丁目１０番２８号", "url": "https://www.kaigokensaku.mhlw.go.jp/43/index.php?action_kouhyou_detail_004_kani=true&JigyosyoCd=4390102004-00&ServiceCd=&Type=search", "url2": "https://www.matusita-kai.or.jp/" }, "geometry": { "type": "Point", "coordinates": [ 138.252924, 36.204824 ] } },
{ "type": "Feature", "properties": { "内容": "看護小規模多機能ホームむさし【看護小規模多機能型居宅介護（複合型サービス）】熊本市北区楠7丁目15-1", "url": "https://www.kaigokensaku.mhlw.go.jp/43/index.php?action_kouhyou_detail_004_kani=true&JigyosyoCd=4390101865-00&ServiceCd=&Type=search", "url2": "http://www.tanakakai.com/musashigaoka/" }, "geometry": { "type": "Point", "coordinates": [ 130.762365700000032, 32.8456609 ] } },
{ "type": "Feature", "properties": { "内容": "在宅ケアセンターひまわり【看護小規模多機能型居宅介護（複合型サービス）】熊本県熊本市北区植木町山本874-2", "url": "https://www.kaigokensaku.mhlw.go.jp/43/index.php?action_kouhyou_detail_004_kani=true&JigyosyoCd=4390102780-00&ServiceCd=&Type=search", "url2": "http://www.himawari-kaigo.com/" }, "geometry": { "type": "Point", "coordinates": [ 130.689989185534216, 32.912867037657243 ] } },
{ "type": "Feature", "properties": { "内容": "複合型サービス事業所　西王母【看護小規模多機能型居宅介護（複合型サービス）】熊本県八代市松江本町2番50号", "url": "https://www.kaigokensaku.mhlw.go.jp/43/index.php?action_kouhyou_detail_004_kani=true&JigyosyoCd=4390200295-00&ServiceCd=&Type=search", "url2": "https:/www.shinen.ltd" }, "geometry": { "type": "Point", "coordinates": [ 130.60384590000001, 32.5129952 ] } },
{ "type": "Feature", "properties": { "内容": "セントケア看護小規模八代【看護小規模多機能型居宅介護（複合型サービス）】熊本県八代市鏡町下有佐189-1", "url": "https://www.kaigokensaku.mhlw.go.jp/43/index.php?action_kouhyou_detail_004_kani=true&JigyosyoCd=4390200501-00&ServiceCd=&Type=search", "url2": "http://www.saint-care.com" }, "geometry": { "type": "Point", "coordinates": [ 130.669800599999974, 32.5641397 ] } },
{ "type": "Feature", "properties": { "内容": "複合型サービスともづな【看護小規模多機能型居宅介護（複合型サービス）】熊本県菊池市西寺1588番地1", "url": "https://www.kaigokensaku.mhlw.go.jp/43/index.php?action_kouhyou_detail_004_kani=true&JigyosyoCd=4391000090-00&ServiceCd=&Type=search", "url2": "http://www.tomoduna.co.jp/" }, "geometry": { "type": "Point", "coordinates": [ 130.796439175254818, 32.973937107169178 ] } },
{ "type": "Feature", "properties": { "内容": "セントケア看護小規模合志【看護小規模多機能型居宅介護（複合型サービス）】熊本県合志市幾久富1656-34", "url": "https://www.kaigokensaku.mhlw.go.jp/43/index.php?action_kouhyou_detail_004_kani=true&JigyosyoCd=4391600154-00&ServiceCd=&Type=search", "url2": "https://www.saint-care.com/center/912/" }, "geometry": { "type": "Point", "coordinates": [ 130.7811859, 32.8706858 ] } },
{ "type": "Feature", "properties": { "内容": "看護小規模多機能型居宅介護　コスモピアきくよう【看護小規模多機能型居宅介護（複合型サービス）】熊本県菊池郡菊陽町武蔵ケ丘１丁目13-13", "url": "https://www.kaigokensaku.mhlw.go.jp/43/index.php?action_kouhyou_detail_004_kani=true&JigyosyoCd=4392600286-00&ServiceCd=&Type=search", "url2": null }, "geometry": { "type": "Point", "coordinates": [ 130.773416700000013, 32.8592093 ] } },
{ "type": "Feature", "properties": { "内容": "看護小規模多機能いいの【看護小規模多機能型居宅介護（複合型サービス）】熊本県上益城郡益城町赤井1968番地", "url": "https://www.kaigokensaku.mhlw.go.jp/43/index.php?action_kouhyou_detail_004_kani=true&JigyosyoCd=4392800258-00&ServiceCd=&Type=search", "url2": null }, "geometry": { "type": "Point", "coordinates": [ 130.825206799999989, 32.7743406 ] } }
]
}
