{
"type": "FeatureCollection",
"name": "geo_43_介護医療院",
"crs": { "type": "name", "properties": { "name": "urn:ogc:def:crs:OGC:1.3:CRS84" } },
"features": [
{ "type": "Feature", "properties": { "内容": "表参道吉田病院　介護医療院【介護医療院】熊本市中央区北千反畑町2-5", "url": "https://www.kaigokensaku.mhlw.go.jp/43/index.php?action_kouhyou_detail_004_kani=true&JigyosyoCd=43B0100185-00&ServiceCd=550&Type=search", "url2": "http：//www.kiseikai.or.jp" }, "geometry": { "type": "Point", "coordinates": [ 130.7160265, 32.809054 ] } },
{ "type": "Feature", "properties": { "内容": "九州記念病院介護医療院【介護医療院】水前寺公園3-38", "url": "https://www.kaigokensaku.mhlw.go.jp/43/index.php?action_kouhyou_detail_004_kani=true&JigyosyoCd=43B0100219-00&ServiceCd=550&Type=search", "url2": "htttp://kkh.jp/" }, "geometry": { "type": "Point", "coordinates": [ 130.7316985, 32.7909603 ] } },
{ "type": "Feature", "properties": { "内容": "介護医療院　くまもと成仁病院【介護医療院】熊本県熊本市東区戸島2丁目3番15号", "url": "https://www.kaigokensaku.mhlw.go.jp/43/index.php?action_kouhyou_detail_004_kani=true&JigyosyoCd=43B0100011-00&ServiceCd=550&Type=search", "url2": "http://seijin-kumamoto.or.jp" }, "geometry": { "type": "Point", "coordinates": [ 130.792857799999979, 32.8167306 ] } },
{ "type": "Feature", "properties": { "内容": "介護医療院心ほか【介護医療院】新外3丁目9番1号", "url": "https://www.kaigokensaku.mhlw.go.jp/43/index.php?action_kouhyou_detail_004_kani=true&JigyosyoCd=43B0100029-00&ServiceCd=550&Type=search", "url2": "http://www.honjyo-hp.jp" }, "geometry": { "type": "Point", "coordinates": [ 130.76319680000006, 32.7979225 ] } },
{ "type": "Feature", "properties": { "内容": "悠愛病院　介護医療院【介護医療院】画図町下無田1139", "url": "https://www.kaigokensaku.mhlw.go.jp/43/index.php?action_kouhyou_detail_004_kani=true&JigyosyoCd=43B0100102-00&ServiceCd=550&Type=search", "url2": "https://www.yuuaihospital.com" }, "geometry": { "type": "Point", "coordinates": [ 130.734993, 32.756733 ] } },
{ "type": "Feature", "properties": { "内容": "みこころ介護医療院【介護医療院】熊本県熊本市西区上熊本2丁目１１－２４", "url": "https://www.kaigokensaku.mhlw.go.jp/43/index.php?action_kouhyou_detail_004_kani=true&JigyosyoCd=43B0100177-00&ServiceCd=550&Type=search", "url2": "https://www.mikokorohp.com/" }, "geometry": { "type": "Point", "coordinates": [ 130.6999328, 32.812944 ] } },
{ "type": "Feature", "properties": { "内容": "介護医療院せいじの【介護医療院】熊本市西区島崎2丁目22番15号", "url": "https://www.kaigokensaku.mhlw.go.jp/43/index.php?action_kouhyou_detail_004_kani=true&JigyosyoCd=43B0100144-00&ServiceCd=550&Type=search", "url2": "https://www.seijino.or.jp/" }, "geometry": { "type": "Point", "coordinates": [ 130.6917044, 32.8078753 ] } },
{ "type": "Feature", "properties": { "内容": "末次介護医療院【介護医療院】熊本県熊本市西区上高橋２丁目１３番６号", "url": "https://www.kaigokensaku.mhlw.go.jp/43/index.php?action_kouhyou_detail_004_kani=true&JigyosyoCd=43B0100136-00&ServiceCd=550&Type=search", "url2": "https://suetsugu-naika.com" }, "geometry": { "type": "Point", "coordinates": [ 130.656528900000012, 32.7861854 ] } },
{ "type": "Feature", "properties": { "内容": "介護医療院あきた【介護医療院】熊本県熊本市南区会富町１１２０", "url": "https://www.kaigokensaku.mhlw.go.jp/43/index.php?action_kouhyou_detail_004_kani=true&JigyosyoCd=43B0100128-00&ServiceCd=550&Type=search", "url2": "http://www.akita-hospital.or.jp" }, "geometry": { "type": "Point", "coordinates": [ 130.6536484, 32.7526808 ] } },
{ "type": "Feature", "properties": { "内容": "介護医療院　ゆずりは【介護医療院】熊本県熊本市南区城南町高1099番地", "url": "https://www.kaigokensaku.mhlw.go.jp/43/index.php?action_kouhyou_detail_004_kani=true&JigyosyoCd=43B0100045-00&ServiceCd=550&Type=search", "url2": "http://yuzuriha-k.or.jp/" }, "geometry": { "type": "Point", "coordinates": [ 130.708387600000037, 32.7341937 ] } },
{ "type": "Feature", "properties": { "内容": "小林病院　介護医療院【介護医療院】熊本県熊本市南区城南町隈庄574", "url": "https://www.kaigokensaku.mhlw.go.jp/43/index.php?action_kouhyou_detail_004_kani=true&JigyosyoCd=43B0100151-00&ServiceCd=550&Type=search", "url2": "http://www.k-group.jp/kobayashihp/index.html" }, "geometry": { "type": "Point", "coordinates": [ 130.729223544844075, 32.703772578708062 ] } },
{ "type": "Feature", "properties": { "内容": "介護医療院　ひらた苑【介護医療院】熊本県熊本市北区植木町平原２２１番地", "url": "https://www.kaigokensaku.mhlw.go.jp/43/index.php?action_kouhyou_detail_004_kani=true&JigyosyoCd=43B0100086-00&ServiceCd=550&Type=search", "url2": "https://www.touyoukai.com/hirataen" }, "geometry": { "type": "Point", "coordinates": [ 130.6544313, 32.921963 ] } },
{ "type": "Feature", "properties": { "内容": "寺尾病院介護医療院【介護医療院】熊本市北区小糸山町759", "url": "https://www.kaigokensaku.mhlw.go.jp/43/index.php?action_kouhyou_detail_004_kani=true&JigyosyoCd=43B0100094-00&ServiceCd=550&Type=search", "url2": "http://www.terao.or.jp" }, "geometry": { "type": "Point", "coordinates": [ 130.693310320901531, 32.892898942022583 ] } },
{ "type": "Feature", "properties": { "内容": "菊南病院介護医療院【介護医療院】熊本県熊本市北区鶴羽田3丁目1-53", "url": "https://www.kaigokensaku.mhlw.go.jp/43/index.php?action_kouhyou_detail_004_kani=true&JigyosyoCd=43B0100060-00&ServiceCd=550&Type=search", "url2": "http://www.kikunan-hospital.com" }, "geometry": { "type": "Point", "coordinates": [ 130.726866699999988, 32.8588318 ] } },
{ "type": "Feature", "properties": { "内容": "くまもと成城介護医療院【介護医療院】熊本市北区室園町10番17号", "url": "https://www.kaigokensaku.mhlw.go.jp/43/index.php?action_kouhyou_detail_004_kani=true&JigyosyoCd=43B0100193-00&ServiceCd=550&Type=search", "url2": "https://www.k-seijo.or.jp/" }, "geometry": { "type": "Point", "coordinates": [ 130.723263, 32.8236548 ] } },
{ "type": "Feature", "properties": { "内容": "介護医療院はくあい【介護医療院】熊本県熊本市北区楠６丁目６番６０号", "url": "https://www.kaigokensaku.mhlw.go.jp/43/index.php?action_kouhyou_detail_004_kani=true&JigyosyoCd=43B0100078-00&ServiceCd=550&Type=search", "url2": "https://uenokai.com" }, "geometry": { "type": "Point", "coordinates": [ 130.7630084, 32.8505536 ] } },
{ "type": "Feature", "properties": { "内容": "八景水谷クリニック介護医療院【介護医療院】熊本県熊本市北区八景水谷1丁目31番16号", "url": "https://www.kaigokensaku.mhlw.go.jp/43/index.php?action_kouhyou_detail_004_kani=true&JigyosyoCd=43B0100110-00&ServiceCd=550&Type=search", "url2": "http://www.hakemiya.com/dr.html" }, "geometry": { "type": "Point", "coordinates": [ 130.724975199999989, 32.8506669 ] } },
{ "type": "Feature", "properties": { "内容": "橋本整形外科内科　介護医療院【介護医療院】熊本県熊本市北区改寄町2380-5", "url": "https://www.kaigokensaku.mhlw.go.jp/43/index.php?action_kouhyou_detail_004_kani=true&JigyosyoCd=43B0100169-00&ServiceCd=550&Type=search", "url2": "https：//hashimotoseikei.com/" }, "geometry": { "type": "Point", "coordinates": [ 130.6926637, 32.8951722 ] } },
{ "type": "Feature", "properties": { "内容": "八代敬仁病院　介護医療院【介護医療院】熊本県八代市海士江町2817番地", "url": "https://www.kaigokensaku.mhlw.go.jp/43/index.php?action_kouhyou_detail_004_kani=true&JigyosyoCd=43B0200019-00&ServiceCd=550&Type=search", "url2": "http://www.yatsushirokeijin.com" }, "geometry": { "type": "Point", "coordinates": [ 130.6227786, 32.524344 ] } },
{ "type": "Feature", "properties": { "内容": "平成病院介護医療院【介護医療院】熊本県八代市大村町720-1", "url": "https://www.kaigokensaku.mhlw.go.jp/43/index.php?action_kouhyou_detail_004_kani=true&JigyosyoCd=43B0200027-00&ServiceCd=550&Type=search", "url2": "https://heiseikai-k.or.jp/kaigoiryo" }, "geometry": { "type": "Point", "coordinates": [ 130.617277737959284, 32.514518171521274 ] } },
{ "type": "Feature", "properties": { "内容": "医療法人朝日野会　球磨病院介護医療院【介護医療院】上青井町170-1", "url": "https://www.kaigokensaku.mhlw.go.jp/43/index.php?action_kouhyou_detail_004_kani=true&JigyosyoCd=43B0300025-00&ServiceCd=550&Type=search", "url2": "http://www.soshundo.jp/hitoyoshi/" }, "geometry": { "type": "Point", "coordinates": [ 130.756796, 32.2131535 ] } },
{ "type": "Feature", "properties": { "内容": "介護医療院　人吉リハビリテーション病院【介護医療院】熊本県人吉市下新町359番地", "url": "https://www.kaigokensaku.mhlw.go.jp/43/index.php?action_kouhyou_detail_004_kani=true&JigyosyoCd=43B0300041-00&ServiceCd=550&Type=search", "url2": "http://oyakuen-g.or.jp" }, "geometry": { "type": "Point", "coordinates": [ 130.7690048, 32.2151457 ] } },
{ "type": "Feature", "properties": { "内容": "外山胃腸病院　介護医療院【介護医療院】熊本県人吉市南泉田町1番地", "url": "https://www.kaigokensaku.mhlw.go.jp/43/index.php?action_kouhyou_detail_004_kani=true&JigyosyoCd=43B0300017-00&ServiceCd=550&Type=search", "url2": "https://www.gh-toyama.or.jp/" }, "geometry": { "type": "Point", "coordinates": [ 130.760714199999939, 32.217871 ] } },
{ "type": "Feature", "properties": { "内容": "荒尾中央病院介護医療院【介護医療院】熊本県荒尾市増永1544番地1", "url": "https://www.kaigokensaku.mhlw.go.jp/43/index.php?action_kouhyou_detail_004_kani=true&JigyosyoCd=43B0400015-00&ServiceCd=550&Type=search", "url2": "https://www.senshinkai.or.jp/chuoh/" }, "geometry": { "type": "Point", "coordinates": [ 130.4408894, 32.9730825 ] } },
{ "type": "Feature", "properties": { "内容": "ふれあいクリニック介護医療院【介護医療院】熊本県荒尾市川登1761-24", "url": "https://www.kaigokensaku.mhlw.go.jp/43/index.php?action_kouhyou_detail_004_kani=true&JigyosyoCd=43B0400023-00&ServiceCd=550&Type=search", "url2": "http://araoclinic.jp/kanren/fureai.php" }, "geometry": { "type": "Point", "coordinates": [ 130.4330435, 32.986737 ] } },
{ "type": "Feature", "properties": { "内容": "介護医療院ふちがみ【介護医療院】熊本県水俣市塩浜町2番19号渕上病院", "url": "https://www.kaigokensaku.mhlw.go.jp/43/index.php?action_kouhyou_detail_004_kani=true&JigyosyoCd=43B0500012-00&ServiceCd=550&Type=search", "url2": "https://www.sue-hirokai.com" }, "geometry": { "type": "Point", "coordinates": [ 130.394829800000025, 32.212527 ] } },
{ "type": "Feature", "properties": { "内容": "白梅病院介護医療院【介護医療院】熊本県水俣市浜4089番地1白梅病院3階", "url": "https://www.kaigokensaku.mhlw.go.jp/43/index.php?action_kouhyou_detail_004_kani=true&JigyosyoCd=43B0500020-00&ServiceCd=550&Type=search", "url2": "http://www.kaigocsc.co.jp/shiraume/hospital/" }, "geometry": { "type": "Point", "coordinates": [ 130.413227299999988, 32.2302275 ] } },
{ "type": "Feature", "properties": { "内容": "岡部病院　介護医療院【介護医療院】熊本県水俣市桜井町3丁目3番3号", "url": "https://www.kaigokensaku.mhlw.go.jp/43/index.php?action_kouhyou_detail_004_kani=true&JigyosyoCd=43B0500038-00&ServiceCd=550&Type=search", "url2": "http://www.okabehospital.jp/" }, "geometry": { "type": "Point", "coordinates": [ 130.39841340000001, 32.2075629 ] } },
{ "type": "Feature", "properties": { "内容": "介護医療院　ゆうきの里【介護医療院】熊本県玉名市上小田1063番地", "url": "https://www.kaigokensaku.mhlw.go.jp/43/index.php?action_kouhyou_detail_004_kani=true&JigyosyoCd=43B0600010-00&ServiceCd=550&Type=search", "url2": "http://www.yukikai.or.jp" }, "geometry": { "type": "Point", "coordinates": [ 130.5868365, 32.9517825 ] } },
{ "type": "Feature", "properties": { "内容": "医療法人至誠会保利病院介護医療院【介護医療院】熊本県山鹿市古閑984保利病院介護医療院　225号室・226号室", "url": "https://www.kaigokensaku.mhlw.go.jp/43/index.php?action_kouhyou_detail_004_kani=true&JigyosyoCd=43B0800016-00&ServiceCd=550&Type=search", "url2": "ｈｏｒｉ－ｈｐ＠ｉｓｉｓ．ｏｃｎ．ｎｅ．ｊｐ" }, "geometry": { "type": "Point", "coordinates": [ 130.71704520000003, 33.0095489 ] } },
{ "type": "Feature", "properties": { "内容": "介護医療院　菊池中央病院【介護医療院】熊本県菊池市隈府４９４番地菊池中央病院４階", "url": "https://www.kaigokensaku.mhlw.go.jp/43/index.php?action_kouhyou_detail_004_kani=true&JigyosyoCd=43B1000020-00&ServiceCd=550&Type=search", "url2": "http://www.nobuokakai@ecnet.jp" }, "geometry": { "type": "Point", "coordinates": [ 130.8069205, 32.9796292 ] } },
{ "type": "Feature", "properties": { "内容": "宮﨑外科胃腸科医院介護医療院【介護医療院】熊本県上天草市大矢野町上1519", "url": "https://www.kaigokensaku.mhlw.go.jp/43/index.php?action_kouhyou_detail_004_kani=true&JigyosyoCd=43B1200018-00&ServiceCd=550&Type=search", "url2": "http://www.miyazaki-gekaichoka-iin.com" }, "geometry": { "type": "Point", "coordinates": [ 130.4304267, 32.5865016 ] } },
{ "type": "Feature", "properties": { "内容": "みずたみ医院　介護医療院【介護医療院】熊本県宇城市松橋町竹崎1115-32", "url": "https://www.kaigokensaku.mhlw.go.jp/43/index.php?action_kouhyou_detail_004_kani=true&JigyosyoCd=43B1300024-00&ServiceCd=550&Type=search", "url2": null }, "geometry": { "type": "Point", "coordinates": [ 130.7099905, 32.6281796 ] } },
{ "type": "Feature", "properties": { "内容": "桜十字熊本宇城病院介護医療院【介護医療院】熊本県宇城市小川町北新田5", "url": "https://www.kaigokensaku.mhlw.go.jp/43/index.php?action_kouhyou_detail_004_kani=true&JigyosyoCd=43B1300016-00&ServiceCd=550&Type=search", "url2": "https://www.sj-kumamoto-uki.jp/" }, "geometry": { "type": "Point", "coordinates": [ 130.7045345474763, 32.598307822067554 ] } },
{ "type": "Feature", "properties": { "内容": "大阿蘇病院　介護医療院【介護医療院】熊本県阿蘇市一の宮町宮地5833番地", "url": "https://www.kaigokensaku.mhlw.go.jp/43/index.php?action_kouhyou_detail_004_kani=true&JigyosyoCd=43B1400014-00&ServiceCd=550&Type=search", "url2": "http://www.daitokukai.info/" }, "geometry": { "type": "Point", "coordinates": [ 131.1117041, 32.933064099999989 ] } },
{ "type": "Feature", "properties": { "内容": "ニュー天草病院介護医療院【介護医療院】熊本県天草市太田町2番地1", "url": "https://www.kaigokensaku.mhlw.go.jp/43/index.php?action_kouhyou_detail_004_kani=true&JigyosyoCd=43B1500011-00&ServiceCd=550&Type=search", "url2": "http://newamakusa-hospital.com/" }, "geometry": { "type": "Point", "coordinates": [ 130.198721, 32.4491328 ] } },
{ "type": "Feature", "properties": { "内容": "介護医療院　松本内科・眼科【介護医療院】熊本県天草市久玉町５７１６－６", "url": "https://www.kaigokensaku.mhlw.go.jp/43/index.php?action_kouhyou_detail_004_kani=true&JigyosyoCd=43B1500029-00&ServiceCd=550&Type=search", "url2": "http://www.matsumotonaikaganka.jp/" }, "geometry": { "type": "Point", "coordinates": [ 130.027876699999979, 32.213743100000023 ] } },
{ "type": "Feature", "properties": { "内容": "福本病院　介護医療院【介護医療院】熊本県天草市牛深町1522-46", "url": "https://www.kaigokensaku.mhlw.go.jp/43/index.php?action_kouhyou_detail_004_kani=true&JigyosyoCd=43B1500037-00&ServiceCd=550&Type=search", "url2": null }, "geometry": { "type": "Point", "coordinates": [ 130.030220899999989, 32.2005272 ] } },
{ "type": "Feature", "properties": { "内容": "石松FC介護医療院【介護医療院】熊本県天草市久玉町1411番地133", "url": "https://www.kaigokensaku.mhlw.go.jp/43/index.php?action_kouhyou_detail_004_kani=true&JigyosyoCd=43B1500045-00&ServiceCd=550&Type=search", "url2": "https://nakamuraclinic-1.hp.peraichi.com" }, "geometry": { "type": "Point", "coordinates": [ 130.0329256, 32.21659 ] } },
{ "type": "Feature", "properties": { "内容": "介護医療院小松医院【介護医療院】熊本県天草市牛深町1498番地27", "url": "https://www.kaigokensaku.mhlw.go.jp/43/index.php?action_kouhyou_detail_004_kani=true&JigyosyoCd=43B1500052-00&ServiceCd=550&Type=search", "url2": null }, "geometry": { "type": "Point", "coordinates": [ 130.031454200000013, 32.202516 ] } },
{ "type": "Feature", "properties": { "内容": "美里リハビリテーション病院介護医療院【介護医療院】熊本県下益城郡美里町洞岳1308番地", "url": "https://www.kaigokensaku.mhlw.go.jp/43/index.php?action_kouhyou_detail_004_kani=true&JigyosyoCd=43B2300015-00&ServiceCd=550&Type=search", "url2": "hospital@misato-riha.jp" }, "geometry": { "type": "Point", "coordinates": [ 130.922447599999941, 32.6351358 ] } },
{ "type": "Feature", "properties": { "内容": "介護医療院間部病院【介護医療院】熊本県下益城郡美里町永富328", "url": "https://www.kaigokensaku.mhlw.go.jp/43/index.php?action_kouhyou_detail_004_kani=true&JigyosyoCd=43B2300023-00&ServiceCd=550&Type=search", "url2": "http://www.mabe-hosp.jp" }, "geometry": { "type": "Point", "coordinates": [ 130.8586315, 32.618009 ] } },
{ "type": "Feature", "properties": { "内容": "くまもと温石病院　介護医療院【介護医療院】熊本県下益城郡美里町中小路835", "url": "https://www.kaigokensaku.mhlw.go.jp/43/index.php?action_kouhyou_detail_004_kani=true&JigyosyoCd=43B2300031-00&ServiceCd=550&Type=search", "url2": "http://www.onjaku.jp" }, "geometry": { "type": "Point", "coordinates": [ 130.7792757, 32.6405481 ] } },
{ "type": "Feature", "properties": { "内容": "介護医療院せいわの里【介護医療院】熊本県玉名郡長洲町宮野2775番地", "url": "https://www.kaigokensaku.mhlw.go.jp/43/index.php?action_kouhyou_detail_004_kani=true&JigyosyoCd=43B2400013-00&ServiceCd=550&Type=search", "url2": "http://www.ariakeseijin.or.jp" }, "geometry": { "type": "Point", "coordinates": [ 130.4930242, 32.9508208 ] } },
{ "type": "Feature", "properties": { "内容": "ながすクリニック　介護医療院【介護医療院】熊本県玉名郡長洲町長洲1354番地", "url": "https://www.kaigokensaku.mhlw.go.jp/43/index.php?action_kouhyou_detail_004_kani=true&JigyosyoCd=43B2400021-00&ServiceCd=550&Type=search", "url2": null }, "geometry": { "type": "Point", "coordinates": [ 130.445385, 32.9330502 ] } },
{ "type": "Feature", "properties": { "内容": "菊陽台病院介護医療院【介護医療院】熊本県菊池郡菊陽町久保田2984", "url": "https://www.kaigokensaku.mhlw.go.jp/43/index.php?action_kouhyou_detail_004_kani=true&JigyosyoCd=43B2600018-00&ServiceCd=550&Type=search", "url2": "https://www.kikuyodai-hospital.com/" }, "geometry": { "type": "Point", "coordinates": [ 130.833954203041088, 32.861586026921323 ] } },
{ "type": "Feature", "properties": { "内容": "西村病院介護医療院【介護医療院】熊本県上益城郡嘉島町北甘木2083番地", "url": "https://www.kaigokensaku.mhlw.go.jp/43/index.php?action_kouhyou_detail_004_kani=true&JigyosyoCd=43B2800022-00&ServiceCd=550&Type=search", "url2": null }, "geometry": { "type": "Point", "coordinates": [ 130.770719800000052, 32.7481804 ] } },
{ "type": "Feature", "properties": { "内容": "谷田病院介護医療院【介護医療院】熊本県上益城郡甲佐町岩下１２３", "url": "https://www.kaigokensaku.mhlw.go.jp/43/index.php?action_kouhyou_detail_004_kani=true&JigyosyoCd=43B2800014-00&ServiceCd=550&Type=search", "url2": "https://www.yatsuda-kai.jp/" }, "geometry": { "type": "Point", "coordinates": [ 130.810163, 32.6509365 ] } },
{ "type": "Feature", "properties": { "内容": "荒瀬病院介護医療院【介護医療院】熊本県上益城郡甲佐町緑町３３１", "url": "https://www.kaigokensaku.mhlw.go.jp/43/index.php?action_kouhyou_detail_004_kani=true&JigyosyoCd=43B2800030-00&ServiceCd=550&Type=search", "url2": "www.arase-hp.com" }, "geometry": { "type": "Point", "coordinates": [ 130.8088581, 32.6490579 ] } },
{ "type": "Feature", "properties": { "内容": "瀬戸病院介護医療院【介護医療院】上益城郡山都町北中島2806", "url": "https://www.kaigokensaku.mhlw.go.jp/43/index.php?action_kouhyou_detail_004_kani=true&JigyosyoCd=43B2800048-00&ServiceCd=550&Type=search", "url2": "https://www.seto-hosp.or.jp/" }, "geometry": { "type": "Point", "coordinates": [ 130.9366675, 32.7353892 ] } },
{ "type": "Feature", "properties": { "内容": "浜町中央介護医療院【介護医療院】熊本県上益城郡山都町浜町167番地", "url": "https://www.kaigokensaku.mhlw.go.jp/43/index.php?action_kouhyou_detail_004_kani=true&JigyosyoCd=43B2800055-00&ServiceCd=550&Type=search", "url2": null }, "geometry": { "type": "Point", "coordinates": [ 130.9872942, 32.6838844 ] } },
{ "type": "Feature", "properties": { "内容": "介護医療院篠原医院【介護医療院】熊本県葦北郡芦北町佐敷３７０番地１", "url": "https://www.kaigokensaku.mhlw.go.jp/43/index.php?action_kouhyou_detail_004_kani=true&JigyosyoCd=43B3000010-00&ServiceCd=550&Type=search", "url2": null }, "geometry": { "type": "Point", "coordinates": [ 130.5032937, 32.3061181 ] } },
{ "type": "Feature", "properties": { "内容": "天草慈恵病院　介護医療院【介護医療院】熊本県天草郡苓北町上津深江278-10", "url": "https://www.kaigokensaku.mhlw.go.jp/43/index.php?action_kouhyou_detail_004_kani=true&JigyosyoCd=43B3200016-00&ServiceCd=550&Type=search", "url2": "http://www.inahokai.com/" }, "geometry": { "type": "Point", "coordinates": [ 130.06801689742835, 32.517720674410626 ] } }
]
}
